<?xml version="1.0" encoding="UTF-8"?><gpx xmlns:xsi="http://www.w3.org/2001/XMLSchema-instance" version="1.0" xmlns="http://www.topografix.com/GPX/1/0" creator="http://biketourist.club" xsi:schemaLocation="http://www.topografix.com/GPX/1/0 http://www.topografix.com/GPX/1/0/gpx.xsd"><wpt lat="55.79152" lon="27.44891"><ele>111</ele><name><![CDATA[борисов камень]]></name></wpt><wpt lat="55.76015" lon="27.6171"><ele>124</ele><name><![CDATA[водопад]]></name></wpt><wpt lat="55.57662" lon="26.68537"><ele>139</ele><name><![CDATA[гэс Дружба Народов]]></name></wpt><wpt lat="55.7845" lon="27.42803"><ele>136</ele><name><![CDATA[кладбище еврейское с 1542]]></name></wpt><wpt lat="55.70973" lon="27.57781"><ele>151</ele><name><![CDATA[костел Богоматери Шкаплерной]]></name></wpt><wpt lat="55.78774" lon="27.46333"><ele>121</ele><name><![CDATA[костел Троицкий 1643-46]]></name></wpt><wpt lat="55.59007" lon="26.66673"><ele>150</ele><name><![CDATA[костел св. Петра и Павла 1929]]></name></wpt><wpt lat="55.52865" lon="26.7608"><ele>146</ele><name><![CDATA[костел св. апостола Якуба ]]></name></wpt><wpt lat="55.53476" lon="26.82046"><ele>170</ele><name><![CDATA[костел св. Иоанна Крестителя 1887]]></name></wpt><wpt lat="55.68587" lon="26.71331"><ele>148</ele><name><![CDATA[ночевка озеро Ричи]]></name></wpt><wpt lat="55.76268" lon="27.29846"><ele>153</ele><name><![CDATA[родник Толстогорский]]></name></wpt><wpt lat="55.67305" lon="26.69332"><ele>161</ele><name><![CDATA[родник Красинский]]></name></wpt><wpt lat="55.79072" lon="27.44751"><ele>106</ele><name><![CDATA[кладбище еврейское с 1542]]></name></wpt><wpt lat="55.71693" lon="27.57317"><ele>137</ele><name><![CDATA[часовня-усыпальница Милошей 1862 г]]></name></wpt><wpt lat="55.79152" lon="27.45435"><ele>109</ele><name><![CDATA[церковь Благовещенская (руины) 1740]]></name></wpt><wpt lat="55.67057" lon="26.72776"><ele>150</ele><name><![CDATA[церковь старообрядческая св. Николы 1-я половина XIX в.]]></name></wpt><wpt lat="55.58904" lon="26.68225"><ele>146</ele><name><![CDATA[церковь церковь св. Петра и Павла 1908]]></name></wpt><wpt lat="55.7923" lon="27.4461"><ele>104</ele><name><![CDATA[вид на село Пиедруя(Латвия)]]></name></wpt><wpt lat="55.75429" lon="27.23981"><ele>145</ele><name><![CDATA[озеро Дуброк]]></name></wpt><wpt lat="55.75987" lon="27.2315"><ele>139</ele><name><![CDATA[озеро Обабье]]></name></wpt><wpt lat="55.76666" lon="27.24225"><ele>143</ele><name><![CDATA[стоянка Медведно 2]]></name></wpt><wpt lat="55.76509" lon="27.23797"><ele>139</ele><name><![CDATA[стоянка Медведно 1]]></name></wpt><wpt lat="55.76832" lon="27.21335"><ele>134</ele><name><![CDATA[озеро Дубро]]></name></wpt><wpt lat="55.76052" lon="27.19056"><ele>130</ele><name><![CDATA[озеро Большая Ельня]]></name></wpt><wpt lat="55.76233" lon="27.18709"><ele>133</ele><name><![CDATA[озеро Малая Ельня]]></name></wpt><wpt lat="55.76962" lon="27.1361"><ele>138</ele><name><![CDATA[поворот на Волосо]]></name></wpt><wpt lat="55.75766" lon="27.11685"><ele>139</ele><name><![CDATA[турсоянка Чистый Берег]]></name></wpt><wpt lat="55.76094" lon="27.13233"><ele>138</ele><name><![CDATA[ХЗ]]></name></wpt><wpt lat="55.75439" lon="27.30871"><ele>141</ele><name><![CDATA[озеро Сельпе]]></name></wpt><wpt lat="55.75772" lon="27.11748"><ele>135</ele><name><![CDATA[озеро Северное Волосо]]></name></wpt><wpt lat="55.7315" lon="27.10291"><ele>131</ele><name><![CDATA[Снуды.Стоянка Солнечная]]></name></wpt><wpt lat="55.72785" lon="27.10752"><ele>135</ele><name><![CDATA[т/с Кириловка]]></name></wpt><wpt lat="55.71124" lon="27.08032"><ele>132</ele><name><![CDATA[т/с Тунис]]></name></wpt><wpt lat="55.71161" lon="27.07905"><ele>131</ele><name><![CDATA[т/с Турция]]></name></wpt><wpt lat="55.70964" lon="27.0717"><ele>132</ele><name><![CDATA[беседка Голубые Ели]]></name></wpt><wpt lat="55.67817" lon="27.07482"><ele>130</ele><name><![CDATA[озеро Войсо]]></name></wpt><wpt lat="55.70848" lon="27.07429"><ele>129</ele><name><![CDATA[т/с Березы]]></name></wpt><wpt lat="55.67873" lon="27.07445"><ele>130</ele><name><![CDATA[озеро Плутинок]]></name></wpt><wpt lat="55.6597" lon="27.05546"><ele>130</ele><name><![CDATA[озеро Болойсо]]></name></wpt><wpt lat="55.67205" lon="27.01269"><ele>132</ele><name><![CDATA[озеро Ельно]]></name></wpt><wpt lat="55.677" lon="26.93238"><ele>141</ele><name><![CDATA[озеро Буже]]></name></wpt><wpt lat="55.65765" lon="26.86792"><ele>149</ele><name><![CDATA[Вольеры]]></name></wpt><wpt lat="55.65854" lon="26.87078"><ele>145</ele><name><![CDATA[озеро Савонар]]></name></wpt><wpt lat="55.615" lon="26.70878"><ele>146</ele><name><![CDATA[старообрядческая Покровская начало 20]]></name></wpt><wpt lat="55.6165" lon="26.70776"><ele>144</ele><name><![CDATA[озеро Муйса]]></name></wpt><wpt lat="55.59386" lon="26.66109"><ele>138</ele><name><![CDATA[вид на Дрисвяты]]></name></wpt><wpt lat="55.58266" lon="26.68485"><ele>141</ele><name><![CDATA[озеро Ставок]]></name></wpt><wpt lat="55.47029" lon="27.01504"><ele>140</ele><name><![CDATA[озеро Богдановское]]></name></wpt><wpt lat="55.45117" lon="26.99813"><ele>134</ele><name><![CDATA[озеро Милашковское]]></name></wpt><wpt lat="55.43973" lon="27.00572"><ele>137</ele><name><![CDATA[озеро Янка]]></name></wpt><wpt lat="55.49855" lon="26.99195"><ele>143</ele><name><![CDATA[лес Бельмонт]]></name></wpt><wpt lat="55.3627" lon="27.03126"><ele>135</ele><name><![CDATA[река Нищенка]]></name></wpt><wpt lat="55.3608" lon="27.45754"><ele>122</ele><name><![CDATA[церковь Успенская 1912]]></name></wpt><trk><name><![CDATA[19-21.06.2020 Браславы (Идолты - Шарковщизна) ]]></name><trkseg><trkpt lat="55.70129" lon="27.58071"><ele>147</ele></trkpt><trkpt lat="55.70094" lon="27.58116"><ele>145</ele></trkpt><trkpt lat="55.70114" lon="27.58171"><ele>143</ele></trkpt><trkpt lat="55.70163" lon="27.58277"><ele>143</ele></trkpt><trkpt lat="55.70386" lon="27.58137"><ele>143</ele></trkpt><trkpt lat="55.70749" lon="27.57933"><ele>142</ele></trkpt><trkpt lat="55.70852" lon="27.57884"><ele>148</ele></trkpt><trkpt lat="55.70991" lon="27.5789"><ele>150</ele></trkpt><trkpt lat="55.71004" lon="27.57629"><ele>149</ele></trkpt><trkpt lat="55.71047" lon="27.57199"><ele>141</ele></trkpt><trkpt lat="55.71109" lon="27.5709"><ele>140</ele></trkpt><trkpt lat="55.713" lon="27.56927"><ele>139</ele></trkpt><trkpt lat="55.71601" lon="27.56732"><ele>138</ele></trkpt><trkpt lat="55.71667" lon="27.5668"><ele>137</ele></trkpt><trkpt lat="55.71669" lon="27.5668"><ele>137</ele></trkpt><trkpt lat="55.71637" lon="27.56931"><ele>136</ele></trkpt><trkpt lat="55.71637" lon="27.57255"><ele>137</ele></trkpt><trkpt lat="55.7171" lon="27.57317"><ele>137</ele></trkpt><trkpt lat="55.71637" lon="27.57275"><ele>137</ele></trkpt><trkpt lat="55.71639" lon="27.57324"><ele>137</ele></trkpt><trkpt lat="55.7162" lon="27.57489"><ele>134</ele></trkpt><trkpt lat="55.71642" lon="27.57811"><ele>139</ele></trkpt><trkpt lat="55.71648" lon="27.58058"><ele>141</ele></trkpt><trkpt lat="55.71783" lon="27.58116"><ele>141</ele></trkpt><trkpt lat="55.71901" lon="27.58118"><ele>140</ele></trkpt><trkpt lat="55.71905" lon="27.58159"><ele>140</ele></trkpt><trkpt lat="55.72047" lon="27.58206"><ele>140</ele></trkpt><trkpt lat="55.72208" lon="27.58317"><ele>138</ele></trkpt><trkpt lat="55.72339" lon="27.58483"><ele>138</ele></trkpt><trkpt lat="55.72491" lon="27.58564"><ele>140</ele></trkpt><trkpt lat="55.72714" lon="27.58925"><ele>141</ele></trkpt><trkpt lat="55.72804" lon="27.58993"><ele>138</ele></trkpt><trkpt lat="55.72863" lon="27.59015"><ele>138</ele></trkpt><trkpt lat="55.72987" lon="27.59244"><ele>140</ele></trkpt><trkpt lat="55.73077" lon="27.59304"><ele>141</ele></trkpt><trkpt lat="55.73332" lon="27.5971"><ele>139</ele></trkpt><trkpt lat="55.73474" lon="27.59946"><ele>138</ele></trkpt><trkpt lat="55.73867" lon="27.60669"><ele>133</ele></trkpt><trkpt lat="55.73959" lon="27.60742"><ele>132</ele></trkpt><trkpt lat="55.74079" lon="27.60813"><ele>133</ele></trkpt><trkpt lat="55.74352" lon="27.60836"><ele>133</ele></trkpt><trkpt lat="55.7447" lon="27.60809"><ele>132</ele></trkpt><trkpt lat="55.74628" lon="27.60712"><ele>135</ele></trkpt><trkpt lat="55.74806" lon="27.60577"><ele>134</ele></trkpt><trkpt lat="55.74839" lon="27.60759"><ele>135</ele></trkpt><trkpt lat="55.74922" lon="27.61025"><ele>135</ele></trkpt><trkpt lat="55.74967" lon="27.61021"><ele>135</ele></trkpt><trkpt lat="55.75034" lon="27.60991"><ele>135</ele></trkpt><trkpt lat="55.75036" lon="27.60965"><ele>135</ele></trkpt><trkpt lat="55.75053" lon="27.60952"><ele>135</ele></trkpt><trkpt lat="55.75126" lon="27.60997"><ele>136</ele></trkpt><trkpt lat="55.75158" lon="27.60991"><ele>135</ele></trkpt><trkpt lat="55.75199" lon="27.61034"><ele>136</ele></trkpt><trkpt lat="55.75394" lon="27.60995"><ele>133</ele></trkpt><trkpt lat="55.75429" lon="27.6097"><ele>133</ele></trkpt><trkpt lat="55.75478" lon="27.61004"><ele>135</ele></trkpt><trkpt lat="55.75729" lon="27.61115"><ele>133</ele></trkpt><trkpt lat="55.75794" lon="27.61092"><ele>133</ele></trkpt><trkpt lat="55.75832" lon="27.61214"><ele>134</ele></trkpt><trkpt lat="55.75852" lon="27.61263"><ele>134</ele></trkpt><trkpt lat="55.75918" lon="27.61407"><ele>134</ele></trkpt><trkpt lat="55.75929" lon="27.61457"><ele>134</ele></trkpt><trkpt lat="55.76008" lon="27.61626"><ele>128</ele></trkpt><trkpt lat="55.7601" lon="27.61703"><ele>124</ele></trkpt><trkpt lat="55.76008" lon="27.61605"><ele>128</ele></trkpt><trkpt lat="55.75856" lon="27.61289"><ele>134</ele></trkpt><trkpt lat="55.758" lon="27.61075"><ele>132</ele></trkpt><trkpt lat="55.7583" lon="27.61038"><ele>132</ele></trkpt><trkpt lat="55.76008" lon="27.61019"><ele>130</ele></trkpt><trkpt lat="55.76135" lon="27.61042"><ele>128</ele></trkpt><trkpt lat="55.76223" lon="27.61176"><ele>117</ele></trkpt><trkpt lat="55.76371" lon="27.6112"><ele>121</ele></trkpt><trkpt lat="55.76427" lon="27.6083"><ele>130</ele></trkpt><trkpt lat="55.76465" lon="27.60802"><ele>130</ele></trkpt><trkpt lat="55.76581" lon="27.60749"><ele>132</ele></trkpt><trkpt lat="55.76613" lon="27.60686"><ele>132</ele></trkpt><trkpt lat="55.76609" lon="27.6048"><ele>134</ele></trkpt><trkpt lat="55.76523" lon="27.60163"><ele>135</ele></trkpt><trkpt lat="55.76435" lon="27.60083"><ele>136</ele></trkpt><trkpt lat="55.76313" lon="27.59907"><ele>137</ele></trkpt><trkpt lat="55.76223" lon="27.59656"><ele>134</ele></trkpt><trkpt lat="55.76334" lon="27.59335"><ele>134</ele></trkpt><trkpt lat="55.76366" lon="27.59137"><ele>130</ele></trkpt><trkpt lat="55.76328" lon="27.58654"><ele>132</ele></trkpt><trkpt lat="55.76412" lon="27.58382"><ele>133</ele></trkpt><trkpt lat="55.76427" lon="27.5809"><ele>137</ele></trkpt><trkpt lat="55.7639" lon="27.5771"><ele>139</ele></trkpt><trkpt lat="55.76354" lon="27.57573"><ele>137</ele></trkpt><trkpt lat="55.7627" lon="27.57384"><ele>137</ele></trkpt><trkpt lat="55.76186" lon="27.57264"><ele>138</ele></trkpt><trkpt lat="55.75929" lon="27.57079"><ele>126</ele></trkpt><trkpt lat="55.75821" lon="27.57062"><ele>127</ele></trkpt><trkpt lat="55.75774" lon="27.56805"><ele>120</ele></trkpt><trkpt lat="55.75772" lon="27.56594"><ele>117</ele></trkpt><trkpt lat="55.75678" lon="27.56251"><ele>123</ele></trkpt><trkpt lat="55.75637" lon="27.562"><ele>126</ele></trkpt><trkpt lat="55.75676" lon="27.55976"><ele>130</ele></trkpt><trkpt lat="55.75935" lon="27.55745"><ele>135</ele></trkpt><trkpt lat="55.76008" lon="27.55581"><ele>138</ele></trkpt><trkpt lat="55.76064" lon="27.55225"><ele>140</ele></trkpt><trkpt lat="55.76154" lon="27.54861"><ele>139</ele></trkpt><trkpt lat="55.76148" lon="27.54431"><ele>139</ele></trkpt><trkpt lat="55.76184" lon="27.54208"><ele>138</ele></trkpt><trkpt lat="55.76343" lon="27.53749"><ele>141</ele></trkpt><trkpt lat="55.7636" lon="27.53333"><ele>136</ele></trkpt><trkpt lat="55.76465" lon="27.52955"><ele>136</ele></trkpt><trkpt lat="55.76796" lon="27.51629"><ele>138</ele></trkpt><trkpt lat="55.76804" lon="27.51565"><ele>139</ele></trkpt><trkpt lat="55.76836" lon="27.51487"><ele>137</ele></trkpt><trkpt lat="55.77178" lon="27.50449"><ele>132</ele></trkpt><trkpt lat="55.77497" lon="27.49329"><ele>132</ele></trkpt><trkpt lat="55.77467" lon="27.48779"><ele>126</ele></trkpt><trkpt lat="55.77467" lon="27.48779"><ele>126</ele></trkpt><trkpt lat="55.77489" lon="27.48745"><ele>130</ele></trkpt><trkpt lat="55.77542" lon="27.48691"><ele>130</ele></trkpt><trkpt lat="55.77577" lon="27.48604"><ele>128</ele></trkpt><trkpt lat="55.77686" lon="27.48224"><ele>122</ele></trkpt><trkpt lat="55.77783" lon="27.47971"><ele>124</ele></trkpt><trkpt lat="55.77929" lon="27.47552"><ele>126</ele></trkpt><trkpt lat="55.77984" lon="27.47475"><ele>126</ele></trkpt><trkpt lat="55.78083" lon="27.4722"><ele>124</ele></trkpt><trkpt lat="55.78319" lon="27.46711"><ele>118</ele></trkpt><trkpt lat="55.78431" lon="27.46554"><ele>120</ele></trkpt><trkpt lat="55.78484" lon="27.46486"><ele>118</ele></trkpt><trkpt lat="55.78542" lon="27.46492"><ele>118</ele></trkpt><trkpt lat="55.7859" lon="27.4652"><ele>123</ele></trkpt><trkpt lat="55.78628" lon="27.46537"><ele>123</ele></trkpt><trkpt lat="55.78667" lon="27.46516"><ele>122</ele></trkpt><trkpt lat="55.78742" lon="27.46297"><ele>119</ele></trkpt><trkpt lat="55.78775" lon="27.46328"><ele>119</ele></trkpt><trkpt lat="55.78751" lon="27.46277"><ele>119</ele></trkpt><trkpt lat="55.788" lon="27.46112"><ele>116</ele></trkpt><trkpt lat="55.78813" lon="27.46014"><ele>113</ele></trkpt><trkpt lat="55.78783" lon="27.4575"><ele>111</ele></trkpt><trkpt lat="55.78787" lon="27.45621"><ele>112</ele></trkpt><trkpt lat="55.78813" lon="27.45567"><ele>119</ele></trkpt><trkpt lat="55.78978" lon="27.45323"><ele>117</ele></trkpt><trkpt lat="55.79149" lon="27.45437"><ele>109</ele></trkpt><trkpt lat="55.79166" lon="27.4505"><ele>110</ele></trkpt><trkpt lat="55.7917" lon="27.45018"><ele>110</ele></trkpt><trkpt lat="55.79173" lon="27.44966"><ele>111</ele></trkpt><trkpt lat="55.79173" lon="27.44924"><ele>111</ele></trkpt><trkpt lat="55.79154" lon="27.44902"><ele>111</ele></trkpt><trkpt lat="55.79147" lon="27.44832"><ele>108</ele></trkpt><trkpt lat="55.79185" lon="27.44744"><ele>105</ele></trkpt><trkpt lat="55.79236" lon="27.44611"><ele>104</ele></trkpt><trkpt lat="55.79187" lon="27.4473"><ele>105</ele></trkpt><trkpt lat="55.79138" lon="27.44832"><ele>106</ele></trkpt><trkpt lat="55.79074" lon="27.44748"><ele>103</ele></trkpt><trkpt lat="55.79055" lon="27.44707"><ele>103</ele></trkpt><trkpt lat="55.79034" lon="27.44488"><ele>112</ele></trkpt><trkpt lat="55.79068" lon="27.44434"><ele>106</ele></trkpt><trkpt lat="55.79044" lon="27.44389"><ele>115</ele></trkpt><trkpt lat="55.78971" lon="27.44338"><ele>120</ele></trkpt><trkpt lat="55.78901" lon="27.4437"><ele>120</ele></trkpt><trkpt lat="55.78845" lon="27.44355"><ele>124</ele></trkpt><trkpt lat="55.78753" lon="27.44207"><ele>127</ele></trkpt><trkpt lat="55.78622" lon="27.44063"><ele>127</ele></trkpt><trkpt lat="55.7857" lon="27.43986"><ele>126</ele></trkpt><trkpt lat="55.78553" lon="27.43533"><ele>132</ele></trkpt><trkpt lat="55.78577" lon="27.43355"><ele>132</ele></trkpt><trkpt lat="55.78592" lon="27.43269"><ele>133</ele></trkpt><trkpt lat="55.7859" lon="27.43233"><ele>134</ele></trkpt><trkpt lat="55.78617" lon="27.43151"><ele>135</ele></trkpt><trkpt lat="55.78568" lon="27.42954"><ele>136</ele></trkpt><trkpt lat="55.7851" lon="27.42844"><ele>138</ele></trkpt><trkpt lat="55.78474" lon="27.42804"><ele>137</ele></trkpt><trkpt lat="55.78379" lon="27.42752"><ele>135</ele></trkpt><trkpt lat="55.78169" lon="27.42565"><ele>132</ele></trkpt><trkpt lat="55.78197" lon="27.42428"><ele>136</ele></trkpt><trkpt lat="55.78145" lon="27.42149"><ele>136</ele></trkpt><trkpt lat="55.78137" lon="27.41728"><ele>149</ele></trkpt><trkpt lat="55.78083" lon="27.41319"><ele>141</ele></trkpt><trkpt lat="55.77978" lon="27.4099"><ele>143</ele></trkpt><trkpt lat="55.77959" lon="27.40917"><ele>150</ele></trkpt><trkpt lat="55.77961" lon="27.40838"><ele>150</ele></trkpt><trkpt lat="55.77999" lon="27.40767"><ele>144</ele></trkpt><trkpt lat="55.78015" lon="27.40615"><ele>146</ele></trkpt><trkpt lat="55.78036" lon="27.4052"><ele>147</ele></trkpt><trkpt lat="55.7807" lon="27.4025"><ele>146</ele></trkpt><trkpt lat="55.78055" lon="27.40038"><ele>151</ele></trkpt><trkpt lat="55.78128" lon="27.39705"><ele>148</ele></trkpt><trkpt lat="55.78124" lon="27.39565"><ele>148</ele></trkpt><trkpt lat="55.78085" lon="27.39359"><ele>145</ele></trkpt><trkpt lat="55.78171" lon="27.3919"><ele>140</ele></trkpt><trkpt lat="55.78223" lon="27.38973"><ele>146</ele></trkpt><trkpt lat="55.78259" lon="27.38866"><ele>147</ele></trkpt><trkpt lat="55.78257" lon="27.38694"><ele>150</ele></trkpt><trkpt lat="55.78317" lon="27.38475"><ele>148</ele></trkpt><trkpt lat="55.78291" lon="27.38278"><ele>148</ele></trkpt><trkpt lat="55.78169" lon="27.38072"><ele>149</ele></trkpt><trkpt lat="55.7795" lon="27.3669"><ele>154</ele></trkpt><trkpt lat="55.77907" lon="27.35995"><ele>154</ele></trkpt><trkpt lat="55.77879" lon="27.35828"><ele>151</ele></trkpt><trkpt lat="55.77727" lon="27.35167"><ele>151</ele></trkpt><trkpt lat="55.77585" lon="27.34407"><ele>150</ele></trkpt><trkpt lat="55.77493" lon="27.34192"><ele>149</ele></trkpt><trkpt lat="55.77444" lon="27.33819"><ele>149</ele></trkpt><trkpt lat="55.77283" lon="27.33338"><ele>148</ele></trkpt><trkpt lat="55.7721" lon="27.32592"><ele>146</ele></trkpt><trkpt lat="55.77197" lon="27.32163"><ele>145</ele></trkpt><trkpt lat="55.7704" lon="27.316"><ele>142</ele></trkpt><trkpt lat="55.77021" lon="27.3145"><ele>144</ele></trkpt><trkpt lat="55.77062" lon="27.31334"><ele>145</ele></trkpt><trkpt lat="55.76909" lon="27.3097"><ele>144</ele></trkpt><trkpt lat="55.76819" lon="27.30901"><ele>149</ele></trkpt><trkpt lat="55.76598" lon="27.30437"><ele>145</ele></trkpt><trkpt lat="55.7651" lon="27.30193"><ele>150</ele></trkpt><trkpt lat="55.76467" lon="27.29819"><ele>154</ele></trkpt><trkpt lat="55.76274" lon="27.29854"><ele>153</ele></trkpt><trkpt lat="55.76272" lon="27.29845"><ele>153</ele></trkpt><trkpt lat="55.76206" lon="27.29852"><ele>150</ele></trkpt><trkpt lat="55.76169" lon="27.29937"><ele>150</ele></trkpt><trkpt lat="55.75995" lon="27.30478"><ele>151</ele></trkpt><trkpt lat="55.75974" lon="27.30566"><ele>150</ele></trkpt><trkpt lat="55.75963" lon="27.30594"><ele>148</ele></trkpt><trkpt lat="55.75944" lon="27.30607"><ele>148</ele></trkpt><trkpt lat="55.75927" lon="27.30646"><ele>148</ele></trkpt><trkpt lat="55.75864" lon="27.30706"><ele>146</ele></trkpt><trkpt lat="55.75826" lon="27.30729"><ele>146</ele></trkpt><trkpt lat="55.75729" lon="27.30942"><ele>148</ele></trkpt><trkpt lat="55.75596" lon="27.30944"><ele>146</ele></trkpt><trkpt lat="55.75528" lon="27.30987"><ele>146</ele></trkpt><trkpt lat="55.75444" lon="27.30876"><ele>141</ele></trkpt><trkpt lat="55.75575" lon="27.3097"><ele>146</ele></trkpt><trkpt lat="55.75727" lon="27.30918"><ele>148</ele></trkpt><trkpt lat="55.75832" lon="27.30757"><ele>148</ele></trkpt><trkpt lat="55.75961" lon="27.30573"><ele>148</ele></trkpt><trkpt lat="55.761" lon="27.30182"><ele>150</ele></trkpt><trkpt lat="55.76197" lon="27.29837"><ele>150</ele></trkpt><trkpt lat="55.76158" lon="27.29761"><ele>150</ele></trkpt><trkpt lat="55.76165" lon="27.29641"><ele>151</ele></trkpt><trkpt lat="55.7624" lon="27.29272"><ele>149</ele></trkpt><trkpt lat="55.76261" lon="27.29079"><ele>150</ele></trkpt><trkpt lat="55.76253" lon="27.28729"><ele>152</ele></trkpt><trkpt lat="55.76017" lon="27.27648"><ele>153</ele></trkpt><trkpt lat="55.75912" lon="27.26927"><ele>147</ele></trkpt><trkpt lat="55.75828" lon="27.26425"><ele>152</ele></trkpt><trkpt lat="55.75686" lon="27.26159"><ele>146</ele></trkpt><trkpt lat="55.7559" lon="27.26064"><ele>147</ele></trkpt><trkpt lat="55.75337" lon="27.25704"><ele>149</ele></trkpt><trkpt lat="55.75238" lon="27.25369"><ele>152</ele></trkpt><trkpt lat="55.75053" lon="27.24798"><ele>155</ele></trkpt><trkpt lat="55.74935" lon="27.24537"><ele>150</ele></trkpt><trkpt lat="55.74768" lon="27.24178"><ele>138</ele></trkpt><trkpt lat="55.75176" lon="27.23955"><ele>153</ele></trkpt><trkpt lat="55.75285" lon="27.23878"><ele>150</ele></trkpt><trkpt lat="55.7544" lon="27.23979"><ele>145</ele></trkpt><trkpt lat="55.75476" lon="27.23852"><ele>146</ele></trkpt><trkpt lat="55.75579" lon="27.2362"><ele>152</ele></trkpt><trkpt lat="55.75834" lon="27.23311"><ele>150</ele></trkpt><trkpt lat="55.76007" lon="27.2315"><ele>139</ele></trkpt><trkpt lat="55.76169" lon="27.23148"><ele>147</ele></trkpt><trkpt lat="55.76352" lon="27.23129"><ele>151</ele></trkpt><trkpt lat="55.76624" lon="27.23228"><ele>150</ele></trkpt><trkpt lat="55.76512" lon="27.23796"><ele>139</ele></trkpt><trkpt lat="55.76673" lon="27.24225"><ele>143</ele></trkpt><trkpt lat="55.76742" lon="27.23251"><ele>148</ele></trkpt><trkpt lat="55.76839" lon="27.23277"><ele>151</ele></trkpt><trkpt lat="55.77107" lon="27.23071"><ele>152</ele></trkpt><trkpt lat="55.77094" lon="27.22916"><ele>153</ele></trkpt><trkpt lat="55.77058" lon="27.22599"><ele>151</ele></trkpt><trkpt lat="55.76965" lon="27.22395"><ele>154</ele></trkpt><trkpt lat="55.76869" lon="27.21992"><ele>140</ele></trkpt><trkpt lat="55.76824" lon="27.21747"><ele>135</ele></trkpt><trkpt lat="55.76826" lon="27.21558"><ele>133</ele></trkpt><trkpt lat="55.76897" lon="27.21455"><ele>133</ele></trkpt><trkpt lat="55.76847" lon="27.21324"><ele>133</ele></trkpt><trkpt lat="55.76673" lon="27.21215"><ele>132</ele></trkpt><trkpt lat="55.76467" lon="27.21048"><ele>130</ele></trkpt><trkpt lat="55.76326" lon="27.21041"><ele>130</ele></trkpt><trkpt lat="55.7627" lon="27.20867"><ele>131</ele></trkpt><trkpt lat="55.76195" lon="27.20515"><ele>130</ele></trkpt><trkpt lat="55.76191" lon="27.19773"><ele>131</ele></trkpt><trkpt lat="55.7624" lon="27.19503"><ele>133</ele></trkpt><trkpt lat="55.76191" lon="27.19434"><ele>132</ele></trkpt><trkpt lat="55.76074" lon="27.19039"><ele>131</ele></trkpt><trkpt lat="55.76214" lon="27.19048"><ele>134</ele></trkpt><trkpt lat="55.76287" lon="27.18868"><ele>135</ele></trkpt><trkpt lat="55.76252" lon="27.18713"><ele>133</ele></trkpt><trkpt lat="55.7633" lon="27.1858"><ele>137</ele></trkpt><trkpt lat="55.76322" lon="27.184"><ele>137</ele></trkpt><trkpt lat="55.76358" lon="27.18061"><ele>137</ele></trkpt><trkpt lat="55.7639" lon="27.17966"><ele>138</ele></trkpt><trkpt lat="55.76427" lon="27.17421"><ele>135</ele></trkpt><trkpt lat="55.76433" lon="27.17215"><ele>134</ele></trkpt><trkpt lat="55.7639" lon="27.15932"><ele>142</ele></trkpt><trkpt lat="55.76407" lon="27.15846"><ele>142</ele></trkpt><trkpt lat="55.76281" lon="27.15572"><ele>134</ele></trkpt><trkpt lat="55.76454" lon="27.15456"><ele>133</ele></trkpt><trkpt lat="55.76639" lon="27.15005"><ele>141</ele></trkpt><trkpt lat="55.76839" lon="27.1455"><ele>154</ele></trkpt><trkpt lat="55.76881" lon="27.13876"><ele>137</ele></trkpt><trkpt lat="55.76969" lon="27.13632"><ele>138</ele></trkpt><trkpt lat="55.76944" lon="27.13595"><ele>138</ele></trkpt><trkpt lat="55.76869" lon="27.1358"><ele>135</ele></trkpt><trkpt lat="55.76799" lon="27.13561"><ele>138</ele></trkpt><trkpt lat="55.76709" lon="27.13554"><ele>136</ele></trkpt><trkpt lat="55.76618" lon="27.13542"><ele>132</ele></trkpt><trkpt lat="55.76518" lon="27.13477"><ele>133</ele></trkpt><trkpt lat="55.7647" lon="27.13413"><ele>134</ele></trkpt><trkpt lat="55.76397" lon="27.13314"><ele>134</ele></trkpt><trkpt lat="55.7631" lon="27.13327"><ele>134</ele></trkpt><trkpt lat="55.76221" lon="27.13336"><ele>132</ele></trkpt><trkpt lat="55.76147" lon="27.13278"><ele>133</ele></trkpt><trkpt lat="55.76105" lon="27.13254"><ele>135</ele></trkpt><trkpt lat="55.76075" lon="27.13185"><ele>138</ele></trkpt><trkpt lat="55.76064" lon="27.13136"><ele>139</ele></trkpt><trkpt lat="55.76075" lon="27.13059"><ele>140</ele></trkpt><trkpt lat="55.76088" lon="27.13001"><ele>140</ele></trkpt><trkpt lat="55.76088" lon="27.12962"><ele>140</ele></trkpt><trkpt lat="55.76076" lon="27.12928"><ele>140</ele></trkpt><trkpt lat="55.76064" lon="27.1287"><ele>140</ele></trkpt><trkpt lat="55.76052" lon="27.12823"><ele>136</ele></trkpt><trkpt lat="55.76078" lon="27.12657"><ele>136</ele></trkpt><trkpt lat="55.76093" lon="27.12567"><ele>135</ele></trkpt><trkpt lat="55.76117" lon="27.12516"><ele>135</ele></trkpt><trkpt lat="55.76153" lon="27.12409"><ele>131</ele></trkpt><trkpt lat="55.76136" lon="27.12366"><ele>133</ele></trkpt><trkpt lat="55.76091" lon="27.12396"><ele>133</ele></trkpt><trkpt lat="55.76059" lon="27.12434"><ele>134</ele></trkpt><trkpt lat="55.76059" lon="27.12439"><ele>134</ele></trkpt><trkpt lat="55.76023" lon="27.1246"><ele>136</ele></trkpt><trkpt lat="55.75963" lon="27.12481"><ele>135</ele></trkpt><trkpt lat="55.75902" lon="27.12451"><ele>135</ele></trkpt><trkpt lat="55.7583" lon="27.12434"><ele>132</ele></trkpt><trkpt lat="55.75779" lon="27.12421"><ele>132</ele></trkpt><trkpt lat="55.75755" lon="27.1243"><ele>132</ele></trkpt><trkpt lat="55.75779" lon="27.12318"><ele>132</ele></trkpt><trkpt lat="55.75784" lon="27.1219"><ele>132</ele></trkpt><trkpt lat="55.75806" lon="27.12022"><ele>134</ele></trkpt><trkpt lat="55.7581" lon="27.11868"><ele>134</ele></trkpt><trkpt lat="55.75801" lon="27.11761"><ele>135</ele></trkpt><trkpt lat="55.75774" lon="27.11688"><ele>139</ele></trkpt><trkpt lat="55.75752" lon="27.11619"><ele>141</ele></trkpt><trkpt lat="55.75709" lon="27.11537"><ele>144</ele></trkpt><trkpt lat="55.75634" lon="27.11434"><ele>145</ele></trkpt><trkpt lat="55.75528" lon="27.11288"><ele>147</ele></trkpt><trkpt lat="55.75494" lon="27.11082"><ele>146</ele></trkpt><trkpt lat="55.75472" lon="27.10949"><ele>143</ele></trkpt><trkpt lat="55.75443" lon="27.10821"><ele>145</ele></trkpt><trkpt lat="55.75405" lon="27.10726"><ele>150</ele></trkpt><trkpt lat="55.75337" lon="27.10559"><ele>150</ele></trkpt><trkpt lat="55.75332" lon="27.10379"><ele>147</ele></trkpt><trkpt lat="55.75502" lon="27.09958"><ele>143</ele></trkpt><trkpt lat="55.7541" lon="27.09928"><ele>150</ele></trkpt><trkpt lat="55.75337" lon="27.09975"><ele>150</ele></trkpt><trkpt lat="55.75266" lon="27.09928"><ele>141</ele></trkpt><trkpt lat="55.75221" lon="27.09859"><ele>141</ele></trkpt><trkpt lat="55.75137" lon="27.09945"><ele>163</ele></trkpt><trkpt lat="55.7506" lon="27.10207"><ele>164</ele></trkpt><trkpt lat="55.74955" lon="27.10426"><ele>165</ele></trkpt><trkpt lat="55.74757" lon="27.10641"><ele>164</ele></trkpt><trkpt lat="55.74652" lon="27.10726"><ele>161</ele></trkpt><trkpt lat="55.74508" lon="27.10958"><ele>152</ele></trkpt><trkpt lat="55.7441" lon="27.1113"><ele>148</ele></trkpt><trkpt lat="55.74337" lon="27.11164"><ele>142</ele></trkpt><trkpt lat="55.74347" lon="27.10885"><ele>142</ele></trkpt><trkpt lat="55.74234" lon="27.10628"><ele>146</ele></trkpt><trkpt lat="55.74163" lon="27.10478"><ele>145</ele></trkpt><trkpt lat="55.74049" lon="27.1016"><ele>143</ele></trkpt><trkpt lat="55.7388" lon="27.10323"><ele>142</ele></trkpt><trkpt lat="55.73729" lon="27.10353"><ele>142</ele></trkpt><trkpt lat="55.73584" lon="27.10439"><ele>142</ele></trkpt><trkpt lat="55.73485" lon="27.10486"><ele>139</ele></trkpt><trkpt lat="55.73378" lon="27.10374"><ele>135</ele></trkpt><trkpt lat="55.73285" lon="27.10293"><ele>135</ele></trkpt><trkpt lat="55.73156" lon="27.10293"><ele>131</ele></trkpt><trkpt lat="55.73107" lon="27.1046"><ele>137</ele></trkpt><trkpt lat="55.7288" lon="27.10718"><ele>142</ele></trkpt><trkpt lat="55.7279" lon="27.10752"><ele>135</ele></trkpt><trkpt lat="55.72851" lon="27.10842"><ele>144</ele></trkpt><trkpt lat="55.72787" lon="27.10945"><ele>142</ele></trkpt><trkpt lat="55.72517" lon="27.1134"><ele>141</ele></trkpt><trkpt lat="55.72414" lon="27.11555"><ele>134</ele></trkpt><trkpt lat="55.72229" lon="27.11855"><ele>136</ele></trkpt><trkpt lat="55.72154" lon="27.11842"><ele>133</ele></trkpt><trkpt lat="55.71914" lon="27.11641"><ele>132</ele></trkpt><trkpt lat="55.71766" lon="27.11593"><ele>133</ele></trkpt><trkpt lat="55.71626" lon="27.11615"><ele>131</ele></trkpt><trkpt lat="55.71472" lon="27.11417"><ele>132</ele></trkpt><trkpt lat="55.71343" lon="27.11231"><ele>134</ele></trkpt><trkpt lat="55.7127" lon="27.11113"><ele>134</ele></trkpt><trkpt lat="55.71167" lon="27.11018"><ele>135</ele></trkpt><trkpt lat="55.71109" lon="27.10999"><ele>135</ele></trkpt><trkpt lat="55.71067" lon="27.10978"><ele>137</ele></trkpt><trkpt lat="55.71217" lon="27.10383"><ele>133</ele></trkpt><trkpt lat="55.71217" lon="27.10276"><ele>132</ele></trkpt><trkpt lat="55.71236" lon="27.10242"><ele>130</ele></trkpt><trkpt lat="55.71283" lon="27.10203"><ele>130</ele></trkpt><trkpt lat="55.71427" lon="27.10147"><ele>133</ele></trkpt><trkpt lat="55.71483" lon="27.10083"><ele>135</ele></trkpt><trkpt lat="55.71534" lon="27.09937"><ele>134</ele></trkpt><trkpt lat="55.7153" lon="27.09859"><ele>137</ele></trkpt><trkpt lat="55.71435" lon="27.09716"><ele>133</ele></trkpt><trkpt lat="55.71378" lon="27.09776"><ele>129</ele></trkpt><trkpt lat="55.71268" lon="27.09731"><ele>129</ele></trkpt><trkpt lat="55.71208" lon="27.09694"><ele>130</ele></trkpt><trkpt lat="55.71195" lon="27.09527"><ele>127</ele></trkpt><trkpt lat="55.71139" lon="27.09182"><ele>132</ele></trkpt><trkpt lat="55.7109" lon="27.09081"><ele>132</ele></trkpt><trkpt lat="55.71067" lon="27.08995"><ele>132</ele></trkpt><trkpt lat="55.71054" lon="27.08917"><ele>132</ele></trkpt><trkpt lat="55.71015" lon="27.08832"><ele>131</ele></trkpt><trkpt lat="55.71004" lon="27.08737"><ele>133</ele></trkpt><trkpt lat="55.71021" lon="27.08662"><ele>133</ele></trkpt><trkpt lat="55.71004" lon="27.08473"><ele>133</ele></trkpt><trkpt lat="55.70961" lon="27.08403"><ele>131</ele></trkpt><trkpt lat="55.71002" lon="27.08336"><ele>132</ele></trkpt><trkpt lat="55.71045" lon="27.08291"><ele>131</ele></trkpt><trkpt lat="55.71094" lon="27.08106"><ele>132</ele></trkpt><trkpt lat="55.71143" lon="27.07983"><ele>131</ele></trkpt><trkpt lat="55.71178" lon="27.07838"><ele>131</ele></trkpt><trkpt lat="55.71144" lon="27.07684"><ele>127</ele></trkpt><trkpt lat="55.71004" lon="27.0745"><ele>130</ele></trkpt><trkpt lat="55.70959" lon="27.07394"><ele>131</ele></trkpt><trkpt lat="55.7094" lon="27.07291"><ele>132</ele></trkpt><trkpt lat="55.70968" lon="27.07167"><ele>132</ele></trkpt><trkpt lat="55.70938" lon="27.07175"><ele>132</ele></trkpt><trkpt lat="55.70878" lon="27.07259"><ele>130</ele></trkpt><trkpt lat="55.70839" lon="27.07332"><ele>131</ele></trkpt><trkpt lat="55.7085" lon="27.07427"><ele>129</ele></trkpt><trkpt lat="55.70925" lon="27.07465"><ele>130</ele></trkpt><trkpt lat="55.70953" lon="27.07566"><ele>129</ele></trkpt><trkpt lat="55.70931" lon="27.07787"><ele>133</ele></trkpt><trkpt lat="55.70828" lon="27.07952"><ele>132</ele></trkpt><trkpt lat="55.70682" lon="27.08094"><ele>131</ele></trkpt><trkpt lat="55.70541" lon="27.08053"><ele>133</ele></trkpt><trkpt lat="55.70412" lon="27.07853"><ele>133</ele></trkpt><trkpt lat="55.70303" lon="27.07772"><ele>135</ele></trkpt><trkpt lat="55.7017" lon="27.07632"><ele>138</ele></trkpt><trkpt lat="55.69994" lon="27.07643"><ele>141</ele></trkpt><trkpt lat="55.69839" lon="27.07667"><ele>147</ele></trkpt><trkpt lat="55.69648" lon="27.07649"><ele>149</ele></trkpt><trkpt lat="55.69524" lon="27.07701"><ele>139</ele></trkpt><trkpt lat="55.69494" lon="27.07911"><ele>134</ele></trkpt><trkpt lat="55.69292" lon="27.08233"><ele>133</ele></trkpt><trkpt lat="55.69163" lon="27.08482"><ele>133</ele></trkpt><trkpt lat="55.6906" lon="27.08398"><ele>133</ele></trkpt><trkpt lat="55.69006" lon="27.08289"><ele>132</ele></trkpt><trkpt lat="55.68985" lon="27.0816"><ele>131</ele></trkpt><trkpt lat="55.68968" lon="27.08132"><ele>130</ele></trkpt><trkpt lat="55.68908" lon="27.08115"><ele>130</ele></trkpt><trkpt lat="55.68865" lon="27.08066"><ele>130</ele></trkpt><trkpt lat="55.68833" lon="27.07997"><ele>130</ele></trkpt><trkpt lat="55.68811" lon="27.07587"><ele>135</ele></trkpt><trkpt lat="55.68775" lon="27.07478"><ele>136</ele></trkpt><trkpt lat="55.68745" lon="27.0745"><ele>136</ele></trkpt><trkpt lat="55.68691" lon="27.07476"><ele>135</ele></trkpt><trkpt lat="55.68657" lon="27.07504"><ele>135</ele></trkpt><trkpt lat="55.68461" lon="27.07495"><ele>130</ele></trkpt><trkpt lat="55.68393" lon="27.07534"><ele>130</ele></trkpt><trkpt lat="55.68273" lon="27.07574"><ele>132</ele></trkpt><trkpt lat="55.68183" lon="27.07574"><ele>134</ele></trkpt><trkpt lat="55.68129" lon="27.07566"><ele>131</ele></trkpt><trkpt lat="55.68011" lon="27.07463"><ele>131</ele></trkpt><trkpt lat="55.67884" lon="27.07448"><ele>130</ele></trkpt><trkpt lat="55.67834" lon="27.07478"><ele>130</ele></trkpt><trkpt lat="55.67758" lon="27.0727"><ele>132</ele></trkpt><trkpt lat="55.67706" lon="27.0727"><ele>132</ele></trkpt><trkpt lat="55.67627" lon="27.07276"><ele>133</ele></trkpt><trkpt lat="55.67485" lon="27.07218"><ele>132</ele></trkpt><trkpt lat="55.67249" lon="27.07321"><ele>134</ele></trkpt><trkpt lat="55.67165" lon="27.07446"><ele>135</ele></trkpt><trkpt lat="55.6703" lon="27.07851"><ele>137</ele></trkpt><trkpt lat="55.66947" lon="27.07868"><ele>136</ele></trkpt><trkpt lat="55.66805" lon="27.07885"><ele>135</ele></trkpt><trkpt lat="55.66708" lon="27.07956"><ele>134</ele></trkpt><trkpt lat="55.66638" lon="27.08055"><ele>134</ele></trkpt><trkpt lat="55.66575" lon="27.0804"><ele>130</ele></trkpt><trkpt lat="55.66399" lon="27.0786"><ele>130</ele></trkpt><trkpt lat="55.66232" lon="27.07877"><ele>129</ele></trkpt><trkpt lat="55.66202" lon="27.07847"><ele>129</ele></trkpt><trkpt lat="55.66" lon="27.07471"><ele>136</ele></trkpt><trkpt lat="55.65859" lon="27.0713"><ele>140</ele></trkpt><trkpt lat="55.65721" lon="27.06684"><ele>133</ele></trkpt><trkpt lat="55.6582" lon="27.0619"><ele>136</ele></trkpt><trkpt lat="55.65914" lon="27.05684"><ele>130</ele></trkpt><trkpt lat="55.66196" lon="27.05023"><ele>131</ele></trkpt><trkpt lat="55.66522" lon="27.04152"><ele>149</ele></trkpt><trkpt lat="55.66631" lon="27.03675"><ele>147</ele></trkpt><trkpt lat="55.66728" lon="27.02997"><ele>143</ele></trkpt><trkpt lat="55.66685" lon="27.02596"><ele>138</ele></trkpt><trkpt lat="55.66685" lon="27.02596"><ele>138</ele></trkpt><trkpt lat="55.66842" lon="27.02388"><ele>142</ele></trkpt><trkpt lat="55.66977" lon="27.02195"><ele>147</ele></trkpt><trkpt lat="55.67054" lon="27.01894"><ele>149</ele></trkpt><trkpt lat="55.67148" lon="27.01405"><ele>134</ele></trkpt><trkpt lat="55.67331" lon="27.01015"><ele>131</ele></trkpt><trkpt lat="55.6738" lon="27.00521"><ele>130</ele></trkpt><trkpt lat="55.67429" lon="27.00217"><ele>132</ele></trkpt><trkpt lat="55.67565" lon="26.99886"><ele>131</ele></trkpt><trkpt lat="55.67678" lon="26.99766"><ele>133</ele></trkpt><trkpt lat="55.6779" lon="26.99809"><ele>133</ele></trkpt><trkpt lat="55.68086" lon="26.99877"><ele>132</ele></trkpt><trkpt lat="55.68635" lon="26.99508"><ele>143</ele></trkpt><trkpt lat="55.68833" lon="26.99463"><ele>143</ele></trkpt><trkpt lat="55.68828" lon="26.99275"><ele>145</ele></trkpt><trkpt lat="55.6877" lon="26.99004"><ele>146</ele></trkpt><trkpt lat="55.68807" lon="26.98738"><ele>152</ele></trkpt><trkpt lat="55.68775" lon="26.98583"><ele>151</ele></trkpt><trkpt lat="55.6873" lon="26.98536"><ele>152</ele></trkpt><trkpt lat="55.6868" lon="26.98274"><ele>156</ele></trkpt><trkpt lat="55.68625" lon="26.98111"><ele>158</ele></trkpt><trkpt lat="55.68605" lon="26.97961"><ele>160</ele></trkpt><trkpt lat="55.68616" lon="26.9791"><ele>160</ele></trkpt><trkpt lat="55.6859" lon="26.97824"><ele>161</ele></trkpt><trkpt lat="55.68592" lon="26.97682"><ele>161</ele></trkpt><trkpt lat="55.68562" lon="26.97659"><ele>161</ele></trkpt><trkpt lat="55.68519" lon="26.97637"><ele>160</ele></trkpt><trkpt lat="55.68504" lon="26.97414"><ele>160</ele></trkpt><trkpt lat="55.68522" lon="26.9735"><ele>160</ele></trkpt><trkpt lat="55.6847" lon="26.97062"><ele>158</ele></trkpt><trkpt lat="55.68457" lon="26.96921"><ele>152</ele></trkpt><trkpt lat="55.68479" lon="26.96869"><ele>158</ele></trkpt><trkpt lat="55.68442" lon="26.96633"><ele>158</ele></trkpt><trkpt lat="55.68442" lon="26.96466"><ele>160</ele></trkpt><trkpt lat="55.68431" lon="26.96255"><ele>158</ele></trkpt><trkpt lat="55.68457" lon="26.96127"><ele>156</ele></trkpt><trkpt lat="55.68509" lon="26.95981"><ele>159</ele></trkpt><trkpt lat="55.68221" lon="26.95451"><ele>170</ele></trkpt><trkpt lat="55.68052" lon="26.95146"><ele>165</ele></trkpt><trkpt lat="55.67803" lon="26.94876"><ele>160</ele></trkpt><trkpt lat="55.67736" lon="26.94588"><ele>152</ele></trkpt><trkpt lat="55.67773" lon="26.94223"><ele>152</ele></trkpt><trkpt lat="55.67625" lon="26.93637"><ele>151</ele></trkpt><trkpt lat="55.67751" lon="26.93449"><ele>151</ele></trkpt><trkpt lat="55.67725" lon="26.9326"><ele>147</ele></trkpt><trkpt lat="55.67974" lon="26.92728"><ele>147</ele></trkpt><trkpt lat="55.68112" lon="26.92071"><ele>148</ele></trkpt><trkpt lat="55.682" lon="26.91419"><ele>146</ele></trkpt><trkpt lat="55.68337" lon="26.90685"><ele>154</ele></trkpt><trkpt lat="55.68056" lon="26.90397"><ele>149</ele></trkpt><trkpt lat="55.67779" lon="26.90142"><ele>152</ele></trkpt><trkpt lat="55.67592" lon="26.90003"><ele>151</ele></trkpt><trkpt lat="55.67414" lon="26.89792"><ele>148</ele></trkpt><trkpt lat="55.67283" lon="26.89346"><ele>150</ele></trkpt><trkpt lat="55.67189" lon="26.88973"><ele>150</ele></trkpt><trkpt lat="55.67011" lon="26.89022"><ele>150</ele></trkpt><trkpt lat="55.66859" lon="26.88902"><ele>154</ele></trkpt><trkpt lat="55.66771" lon="26.88636"><ele>148</ele></trkpt><trkpt lat="55.66867" lon="26.88168"><ele>146</ele></trkpt><trkpt lat="55.66839" lon="26.87683"><ele>146</ele></trkpt><trkpt lat="55.66623" lon="26.87468"><ele>150</ele></trkpt><trkpt lat="55.66363" lon="26.8734"><ele>152</ele></trkpt><trkpt lat="55.66213" lon="26.87292"><ele>149</ele></trkpt><trkpt lat="55.66075" lon="26.86846"><ele>148</ele></trkpt><trkpt lat="55.65987" lon="26.86857"><ele>147</ele></trkpt><trkpt lat="55.65863" lon="26.87078"><ele>145</ele></trkpt><trkpt lat="55.65796" lon="26.86992"><ele>146</ele></trkpt><trkpt lat="55.65779" lon="26.86797"><ele>149</ele></trkpt><trkpt lat="55.65771" lon="26.86614"><ele>148</ele></trkpt><trkpt lat="55.65721" lon="26.86329"><ele>146</ele></trkpt><trkpt lat="55.65702" lon="26.86293"><ele>147</ele></trkpt><trkpt lat="55.65612" lon="26.86024"><ele>148</ele></trkpt><trkpt lat="55.65578" lon="26.85896"><ele>156</ele></trkpt><trkpt lat="55.65558" lon="26.8566"><ele>156</ele></trkpt><trkpt lat="55.65576" lon="26.85608"><ele>153</ele></trkpt><trkpt lat="55.65468" lon="26.85434"><ele>153</ele></trkpt><trkpt lat="55.65376" lon="26.85368"><ele>162</ele></trkpt><trkpt lat="55.65273" lon="26.85014"><ele>156</ele></trkpt><trkpt lat="55.65241" lon="26.84936"><ele>158</ele></trkpt><trkpt lat="55.65241" lon="26.8484"><ele>159</ele></trkpt><trkpt lat="55.65256" lon="26.84795"><ele>159</ele></trkpt><trkpt lat="55.65258" lon="26.84439"><ele>156</ele></trkpt><trkpt lat="55.6511" lon="26.84239"><ele>158</ele></trkpt><trkpt lat="55.64891" lon="26.84454"><ele>155</ele></trkpt><trkpt lat="55.6484" lon="26.84651"><ele>157</ele></trkpt><trkpt lat="55.64822" lon="26.84842"><ele>153</ele></trkpt><trkpt lat="55.64706" lon="26.85164"><ele>156</ele></trkpt><trkpt lat="55.64593" lon="26.85207"><ele>154</ele></trkpt><trkpt lat="55.64488" lon="26.85389"><ele>154</ele></trkpt><trkpt lat="55.6438" lon="26.85423"><ele>156</ele></trkpt><trkpt lat="55.64262" lon="26.85342"><ele>159</ele></trkpt><trkpt lat="55.64142" lon="26.85419"><ele>156</ele></trkpt><trkpt lat="55.64" lon="26.84698"><ele>159</ele></trkpt><trkpt lat="55.64054" lon="26.8354"><ele>155</ele></trkpt><trkpt lat="55.63943" lon="26.82801"><ele>162</ele></trkpt><trkpt lat="55.63934" lon="26.82123"><ele>164</ele></trkpt><trkpt lat="55.64097" lon="26.80999"><ele>162</ele></trkpt><trkpt lat="55.64161" lon="26.80072"><ele>163</ele></trkpt><trkpt lat="55.64389" lon="26.79394"><ele>159</ele></trkpt><trkpt lat="55.64649" lon="26.77555"><ele>155</ele></trkpt><trkpt lat="55.64698" lon="26.77152"><ele>153</ele></trkpt><trkpt lat="55.6455" lon="26.74693"><ele>148</ele></trkpt><trkpt lat="55.64462" lon="26.73665"><ele>150</ele></trkpt><trkpt lat="55.64462" lon="26.72669"><ele>145</ele></trkpt><trkpt lat="55.64228" lon="26.72103"><ele>149</ele></trkpt><trkpt lat="55.64219" lon="26.71519"><ele>146</ele></trkpt><trkpt lat="55.64616" lon="26.70154"><ele>148</ele></trkpt><trkpt lat="55.64781" lon="26.69483"><ele>153</ele></trkpt><trkpt lat="55.64874" lon="26.6944"><ele>154</ele></trkpt><trkpt lat="55.65035" lon="26.69483"><ele>151</ele></trkpt><trkpt lat="55.65352" lon="26.6944"><ele>151</ele></trkpt><trkpt lat="55.65591" lon="26.69298"><ele>149</ele></trkpt><trkpt lat="55.65623" lon="26.69223"><ele>148</ele></trkpt><trkpt lat="55.65651" lon="26.68995"><ele>152</ele></trkpt><trkpt lat="55.65805" lon="26.68558"><ele>161</ele></trkpt><trkpt lat="55.65914" lon="26.68322"><ele>165</ele></trkpt><trkpt lat="55.66067" lon="26.68189"><ele>169</ele></trkpt><trkpt lat="55.66176" lon="26.68438"><ele>164</ele></trkpt><trkpt lat="55.66425" lon="26.68588"><ele>161</ele></trkpt><trkpt lat="55.66665" lon="26.68579"><ele>158</ele></trkpt><trkpt lat="55.66781" lon="26.68742"><ele>155</ele></trkpt><trkpt lat="55.66814" lon="26.68965"><ele>154</ele></trkpt><trkpt lat="55.66981" lon="26.69186"><ele>156</ele></trkpt><trkpt lat="55.67236" lon="26.69268"><ele>155</ele></trkpt><trkpt lat="55.67286" lon="26.69266"><ele>155</ele></trkpt><trkpt lat="55.67314" lon="26.6932"><ele>161</ele></trkpt><trkpt lat="55.67294" lon="26.69262"><ele>155</ele></trkpt><trkpt lat="55.67256" lon="26.69283"><ele>155</ele></trkpt><trkpt lat="55.67387" lon="26.69689"><ele>155</ele></trkpt><trkpt lat="55.67429" lon="26.69618"><ele>156</ele></trkpt><trkpt lat="55.67462" lon="26.69609"><ele>156</ele></trkpt><trkpt lat="55.67552" lon="26.69667"><ele>154</ele></trkpt><trkpt lat="55.67603" lon="26.69744"><ele>153</ele></trkpt><trkpt lat="55.67633" lon="26.69819"><ele>153</ele></trkpt><trkpt lat="55.6771" lon="26.69895"><ele>156</ele></trkpt><trkpt lat="55.67786" lon="26.70017"><ele>158</ele></trkpt><trkpt lat="55.67856" lon="26.70004"><ele>162</ele></trkpt><trkpt lat="55.67876" lon="26.70081"><ele>162</ele></trkpt><trkpt lat="55.67932" lon="26.70455"><ele>161</ele></trkpt><trkpt lat="55.67959" lon="26.70596"><ele>155</ele></trkpt><trkpt lat="55.67974" lon="26.70819"><ele>149</ele></trkpt><trkpt lat="55.68208" lon="26.70822"><ele>155</ele></trkpt><trkpt lat="55.68543" lon="26.70794"><ele>150</ele></trkpt><trkpt lat="55.68592" lon="26.71302"><ele>149</ele></trkpt><trkpt lat="55.6859" lon="26.71319"><ele>149</ele></trkpt><trkpt lat="55.68515" lon="26.70832"><ele>150</ele></trkpt><trkpt lat="55.67962" lon="26.70777"><ele>150</ele></trkpt><trkpt lat="55.67846" lon="26.70045"><ele>162</ele></trkpt><trkpt lat="55.67451" lon="26.69569"><ele>157</ele></trkpt><trkpt lat="55.67371" lon="26.69757"><ele>157</ele></trkpt><trkpt lat="55.67196" lon="26.70051"><ele>155</ele></trkpt><trkpt lat="55.67165" lon="26.70146"><ele>155</ele></trkpt><trkpt lat="55.67344" lon="26.70682"><ele>156</ele></trkpt><trkpt lat="55.67337" lon="26.70961"><ele>154</ele></trkpt><trkpt lat="55.67286" lon="26.71103"><ele>153</ele></trkpt><trkpt lat="55.67125" lon="26.71231"><ele>149</ele></trkpt><trkpt lat="55.66979" lon="26.7139"><ele>153</ele></trkpt><trkpt lat="55.66902" lon="26.7151"><ele>150</ele></trkpt><trkpt lat="55.66818" lon="26.71935"><ele>145</ele></trkpt><trkpt lat="55.6688" lon="26.72218"><ele>146</ele></trkpt><trkpt lat="55.66974" lon="26.72437"><ele>147</ele></trkpt><trkpt lat="55.67011" lon="26.72639"><ele>148</ele></trkpt><trkpt lat="55.67073" lon="26.72862"><ele>150</ele></trkpt><trkpt lat="55.67073" lon="26.72858"><ele>150</ele></trkpt><trkpt lat="55.67022" lon="26.72749"><ele>149</ele></trkpt><trkpt lat="55.6699" lon="26.72448"><ele>147</ele></trkpt><trkpt lat="55.66884" lon="26.72206"><ele>146</ele></trkpt><trkpt lat="55.66811" lon="26.71901"><ele>145</ele></trkpt><trkpt lat="55.66919" lon="26.71467"><ele>151</ele></trkpt><trkpt lat="55.6729" lon="26.71124"><ele>153</ele></trkpt><trkpt lat="55.67361" lon="26.70742"><ele>156</ele></trkpt><trkpt lat="55.67183" lon="26.70086"><ele>155</ele></trkpt><trkpt lat="55.67393" lon="26.69755"><ele>156</ele></trkpt><trkpt lat="55.6723" lon="26.69249"><ele>155</ele></trkpt><trkpt lat="55.66852" lon="26.69086"><ele>155</ele></trkpt><trkpt lat="55.66745" lon="26.68665"><ele>155</ele></trkpt><trkpt lat="55.6656" lon="26.68573"><ele>158</ele></trkpt><trkpt lat="55.66438" lon="26.68614"><ele>161</ele></trkpt><trkpt lat="55.6614" lon="26.68412"><ele>164</ele></trkpt><trkpt lat="55.66058" lon="26.68154"><ele>169</ele></trkpt><trkpt lat="55.65962" lon="26.67914"><ele>172</ele></trkpt><trkpt lat="55.65623" lon="26.68214"><ele>174</ele></trkpt><trkpt lat="55.6493" lon="26.68867"><ele>151</ele></trkpt><trkpt lat="55.6482" lon="26.69304"><ele>152</ele></trkpt><trkpt lat="55.64552" lon="26.68644"><ele>168</ele></trkpt><trkpt lat="55.64434" lon="26.68528"><ele>171</ele></trkpt><trkpt lat="55.6381" lon="26.68571"><ele>155</ele></trkpt><trkpt lat="55.63436" lon="26.68493"><ele>147</ele></trkpt><trkpt lat="55.63292" lon="26.68459"><ele>148</ele></trkpt><trkpt lat="55.63237" lon="26.68476"><ele>148</ele></trkpt><trkpt lat="55.63166" lon="26.6845"><ele>148</ele></trkpt><trkpt lat="55.63048" lon="26.68137"><ele>151</ele></trkpt><trkpt lat="55.62958" lon="26.68086"><ele>150</ele></trkpt><trkpt lat="55.62906" lon="26.68521"><ele>146</ele></trkpt><trkpt lat="55.62878" lon="26.68641"><ele>146</ele></trkpt><trkpt lat="55.62691" lon="26.6883"><ele>146</ele></trkpt><trkpt lat="55.62556" lon="26.69066"><ele>144</ele></trkpt><trkpt lat="55.62402" lon="26.69169"><ele>141</ele></trkpt><trkpt lat="55.62123" lon="26.69789"><ele>144</ele></trkpt><trkpt lat="55.62069" lon="26.69815"><ele>144</ele></trkpt><trkpt lat="55.62061" lon="26.69905"><ele>145</ele></trkpt><trkpt lat="55.6185" lon="26.70322"><ele>144</ele></trkpt><trkpt lat="55.61664" lon="26.70772"><ele>144</ele></trkpt><trkpt lat="55.61533" lon="26.70884"><ele>146</ele></trkpt><trkpt lat="55.61531" lon="26.70882"><ele>146</ele></trkpt><trkpt lat="55.61503" lon="26.70877"><ele>146</ele></trkpt><trkpt lat="55.61434" lon="26.7068"><ele>145</ele></trkpt><trkpt lat="55.61413" lon="26.70601"><ele>144</ele></trkpt><trkpt lat="55.61316" lon="26.70592"><ele>143</ele></trkpt><trkpt lat="55.6116" lon="26.70459"><ele>142</ele></trkpt><trkpt lat="55.60994" lon="26.70442"><ele>148</ele></trkpt><trkpt lat="55.6081" lon="26.70244"><ele>144</ele></trkpt><trkpt lat="55.60653" lon="26.70146"><ele>145</ele></trkpt><trkpt lat="55.60516" lon="26.70171"><ele>150</ele></trkpt><trkpt lat="55.604" lon="26.7012"><ele>152</ele></trkpt><trkpt lat="55.60301" lon="26.70197"><ele>147</ele></trkpt><trkpt lat="55.59868" lon="26.69867"><ele>143</ele></trkpt><trkpt lat="55.5973" lon="26.69867"><ele>144</ele></trkpt><trkpt lat="55.59602" lon="26.69768"><ele>144</ele></trkpt><trkpt lat="55.5943" lon="26.69506"><ele>146</ele></trkpt><trkpt lat="55.59226" lon="26.69378"><ele>149</ele></trkpt><trkpt lat="55.5914" lon="26.69378"><ele>152</ele></trkpt><trkpt lat="55.59052" lon="26.69309"><ele>154</ele></trkpt><trkpt lat="55.59033" lon="26.69184"><ele>150</ele></trkpt><trkpt lat="55.59039" lon="26.68965"><ele>146</ele></trkpt><trkpt lat="55.59022" lon="26.68549"><ele>147</ele></trkpt><trkpt lat="55.59024" lon="26.68545"><ele>147</ele></trkpt><trkpt lat="55.59018" lon="26.68431"><ele>148</ele></trkpt><trkpt lat="55.58967" lon="26.68148"><ele>144</ele></trkpt><trkpt lat="55.59016" lon="26.68021"><ele>142</ele></trkpt><trkpt lat="55.59033" lon="26.67895"><ele>141</ele></trkpt><trkpt lat="55.58947" lon="26.67637"><ele>144</ele></trkpt><trkpt lat="55.58936" lon="26.67564"><ele>144</ele></trkpt><trkpt lat="55.58939" lon="26.6723"><ele>144</ele></trkpt><trkpt lat="55.58921" lon="26.67019"><ele>145</ele></trkpt><trkpt lat="55.58821" lon="26.66738"><ele>146</ele></trkpt><trkpt lat="55.58808" lon="26.66727"><ele>145</ele></trkpt><trkpt lat="55.58833" lon="26.6671"><ele>145</ele></trkpt><trkpt lat="55.58949" lon="26.66575"><ele>144</ele></trkpt><trkpt lat="55.59024" lon="26.66665"><ele>150</ele></trkpt><trkpt lat="55.59048" lon="26.66736"><ele>150</ele></trkpt><trkpt lat="55.59085" lon="26.66736"><ele>146</ele></trkpt><trkpt lat="55.59108" lon="26.66667"><ele>146</ele></trkpt><trkpt lat="55.59172" lon="26.66582"><ele>146</ele></trkpt><trkpt lat="55.5917" lon="26.66472"><ele>143</ele></trkpt><trkpt lat="55.59151" lon="26.66406"><ele>143</ele></trkpt><trkpt lat="55.59303" lon="26.66195"><ele>140</ele></trkpt><trkpt lat="55.594" lon="26.66103"><ele>138</ele></trkpt><trkpt lat="55.59115" lon="26.66429"><ele>142</ele></trkpt><trkpt lat="55.58797" lon="26.66717"><ele>146</ele></trkpt><trkpt lat="55.58846" lon="26.66764"><ele>146</ele></trkpt><trkpt lat="55.58932" lon="26.66968"><ele>143</ele></trkpt><trkpt lat="55.58921" lon="26.67491"><ele>144</ele></trkpt><trkpt lat="55.59054" lon="26.67955"><ele>140</ele></trkpt><trkpt lat="55.58984" lon="26.68116"><ele>143</ele></trkpt><trkpt lat="55.58909" lon="26.68223"><ele>146</ele></trkpt><trkpt lat="55.58537" lon="26.68354"><ele>143</ele></trkpt><trkpt lat="55.58317" lon="26.6848"><ele>140</ele></trkpt><trkpt lat="55.58029" lon="26.68635"><ele>144</ele></trkpt><trkpt lat="55.57874" lon="26.68712"><ele>142</ele></trkpt><trkpt lat="55.57726" lon="26.68519"><ele>141</ele></trkpt><trkpt lat="55.57668" lon="26.68536"><ele>139</ele></trkpt><trkpt lat="55.57668" lon="26.68534"><ele>139</ele></trkpt><trkpt lat="55.57709" lon="26.685"><ele>139</ele></trkpt><trkpt lat="55.5787" lon="26.68725"><ele>142</ele></trkpt><trkpt lat="55.57366" lon="26.69862"><ele>144</ele></trkpt><trkpt lat="55.57074" lon="26.70369"><ele>144</ele></trkpt><trkpt lat="55.56638" lon="26.71103"><ele>142</ele></trkpt><trkpt lat="55.55913" lon="26.72313"><ele>148</ele></trkpt><trkpt lat="55.55381" lon="26.73296"><ele>140</ele></trkpt><trkpt lat="55.55014" lon="26.73888"><ele>146</ele></trkpt><trkpt lat="55.54746" lon="26.743"><ele>151</ele></trkpt><trkpt lat="55.54512" lon="26.74793"><ele>148</ele></trkpt><trkpt lat="55.54231" lon="26.75712"><ele>144</ele></trkpt><trkpt lat="55.53971" lon="26.75999"><ele>149</ele></trkpt><trkpt lat="55.53293" lon="26.76613"><ele>153</ele></trkpt><trkpt lat="55.53128" lon="26.76802"><ele>154</ele></trkpt><trkpt lat="55.53109" lon="26.76343"><ele>151</ele></trkpt><trkpt lat="55.53025" lon="26.76059"><ele>147</ele></trkpt><trkpt lat="55.52883" lon="26.76046"><ele>145</ele></trkpt><trkpt lat="55.52851" lon="26.76089"><ele>146</ele></trkpt><trkpt lat="55.52937" lon="26.77197"><ele>153</ele></trkpt><trkpt lat="55.53098" lon="26.77257"><ele>162</ele></trkpt><trkpt lat="55.53098" lon="26.77248"><ele>162</ele></trkpt><trkpt lat="55.53177" lon="26.78261"><ele>163</ele></trkpt><trkpt lat="55.53302" lon="26.78952"><ele>158</ele></trkpt><trkpt lat="55.5336" lon="26.79819"><ele>161</ele></trkpt><trkpt lat="55.53203" lon="26.81462"><ele>165</ele></trkpt><trkpt lat="55.53181" lon="26.81737"><ele>168</ele></trkpt><trkpt lat="55.53475" lon="26.82057"><ele>170</ele></trkpt><trkpt lat="55.53441" lon="26.82091"><ele>171</ele></trkpt><trkpt lat="55.53471" lon="26.82153"><ele>169</ele></trkpt><trkpt lat="55.53469" lon="26.82224"><ele>167</ele></trkpt><trkpt lat="55.53458" lon="26.82312"><ele>174</ele></trkpt><trkpt lat="55.53383" lon="26.8254"><ele>170</ele></trkpt><trkpt lat="55.53018" lon="26.82982"><ele>167</ele></trkpt><trkpt lat="55.52242" lon="26.83789"><ele>167</ele></trkpt><trkpt lat="55.52124" lon="26.84269"><ele>160</ele></trkpt><trkpt lat="55.51892" lon="26.85299"><ele>155</ele></trkpt><trkpt lat="55.51727" lon="26.87256"><ele>158</ele></trkpt><trkpt lat="55.51892" lon="26.8808"><ele>153</ele></trkpt><trkpt lat="55.51815" lon="26.89591"><ele>143</ele></trkpt><trkpt lat="55.51561" lon="26.90621"><ele>141</ele></trkpt><trkpt lat="55.51231" lon="26.9141"><ele>147</ele></trkpt><trkpt lat="55.50959" lon="26.92852"><ele>152</ele></trkpt><trkpt lat="55.50353" lon="26.93996"><ele>143</ele></trkpt><trkpt lat="55.49738" lon="26.95067"><ele>149</ele></trkpt><trkpt lat="55.49654" lon="26.95528"><ele>154</ele></trkpt><trkpt lat="55.49757" lon="26.96182"><ele>148</ele></trkpt><trkpt lat="55.49802" lon="26.96556"><ele>149</ele></trkpt><trkpt lat="55.49763" lon="26.9792"><ele>148</ele></trkpt><trkpt lat="55.49733" lon="26.98225"><ele>151</ele></trkpt><trkpt lat="55.49935" lon="26.99508"><ele>149</ele></trkpt><trkpt lat="55.49628" lon="27.00302"><ele>146</ele></trkpt><trkpt lat="55.49602" lon="27.00766"><ele>144</ele></trkpt><trkpt lat="55.48978" lon="27.03021"><ele>148</ele></trkpt><trkpt lat="55.4883" lon="27.03613"><ele>148</ele></trkpt><trkpt lat="55.48804" lon="27.03609"><ele>148</ele></trkpt><trkpt lat="55.48763" lon="27.03437"><ele>149</ele></trkpt><trkpt lat="55.48699" lon="27.03386"><ele>145</ele></trkpt><trkpt lat="55.48566" lon="27.03437"><ele>140</ele></trkpt><trkpt lat="55.48051" lon="27.03032"><ele>140</ele></trkpt><trkpt lat="55.47729" lon="27.0256"><ele>138</ele></trkpt><trkpt lat="55.4715" lon="27.01667"><ele>142</ele></trkpt><trkpt lat="55.46761" lon="27.01212"><ele>139</ele></trkpt><trkpt lat="55.45924" lon="26.99985"><ele>139</ele></trkpt><trkpt lat="55.4521" lon="26.99826"><ele>135</ele></trkpt><trkpt lat="55.44912" lon="26.99817"><ele>137</ele></trkpt><trkpt lat="55.44723" lon="26.99766"><ele>137</ele></trkpt><trkpt lat="55.4425" lon="27.00092"><ele>139</ele></trkpt><trkpt lat="55.44004" lon="27.00585"><ele>135</ele></trkpt><trkpt lat="55.44175" lon="27.00062"><ele>140</ele></trkpt><trkpt lat="55.44171" lon="26.99538"><ele>140</ele></trkpt><trkpt lat="55.44109" lon="26.99272"><ele>142</ele></trkpt><trkpt lat="55.44124" lon="26.988"><ele>143</ele></trkpt><trkpt lat="55.43998" lon="26.98388"><ele>140</ele></trkpt><trkpt lat="55.43944" lon="26.98191"><ele>140</ele></trkpt><trkpt lat="55.43968" lon="26.97745"><ele>140</ele></trkpt><trkpt lat="55.43899" lon="26.97324"><ele>140</ele></trkpt><trkpt lat="55.43519" lon="26.97084"><ele>146</ele></trkpt><trkpt lat="55.43384" lon="26.97066"><ele>148</ele></trkpt><trkpt lat="55.43311" lon="26.96964"><ele>149</ele></trkpt><trkpt lat="55.43169" lon="26.96929"><ele>146</ele></trkpt><trkpt lat="55.43096" lon="26.96869"><ele>144</ele></trkpt><trkpt lat="55.4295" lon="26.96612"><ele>141</ele></trkpt><trkpt lat="55.42931" lon="26.96388"><ele>142</ele></trkpt><trkpt lat="55.42974" lon="26.96062"><ele>144</ele></trkpt><trkpt lat="55.40324" lon="26.95212"><ele>140</ele></trkpt><trkpt lat="55.38135" lon="26.94532"><ele>142</ele></trkpt><trkpt lat="55.36676" lon="26.94054"><ele>141</ele></trkpt><trkpt lat="55.36766" lon="26.95569"><ele>135</ele></trkpt><trkpt lat="55.36788" lon="26.95785"><ele>135</ele></trkpt><trkpt lat="55.36766" lon="26.95906"><ele>135</ele></trkpt><trkpt lat="55.36914" lon="26.96266"><ele>133</ele></trkpt><trkpt lat="55.36814" lon="26.97116"><ele>136</ele></trkpt><trkpt lat="55.36807" lon="26.9727"><ele>137</ele></trkpt><trkpt lat="55.36734" lon="26.97502"><ele>134</ele></trkpt><trkpt lat="55.36704" lon="26.97906"><ele>134</ele></trkpt><trkpt lat="55.36663" lon="26.98077"><ele>135</ele></trkpt><trkpt lat="55.36633" lon="26.98665"><ele>133</ele></trkpt><trkpt lat="55.36573" lon="26.98899"><ele>133</ele></trkpt><trkpt lat="55.36528" lon="26.99337"><ele>134</ele></trkpt><trkpt lat="55.36477" lon="26.99453"><ele>134</ele></trkpt><trkpt lat="55.36457" lon="26.99667"><ele>134</ele></trkpt><trkpt lat="55.36408" lon="26.99732"><ele>134</ele></trkpt><trkpt lat="55.36331" lon="27.00538"><ele>134</ele></trkpt><trkpt lat="55.36217" lon="27.01628"><ele>138</ele></trkpt><trkpt lat="55.36105" lon="27.02766"><ele>142</ele></trkpt><trkpt lat="55.36303" lon="27.03165"><ele>130</ele></trkpt><trkpt lat="55.36492" lon="27.03379"><ele>130</ele></trkpt><trkpt lat="55.36704" lon="27.04055"><ele>129</ele></trkpt><trkpt lat="55.36831" lon="27.04225"><ele>128</ele></trkpt><trkpt lat="55.36367" lon="27.04512"><ele>131</ele></trkpt><trkpt lat="55.36196" lon="27.04632"><ele>129</ele></trkpt><trkpt lat="55.36153" lon="27.04886"><ele>130</ele></trkpt><trkpt lat="55.36058" lon="27.05765"><ele>130</ele></trkpt><trkpt lat="55.36033" lon="27.0631"><ele>128</ele></trkpt><trkpt lat="55.36084" lon="27.06928"><ele>128</ele></trkpt><trkpt lat="55.36159" lon="27.07542"><ele>128</ele></trkpt><trkpt lat="55.36224" lon="27.0837"><ele>128</ele></trkpt><trkpt lat="55.36275" lon="27.09289"><ele>129</ele></trkpt><trkpt lat="55.36528" lon="27.10565"><ele>129</ele></trkpt><trkpt lat="55.36696" lon="27.11125"><ele>128</ele></trkpt><trkpt lat="55.36691" lon="27.11726"><ele>129</ele></trkpt><trkpt lat="55.36751" lon="27.12042"><ele>127</ele></trkpt><trkpt lat="55.36923" lon="27.12671"><ele>127</ele></trkpt><trkpt lat="55.37193" lon="27.13196"><ele>129</ele></trkpt><trkpt lat="55.37462" lon="27.13683"><ele>127</ele></trkpt><trkpt lat="55.3767" lon="27.14228"><ele>129</ele></trkpt><trkpt lat="55.37876" lon="27.14883"><ele>129</ele></trkpt><trkpt lat="55.38007" lon="27.15681"><ele>128</ele></trkpt><trkpt lat="55.3812" lon="27.16402"><ele>129</ele></trkpt><trkpt lat="55.38208" lon="27.16604"><ele>127</ele></trkpt><trkpt lat="55.38573" lon="27.16953"><ele>128</ele></trkpt><trkpt lat="55.38912" lon="27.17245"><ele>128</ele></trkpt><trkpt lat="55.38936" lon="27.17434"><ele>128</ele></trkpt><trkpt lat="55.38837" lon="27.18406"><ele>128</ele></trkpt><trkpt lat="55.38768" lon="27.19301"><ele>126</ele></trkpt><trkpt lat="55.38678" lon="27.20215"><ele>128</ele></trkpt><trkpt lat="55.38582" lon="27.21005"><ele>129</ele></trkpt><trkpt lat="55.38395" lon="27.21974"><ele>127</ele></trkpt><trkpt lat="55.38309" lon="27.23052"><ele>128</ele></trkpt><trkpt lat="55.37951" lon="27.22955"><ele>127</ele></trkpt><trkpt lat="55.37887" lon="27.23324"><ele>127</ele></trkpt><trkpt lat="55.37794" lon="27.23899"><ele>128</ele></trkpt><trkpt lat="55.37781" lon="27.24255"><ele>126</ele></trkpt><trkpt lat="55.37676" lon="27.24822"><ele>128</ele></trkpt><trkpt lat="55.37655" lon="27.24871"><ele>129</ele></trkpt><trkpt lat="55.37698" lon="27.25204"><ele>129</ele></trkpt><trkpt lat="55.37745" lon="27.25466"><ele>128</ele></trkpt><trkpt lat="55.37734" lon="27.25732"><ele>127</ele></trkpt><trkpt lat="55.37741" lon="27.25921"><ele>128</ele></trkpt><trkpt lat="55.37713" lon="27.26116"><ele>128</ele></trkpt><trkpt lat="55.37723" lon="27.26326"><ele>126</ele></trkpt><trkpt lat="55.37721" lon="27.26464"><ele>125</ele></trkpt><trkpt lat="55.37676" lon="27.26751"><ele>128</ele></trkpt><trkpt lat="55.37683" lon="27.26931"><ele>128</ele></trkpt><trkpt lat="55.37745" lon="27.27356"><ele>128</ele></trkpt><trkpt lat="55.37906" lon="27.28077"><ele>128</ele></trkpt><trkpt lat="55.37923" lon="27.28541"><ele>129</ele></trkpt><trkpt lat="55.37803" lon="27.28579"><ele>128</ele></trkpt><trkpt lat="55.37818" lon="27.28747"><ele>128</ele></trkpt><trkpt lat="55.37826" lon="27.28897"><ele>128</ele></trkpt><trkpt lat="55.37663" lon="27.28978"><ele>127</ele></trkpt><trkpt lat="55.37635" lon="27.29015"><ele>127</ele></trkpt><trkpt lat="55.3762" lon="27.29279"><ele>127</ele></trkpt><trkpt lat="55.37715" lon="27.29489"><ele>127</ele></trkpt><trkpt lat="55.37706" lon="27.29717"><ele>126</ele></trkpt><trkpt lat="55.37715" lon="27.29798"><ele>127</ele></trkpt><trkpt lat="55.37788" lon="27.29923"><ele>126</ele></trkpt><trkpt lat="55.37695" lon="27.30047"><ele>128</ele></trkpt><trkpt lat="55.3746" lon="27.30276"><ele>127</ele></trkpt><trkpt lat="55.37414" lon="27.30328"><ele>127</ele></trkpt><trkpt lat="55.37399" lon="27.30661"><ele>127</ele></trkpt><trkpt lat="55.37419" lon="27.30731"><ele>126</ele></trkpt><trkpt lat="55.37487" lon="27.30817"><ele>127</ele></trkpt><trkpt lat="55.3749" lon="27.30867"><ele>126</ele></trkpt><trkpt lat="55.37457" lon="27.31103"><ele>126</ele></trkpt><trkpt lat="55.37509" lon="27.31208"><ele>128</ele></trkpt><trkpt lat="55.37601" lon="27.31358"><ele>127</ele></trkpt><trkpt lat="55.37618" lon="27.31656"><ele>128</ele></trkpt><trkpt lat="55.37369" lon="27.32446"><ele>127</ele></trkpt><trkpt lat="55.37341" lon="27.32909"><ele>125</ele></trkpt><trkpt lat="55.372" lon="27.33141"><ele>127</ele></trkpt><trkpt lat="55.36326" lon="27.33137"><ele>127</ele></trkpt><trkpt lat="55.36185" lon="27.33201"><ele>127</ele></trkpt><trkpt lat="55.36294" lon="27.35845"><ele>126</ele></trkpt><trkpt lat="55.36146" lon="27.35913"><ele>126</ele></trkpt><trkpt lat="55.36146" lon="27.37542"><ele>126</ele></trkpt><trkpt lat="55.36194" lon="27.3822"><ele>125</ele></trkpt><trkpt lat="55.36271" lon="27.38742"><ele>126</ele></trkpt><trkpt lat="55.36337" lon="27.38905"><ele>125</ele></trkpt><trkpt lat="55.3632" lon="27.38939"><ele>125</ele></trkpt><trkpt lat="55.36562" lon="27.40638"><ele>126</ele></trkpt><trkpt lat="55.36623" lon="27.41115"><ele>125</ele></trkpt><trkpt lat="55.36771" lon="27.41411"><ele>125</ele></trkpt><trkpt lat="55.36827" lon="27.41741"><ele>125</ele></trkpt><trkpt lat="55.36217" lon="27.42531"><ele>123</ele></trkpt><trkpt lat="55.35953" lon="27.42956"><ele>123</ele></trkpt><trkpt lat="55.35953" lon="27.43132"><ele>122</ele></trkpt><trkpt lat="55.35687" lon="27.43582"><ele>122</ele></trkpt><trkpt lat="55.36009" lon="27.442"><ele>123</ele></trkpt><trkpt lat="55.36174" lon="27.44634"><ele>121</ele></trkpt><trkpt lat="55.36411" lon="27.45359"><ele>127</ele></trkpt><trkpt lat="55.3608" lon="27.45668"><ele>120</ele></trkpt><trkpt lat="55.36304" lon="27.4632"><ele>118</ele></trkpt><trkpt lat="55.3647" lon="27.46466"><ele>126</ele></trkpt><trkpt lat="55.36516" lon="27.46535"><ele>128</ele></trkpt><trkpt lat="55.3658" lon="27.46565"><ele>128</ele></trkpt><trkpt lat="55.36739" lon="27.46664"><ele>128</ele></trkpt><trkpt lat="55.36739" lon="27.46788"><ele>128</ele></trkpt><trkpt lat="55.36766" lon="27.47063"><ele>128</ele></trkpt><trkpt lat="55.36771" lon="27.47067"><ele>128</ele></trkpt></trkseg></trk></gpx>