<?xml version="1.0" encoding="UTF-8" standalone="no" ?>
<gpx xmlns="http://www.topografix.com/GPX/1/1" creator="http://nakarte.me" xmlns:xsi="http://www.w3.org/2001/XMLSchema-instance" xsi:schemaLocation="http://www.topografix.com/GPX/1/1 http://www.topografix.com/GPX/1/1/gpx.xsd" version="1.1">
	<wpt lat="53.560794" lon="27.014394">
		<name>Красивое заболоченое озеро</name>
	</wpt>
	<wpt lat="53.558512" lon="26.941652">
		<name>Карьер</name>
	</wpt>
	<wpt lat="53.588200" lon="26.836982">
		<name>Магазин</name>
	</wpt>
	<wpt lat="53.581755" lon="26.831553">
		<name>Магазин</name>
	</wpt>
	<wpt lat="53.584509" lon="26.825534">
		<name>Руины спиртзавода</name>
	</wpt>
	<wpt lat="53.584602" lon="26.825743">
		<name>Ябони</name>
	</wpt>
	<wpt lat="53.615232" lon="26.791942">
		<name>Заброшеная деревня (по карте генштаба)</name>
	</wpt>
	<wpt lat="53.621402" lon="26.785381">
		<name>Хорошая стоянка</name>
	</wpt>
	<wpt lat="53.622531" lon="26.786417">
		<name>Поляны вдоль берега</name>
	</wpt>
	<wpt lat="53.632864" lon="26.909611">
		<name>Орудийно-пулеметный полукапонир</name>
	</wpt>
	<wpt lat="53.630465" lon="26.918435">
		<name>Артиллерийский полукапонир</name>
	</wpt>
	<wpt lat="53.622996" lon="26.916976">
		<name>Орудийно-пулеметный полукапонир</name>
	</wpt>
	<wpt lat="53.629689" lon="26.949291">
		<name>Артиллерийский полукапонир</name>
	</wpt>
	<wpt lat="53.632250" lon="26.942849">
		<name>Магазин</name>
	</wpt>
	<wpt lat="53.625025" lon="26.962584">
		<name>Магазин?</name>
	</wpt>
	<wpt lat="53.627338" lon="26.956968">
		<name>Вода из водонапорки</name>
	</wpt>
	<wpt lat="53.610458" lon="26.989369">
		<name>Озеро Бездонное</name>
	</wpt>
	<wpt lat="53.603329" lon="26.951748">
		<name>Артиллерийский полукапонир</name>
	</wpt>
	<wpt lat="53.630542" lon="26.954763">
		<name>Крутая горка</name>
	</wpt>
	<wpt lat="53.629040" lon="26.956673">
		<name>Крутая горка</name>
	</wpt>
	<wpt lat="53.610624" lon="26.984246">
		<name>Сложный участок (проезжаемый)</name>
	</wpt>
	<wpt lat="53.609898" lon="26.963968">
		<name>Сложный участок (проезжаемый)</name>
	</wpt>
	<trk>
		<name>Маршрут Энергетиков-Ливанка-Сула-Бездонка</name>
		<trkseg>
			<trkpt lat="53.587606" lon="27.052817"><time>1970-01-01T00:00:01.000Z</time></trkpt>
			<trkpt lat="53.587831" lon="27.052926"><time>1970-01-01T00:00:01.000Z</time></trkpt>
			<trkpt lat="53.588074" lon="27.052693"><time>1970-01-01T00:00:01.000Z</time></trkpt>
			<trkpt lat="53.588014" lon="27.051938"><time>1970-01-01T00:00:01.000Z</time></trkpt>
			<trkpt lat="53.588453" lon="27.049953"><time>1970-01-01T00:00:01.000Z</time></trkpt>
			<trkpt lat="53.588722" lon="27.049306"><time>1970-01-01T00:00:01.000Z</time></trkpt>
			<trkpt lat="53.589034" lon="27.048773"><time>1970-01-01T00:00:01.000Z</time></trkpt>
			<trkpt lat="53.590386" lon="27.050167"><time>1970-01-01T00:00:01.000Z</time></trkpt>
			<trkpt lat="53.590972" lon="27.050564"><time>1970-01-01T00:00:01.000Z</time></trkpt>
			<trkpt lat="53.591625" lon="27.050718"><time>1970-01-01T00:00:01.000Z</time></trkpt>
			<trkpt lat="53.592045" lon="27.050951"><time>1970-01-01T00:00:01.000Z</time></trkpt>
			<trkpt lat="53.592257" lon="27.051402"><time>1970-01-01T00:00:01.000Z</time></trkpt>
			<trkpt lat="53.592191" lon="27.051110"><time>1970-01-01T00:00:01.000Z</time></trkpt>
			<trkpt lat="53.592468" lon="27.051581"><time>1970-01-01T00:00:01.000Z</time></trkpt>
			<trkpt lat="53.592860" lon="27.052557"><time>1970-01-01T00:00:01.000Z</time></trkpt>
			<trkpt lat="53.592582" lon="27.051887"><time>1970-01-01T00:00:01.000Z</time></trkpt>
			<trkpt lat="53.592595" lon="27.051941"><time>1970-01-01T00:00:01.000Z</time></trkpt>
			<trkpt lat="53.592549" lon="27.051932"><time>1970-01-01T00:00:01.000Z</time></trkpt>
			<trkpt lat="53.592534" lon="27.051788"><time>1970-01-01T00:00:01.000Z</time></trkpt>
			<trkpt lat="53.592307" lon="27.051289"><time>1970-01-01T00:00:01.000Z</time></trkpt>
			<trkpt lat="53.591986" lon="27.050849"><time>1970-01-01T00:00:01.000Z</time></trkpt>
			<trkpt lat="53.591635" lon="27.050620"><time>1970-01-01T00:00:01.000Z</time></trkpt>
			<trkpt lat="53.591047" lon="27.050525"><time>1970-01-01T00:00:01.000Z</time></trkpt>
			<trkpt lat="53.590694" lon="27.050352"><time>1970-01-01T00:00:01.000Z</time></trkpt>
			<trkpt lat="53.588936" lon="27.048609"><time>1970-01-01T00:00:01.000Z</time></trkpt>
			<trkpt lat="53.588023" lon="27.050705"><time>1970-01-01T00:00:01.000Z</time></trkpt>
			<trkpt lat="53.587795" lon="27.051951"><time>1970-01-01T00:00:01.000Z</time></trkpt>
			<trkpt lat="53.587472" lon="27.052376"><time>1970-01-01T00:00:01.000Z</time></trkpt>
			<trkpt lat="53.587669" lon="27.052928"><time>1970-01-01T00:00:01.000Z</time></trkpt>
			<trkpt lat="53.587651" lon="27.052942"><time>1970-01-01T00:00:01.000Z</time></trkpt>
			<trkpt lat="53.587474" lon="27.052577"><time>1970-01-01T00:00:01.000Z</time></trkpt>
			<trkpt lat="53.587336" lon="27.052486"><time>1970-01-01T00:00:01.000Z</time></trkpt>
			<trkpt lat="53.586956" lon="27.052644"><time>1970-01-01T00:00:01.000Z</time></trkpt>
			<trkpt lat="53.585485" lon="27.052433"><time>1970-01-01T00:00:01.000Z</time></trkpt>
			<trkpt lat="53.584962" lon="27.052523"><time>1970-01-01T00:00:01.000Z</time></trkpt>
			<trkpt lat="53.584444" lon="27.052804"><time>1970-01-01T00:00:01.000Z</time></trkpt>
			<trkpt lat="53.584080" lon="27.052422"><time>1970-01-01T00:00:01.000Z</time></trkpt>
			<trkpt lat="53.583532" lon="27.052283"><time>1970-01-01T00:00:01.000Z</time></trkpt>
			<trkpt lat="53.582372" lon="27.051492"><time>1970-01-01T00:00:01.000Z</time></trkpt>
			<trkpt lat="53.581171" lon="27.050556"><time>1970-01-01T00:00:01.000Z</time></trkpt>
			<trkpt lat="53.580747" lon="27.049976"><time>1970-01-01T00:00:01.000Z</time></trkpt>
			<trkpt lat="53.580144" lon="27.048625"><time>1970-01-01T00:00:01.000Z</time></trkpt>
			<trkpt lat="53.579757" lon="27.048068"><time>1970-01-01T00:00:01.000Z</time></trkpt>
			<trkpt lat="53.579097" lon="27.046837"><time>1970-01-01T00:00:01.000Z</time></trkpt>
			<trkpt lat="53.578868" lon="27.046260"><time>1970-01-01T00:00:01.000Z</time></trkpt>
			<trkpt lat="53.578192" lon="27.045169"><time>1970-01-01T00:00:01.000Z</time></trkpt>
			<trkpt lat="53.577474" lon="27.043874"><time>1970-01-01T00:00:01.000Z</time></trkpt>
			<trkpt lat="53.576729" lon="27.042416"><time>1970-01-01T00:00:01.000Z</time></trkpt>
			<trkpt lat="53.576062" lon="27.040888"><time>1970-01-01T00:00:01.000Z</time></trkpt>
			<trkpt lat="53.575671" lon="27.040197"><time>1970-01-01T00:00:01.000Z</time></trkpt>
			<trkpt lat="53.573895" lon="27.036428"><time>1970-01-01T00:00:01.000Z</time></trkpt>
			<trkpt lat="53.573635" lon="27.035771"><time>1970-01-01T00:00:01.000Z</time></trkpt>
			<trkpt lat="53.573081" lon="27.034600"><time>1970-01-01T00:00:01.000Z</time></trkpt>
			<trkpt lat="53.572560" lon="27.033376"><time>1970-01-01T00:00:01.000Z</time></trkpt>
			<trkpt lat="53.571915" lon="27.032141"><time>1970-01-01T00:00:01.000Z</time></trkpt>
			<trkpt lat="53.571550" lon="27.031613"><time>1970-01-01T00:00:01.000Z</time></trkpt>
			<trkpt lat="53.571073" lon="27.031183"><time>1970-01-01T00:00:01.000Z</time></trkpt>
			<trkpt lat="53.569081" lon="27.029473"><time>1970-01-01T00:00:01.000Z</time></trkpt>
			<trkpt lat="53.566979" lon="27.027826"><time>1970-01-01T00:00:01.000Z</time></trkpt>
			<trkpt lat="53.566467" lon="27.027330"><time>1970-01-01T00:00:01.000Z</time></trkpt>
			<trkpt lat="53.565468" lon="27.026565"><time>1970-01-01T00:00:01.000Z</time></trkpt>
			<trkpt lat="53.564937" lon="27.026052"><time>1970-01-01T00:00:01.000Z</time></trkpt>
			<trkpt lat="53.564550" lon="27.025551"><time>1970-01-01T00:00:01.000Z</time></trkpt>
			<trkpt lat="53.564204" lon="27.024883"><time>1970-01-01T00:00:01.000Z</time></trkpt>
			<trkpt lat="53.563876" lon="27.024011"><time>1970-01-01T00:00:01.000Z</time></trkpt>
			<trkpt lat="53.563127" lon="27.021553"><time>1970-01-01T00:00:01.000Z</time></trkpt>
			<trkpt lat="53.562931" lon="27.020568"><time>1970-01-01T00:00:01.000Z</time></trkpt>
			<trkpt lat="53.562714" lon="27.019704"><time>1970-01-01T00:00:01.000Z</time></trkpt>
			<trkpt lat="53.561929" lon="27.017220"><time>1970-01-01T00:00:01.000Z</time></trkpt>
			<trkpt lat="53.560869" lon="27.013604"><time>1970-01-01T00:00:01.000Z</time></trkpt>
			<trkpt lat="53.560852" lon="27.013630"><time>1970-01-01T00:00:01.000Z</time></trkpt>
			<trkpt lat="53.560758" lon="27.013120"><time>1970-01-01T00:00:01.000Z</time></trkpt>
			<trkpt lat="53.560305" lon="27.011598"><time>1970-01-01T00:00:01.000Z</time></trkpt>
			<trkpt lat="53.560463" lon="27.011077"><time>1970-01-01T00:00:01.000Z</time></trkpt>
			<trkpt lat="53.562107" lon="27.009702"><time>1970-01-01T00:00:01.000Z</time></trkpt>
			<trkpt lat="53.563011" lon="27.009001"><time>1970-01-01T00:00:01.000Z</time></trkpt>
			<trkpt lat="53.563487" lon="27.008564"><time>1970-01-01T00:00:01.000Z</time></trkpt>
			<trkpt lat="53.563765" lon="27.007998"><time>1970-01-01T00:00:01.000Z</time></trkpt>
			<trkpt lat="53.563964" lon="27.007876"><time>1970-01-01T00:00:01.000Z</time></trkpt>
			<trkpt lat="53.564000" lon="27.007759"><time>1970-01-01T00:00:01.000Z</time></trkpt>
			<trkpt lat="53.564121" lon="27.007631"><time>1970-01-01T00:00:01.000Z</time></trkpt>
			<trkpt lat="53.564268" lon="27.007625"><time>1970-01-01T00:00:01.000Z</time></trkpt>
			<trkpt lat="53.564476" lon="27.007345"><time>1970-01-01T00:00:01.000Z</time></trkpt>
			<trkpt lat="53.565692" lon="27.005085"><time>1970-01-01T00:00:01.000Z</time></trkpt>
			<trkpt lat="53.566958" lon="27.003306"><time>1970-01-01T00:00:01.000Z</time></trkpt>
			<trkpt lat="53.567898" lon="27.002638"><time>1970-01-01T00:00:01.000Z</time></trkpt>
			<trkpt lat="53.568346" lon="27.002156"><time>1970-01-01T00:00:01.000Z</time></trkpt>
			<trkpt lat="53.568763" lon="27.001595"><time>1970-01-01T00:00:01.000Z</time></trkpt>
			<trkpt lat="53.569288" lon="27.001019"><time>1970-01-01T00:00:01.000Z</time></trkpt>
			<trkpt lat="53.569849" lon="27.000798"><time>1970-01-01T00:00:01.000Z</time></trkpt>
			<trkpt lat="53.569878" lon="27.000261"><time>1970-01-01T00:00:01.000Z</time></trkpt>
			<trkpt lat="53.569943" lon="27.000203"><time>1970-01-01T00:00:01.000Z</time></trkpt>
			<trkpt lat="53.570045" lon="26.999819"><time>1970-01-01T00:00:01.000Z</time></trkpt>
			<trkpt lat="53.570187" lon="26.999878"><time>1970-01-01T00:00:01.000Z</time></trkpt>
			<trkpt lat="53.570400" lon="27.000120"><time>1970-01-01T00:00:01.000Z</time></trkpt>
			<trkpt lat="53.570692" lon="26.999842"><time>1970-01-01T00:00:01.000Z</time></trkpt>
			<trkpt lat="53.571318" lon="26.998911"><time>1970-01-01T00:00:01.000Z</time></trkpt>
			<trkpt lat="53.571248" lon="26.998544"><time>1970-01-01T00:00:01.000Z</time></trkpt>
			<trkpt lat="53.570341" lon="26.996737"><time>1970-01-01T00:00:01.000Z</time></trkpt>
			<trkpt lat="53.568851" lon="26.993493"><time>1970-01-01T00:00:01.000Z</time></trkpt>
			<trkpt lat="53.568191" lon="26.992164"><time>1970-01-01T00:00:01.000Z</time></trkpt>
			<trkpt lat="53.567944" lon="26.991591"><time>1970-01-01T00:00:01.000Z</time></trkpt>
			<trkpt lat="53.565064" lon="26.985535"><time>1970-01-01T00:00:01.000Z</time></trkpt>
			<trkpt lat="53.564096" lon="26.983635"><time>1970-01-01T00:00:01.000Z</time></trkpt>
			<trkpt lat="53.563518" lon="26.982268"><time>1970-01-01T00:00:01.000Z</time></trkpt>
			<trkpt lat="53.562319" lon="26.979855"><time>1970-01-01T00:00:01.000Z</time></trkpt>
			<trkpt lat="53.562075" lon="26.979194"><time>1970-01-01T00:00:01.000Z</time></trkpt>
			<trkpt lat="53.561512" lon="26.977968"><time>1970-01-01T00:00:01.000Z</time></trkpt>
			<trkpt lat="53.561146" lon="26.977336"><time>1970-01-01T00:00:01.000Z</time></trkpt>
			<trkpt lat="53.558524" lon="26.971834"><time>1970-01-01T00:00:01.000Z</time></trkpt>
			<trkpt lat="53.557218" lon="26.969242"><time>1970-01-01T00:00:01.000Z</time></trkpt>
			<trkpt lat="53.555275" lon="26.965017"><time>1970-01-01T00:00:01.000Z</time></trkpt>
			<trkpt lat="53.554657" lon="26.963748"><time>1970-01-01T00:00:01.000Z</time></trkpt>
			<trkpt lat="53.554601" lon="26.962929"><time>1970-01-01T00:00:01.000Z</time></trkpt>
			<trkpt lat="53.554678" lon="26.962191"><time>1970-01-01T00:00:01.000Z</time></trkpt>
			<trkpt lat="53.554423" lon="26.961706"><time>1970-01-01T00:00:01.000Z</time></trkpt>
			<trkpt lat="53.553718" lon="26.960801"><time>1970-01-01T00:00:01.000Z</time></trkpt>
			<trkpt lat="53.553084" lon="26.959905"><time>1970-01-01T00:00:01.000Z</time></trkpt>
			<trkpt lat="53.552431" lon="26.958890"><time>1970-01-01T00:00:01.000Z</time></trkpt>
			<trkpt lat="53.552224" lon="26.958494"><time>1970-01-01T00:00:01.000Z</time></trkpt>
			<trkpt lat="53.552070" lon="26.958016"><time>1970-01-01T00:00:01.000Z</time></trkpt>
			<trkpt lat="53.552010" lon="26.957526"><time>1970-01-01T00:00:01.000Z</time></trkpt>
			<trkpt lat="53.551745" lon="26.956435"><time>1970-01-01T00:00:01.000Z</time></trkpt>
			<trkpt lat="53.551564" lon="26.955886"><time>1970-01-01T00:00:01.000Z</time></trkpt>
			<trkpt lat="53.551530" lon="26.955309"><time>1970-01-01T00:00:01.000Z</time></trkpt>
			<trkpt lat="53.552275" lon="26.954222"><time>1970-01-01T00:00:01.000Z</time></trkpt>
			<trkpt lat="53.552685" lon="26.953758"><time>1970-01-01T00:00:01.000Z</time></trkpt>
			<trkpt lat="53.553609" lon="26.953130"><time>1970-01-01T00:00:01.000Z</time></trkpt>
			<trkpt lat="53.554070" lon="26.952722"><time>1970-01-01T00:00:01.000Z</time></trkpt>
			<trkpt lat="53.554752" lon="26.952355"><time>1970-01-01T00:00:01.000Z</time></trkpt>
			<trkpt lat="53.555634" lon="26.951438"><time>1970-01-01T00:00:01.000Z</time></trkpt>
			<trkpt lat="53.556486" lon="26.950446"><time>1970-01-01T00:00:01.000Z</time></trkpt>
			<trkpt lat="53.557033" lon="26.949918"><time>1970-01-01T00:00:01.000Z</time></trkpt>
			<trkpt lat="53.557527" lon="26.949501"><time>1970-01-01T00:00:01.000Z</time></trkpt>
			<trkpt lat="53.557930" lon="26.949044"><time>1970-01-01T00:00:01.000Z</time></trkpt>
			<trkpt lat="53.558216" lon="26.948658"><time>1970-01-01T00:00:01.000Z</time></trkpt>
			<trkpt lat="53.558998" lon="26.947852"><time>1970-01-01T00:00:01.000Z</time></trkpt>
			<trkpt lat="53.559726" lon="26.947183"><time>1970-01-01T00:00:01.000Z</time></trkpt>
			<trkpt lat="53.560484" lon="26.946296"><time>1970-01-01T00:00:01.000Z</time></trkpt>
			<trkpt lat="53.560876" lon="26.945991"><time>1970-01-01T00:00:01.000Z</time></trkpt>
			<trkpt lat="53.561235" lon="26.945577"><time>1970-01-01T00:00:01.000Z</time></trkpt>
			<trkpt lat="53.561498" lon="26.944980"><time>1970-01-01T00:00:01.000Z</time></trkpt>
			<trkpt lat="53.562129" lon="26.943136"><time>1970-01-01T00:00:01.000Z</time></trkpt>
			<trkpt lat="53.562360" lon="26.942720"><time>1970-01-01T00:00:01.000Z</time></trkpt>
			<trkpt lat="53.562604" lon="26.942402"><time>1970-01-01T00:00:01.000Z</time></trkpt>
			<trkpt lat="53.562703" lon="26.942050"><time>1970-01-01T00:00:01.000Z</time></trkpt>
			<trkpt lat="53.562721" lon="26.940659"><time>1970-01-01T00:00:01.000Z</time></trkpt>
			<trkpt lat="53.562675" lon="26.938449"><time>1970-01-01T00:00:01.000Z</time></trkpt>
			<trkpt lat="53.562693" lon="26.937851"><time>1970-01-01T00:00:01.000Z</time></trkpt>
			<trkpt lat="53.562595" lon="26.935017"><time>1970-01-01T00:00:01.000Z</time></trkpt>
			<trkpt lat="53.562691" lon="26.934024"><time>1970-01-01T00:00:01.000Z</time></trkpt>
			<trkpt lat="53.562932" lon="26.933480"><time>1970-01-01T00:00:01.000Z</time></trkpt>
			<trkpt lat="53.563264" lon="26.932866"><time>1970-01-01T00:00:01.000Z</time></trkpt>
			<trkpt lat="53.563986" lon="26.931376"><time>1970-01-01T00:00:01.000Z</time></trkpt>
			<trkpt lat="53.564330" lon="26.928674"><time>1970-01-01T00:00:01.000Z</time></trkpt>
			<trkpt lat="53.564718" lon="26.927979"><time>1970-01-01T00:00:01.000Z</time></trkpt>
			<trkpt lat="53.565432" lon="26.927477"><time>1970-01-01T00:00:01.000Z</time></trkpt>
			<trkpt lat="53.565961" lon="26.926918"><time>1970-01-01T00:00:01.000Z</time></trkpt>
			<trkpt lat="53.564961" lon="26.924786"><time>1970-01-01T00:00:01.000Z</time></trkpt>
			<trkpt lat="53.564784" lon="26.924132"><time>1970-01-01T00:00:01.000Z</time></trkpt>
			<trkpt lat="53.564663" lon="26.922894"><time>1970-01-01T00:00:01.000Z</time></trkpt>
			<trkpt lat="53.564727" lon="26.922289"><time>1970-01-01T00:00:01.000Z</time></trkpt>
			<trkpt lat="53.564784" lon="26.921061"><time>1970-01-01T00:00:01.000Z</time></trkpt>
			<trkpt lat="53.564702" lon="26.919943"><time>1970-01-01T00:00:01.000Z</time></trkpt>
			<trkpt lat="53.564216" lon="26.917757"><time>1970-01-01T00:00:01.000Z</time></trkpt>
			<trkpt lat="53.564043" lon="26.916676"><time>1970-01-01T00:00:01.000Z</time></trkpt>
			<trkpt lat="53.564063" lon="26.915403"><time>1970-01-01T00:00:01.000Z</time></trkpt>
			<trkpt lat="53.564326" lon="26.914114"><time>1970-01-01T00:00:01.000Z</time></trkpt>
			<trkpt lat="53.564641" lon="26.913047"><time>1970-01-01T00:00:01.000Z</time></trkpt>
			<trkpt lat="53.565216" lon="26.911679"><time>1970-01-01T00:00:01.000Z</time></trkpt>
			<trkpt lat="53.565521" lon="26.911510"><time>1970-01-01T00:00:01.000Z</time></trkpt>
			<trkpt lat="53.565950" lon="26.911407"><time>1970-01-01T00:00:01.000Z</time></trkpt>
			<trkpt lat="53.566646" lon="26.911105"><time>1970-01-01T00:00:01.000Z</time></trkpt>
			<trkpt lat="53.567102" lon="26.911044"><time>1970-01-01T00:00:01.000Z</time></trkpt>
			<trkpt lat="53.567389" lon="26.911535"><time>1970-01-01T00:00:01.000Z</time></trkpt>
			<trkpt lat="53.567685" lon="26.911668"><time>1970-01-01T00:00:01.000Z</time></trkpt>
			<trkpt lat="53.568032" lon="26.911766"><time>1970-01-01T00:00:01.000Z</time></trkpt>
			<trkpt lat="53.568389" lon="26.911956"><time>1970-01-01T00:00:01.000Z</time></trkpt>
			<trkpt lat="53.568701" lon="26.912369"><time>1970-01-01T00:00:01.000Z</time></trkpt>
			<trkpt lat="53.569016" lon="26.912559"><time>1970-01-01T00:00:01.000Z</time></trkpt>
			<trkpt lat="53.569345" lon="26.912724"><time>1970-01-01T00:00:01.000Z</time></trkpt>
			<trkpt lat="53.570234" lon="26.913045"><time>1970-01-01T00:00:01.000Z</time></trkpt>
			<trkpt lat="53.570684" lon="26.912970"><time>1970-01-01T00:00:01.000Z</time></trkpt>
			<trkpt lat="53.570935" lon="26.912622"><time>1970-01-01T00:00:01.000Z</time></trkpt>
			<trkpt lat="53.571059" lon="26.911872"><time>1970-01-01T00:00:01.000Z</time></trkpt>
			<trkpt lat="53.571049" lon="26.911004"><time>1970-01-01T00:00:01.000Z</time></trkpt>
			<trkpt lat="53.570900" lon="26.909337"><time>1970-01-01T00:00:01.000Z</time></trkpt>
			<trkpt lat="53.571246" lon="26.908645"><time>1970-01-01T00:00:01.000Z</time></trkpt>
			<trkpt lat="53.571657" lon="26.908234"><time>1970-01-01T00:00:01.000Z</time></trkpt>
			<trkpt lat="53.572163" lon="26.908036"><time>1970-01-01T00:00:01.000Z</time></trkpt>
			<trkpt lat="53.572512" lon="26.907799"><time>1970-01-01T00:00:01.000Z</time></trkpt>
			<trkpt lat="53.572763" lon="26.907123"><time>1970-01-01T00:00:01.000Z</time></trkpt>
			<trkpt lat="53.573266" lon="26.906770"><time>1970-01-01T00:00:01.000Z</time></trkpt>
			<trkpt lat="53.574118" lon="26.906027"><time>1970-01-01T00:00:01.000Z</time></trkpt>
			<trkpt lat="53.574529" lon="26.906124"><time>1970-01-01T00:00:01.000Z</time></trkpt>
			<trkpt lat="53.575591" lon="26.906188"><time>1970-01-01T00:00:01.000Z</time></trkpt>
			<trkpt lat="53.576088" lon="26.906254"><time>1970-01-01T00:00:01.000Z</time></trkpt>
			<trkpt lat="53.577089" lon="26.905766"><time>1970-01-01T00:00:01.000Z</time></trkpt>
			<trkpt lat="53.578186" lon="26.905366"><time>1970-01-01T00:00:01.000Z</time></trkpt>
			<trkpt lat="53.579543" lon="26.904735"><time>1970-01-01T00:00:01.000Z</time></trkpt>
			<trkpt lat="53.580024" lon="26.904470"><time>1970-01-01T00:00:01.000Z</time></trkpt>
			<trkpt lat="53.580737" lon="26.903822"><time>1970-01-01T00:00:01.000Z</time></trkpt>
			<trkpt lat="53.581154" lon="26.903635"><time>1970-01-01T00:00:01.000Z</time></trkpt>
			<trkpt lat="53.581414" lon="26.904696"><time>1970-01-01T00:00:01.000Z</time></trkpt>
			<trkpt lat="53.581525" lon="26.905507"><time>1970-01-01T00:00:01.000Z</time></trkpt>
			<trkpt lat="53.581317" lon="26.904249"><time>1970-01-01T00:00:01.000Z</time></trkpt>
			<trkpt lat="53.581527" lon="26.903927"><time>1970-01-01T00:00:01.000Z</time></trkpt>
			<trkpt lat="53.581714" lon="26.904026"><time>1970-01-01T00:00:01.000Z</time></trkpt>
			<trkpt lat="53.582197" lon="26.904971"><time>1970-01-01T00:00:01.000Z</time></trkpt>
			<trkpt lat="53.582655" lon="26.906668"><time>1970-01-01T00:00:01.000Z</time></trkpt>
			<trkpt lat="53.582994" lon="26.907200"><time>1970-01-01T00:00:01.000Z</time></trkpt>
			<trkpt lat="53.583349" lon="26.907909"><time>1970-01-01T00:00:01.000Z</time></trkpt>
			<trkpt lat="53.583715" lon="26.909292"><time>1970-01-01T00:00:01.000Z</time></trkpt>
			<trkpt lat="53.583937" lon="26.909944"><time>1970-01-01T00:00:01.000Z</time></trkpt>
			<trkpt lat="53.584910" lon="26.913628"><time>1970-01-01T00:00:01.000Z</time></trkpt>
			<trkpt lat="53.585274" lon="26.915308"><time>1970-01-01T00:00:01.000Z</time></trkpt>
			<trkpt lat="53.585395" lon="26.916039"><time>1970-01-01T00:00:01.000Z</time></trkpt>
			<trkpt lat="53.585974" lon="26.917586"><time>1970-01-01T00:00:01.000Z</time></trkpt>
			<trkpt lat="53.586185" lon="26.918334"><time>1970-01-01T00:00:01.000Z</time></trkpt>
			<trkpt lat="53.586321" lon="26.919004"><time>1970-01-01T00:00:01.000Z</time></trkpt>
			<trkpt lat="53.586647" lon="26.919784"><time>1970-01-01T00:00:01.000Z</time></trkpt>
			<trkpt lat="53.586834" lon="26.920432"><time>1970-01-01T00:00:01.000Z</time></trkpt>
			<trkpt lat="53.587261" lon="26.920175"><time>1970-01-01T00:00:01.000Z</time></trkpt>
			<trkpt lat="53.587816" lon="26.919927"><time>1970-01-01T00:00:01.000Z</time></trkpt>
			<trkpt lat="53.588179" lon="26.919433"><time>1970-01-01T00:00:01.000Z</time></trkpt>
			<trkpt lat="53.588196" lon="26.917806"><time>1970-01-01T00:00:01.000Z</time></trkpt>
			<trkpt lat="53.588065" lon="26.916988"><time>1970-01-01T00:00:01.000Z</time></trkpt>
			<trkpt lat="53.587890" lon="26.916247"><time>1970-01-01T00:00:01.000Z</time></trkpt>
			<trkpt lat="53.587835" lon="26.915337"><time>1970-01-01T00:00:01.000Z</time></trkpt>
			<trkpt lat="53.588441" lon="26.913615"><time>1970-01-01T00:00:01.000Z</time></trkpt>
			<trkpt lat="53.588578" lon="26.913420"><time>1970-01-01T00:00:01.000Z</time></trkpt>
			<trkpt lat="53.588997" lon="26.913318"><time>1970-01-01T00:00:01.000Z</time></trkpt>
			<trkpt lat="53.589310" lon="26.913113"><time>1970-01-01T00:00:01.000Z</time></trkpt>
			<trkpt lat="53.589449" lon="26.912819"><time>1970-01-01T00:00:01.000Z</time></trkpt>
			<trkpt lat="53.589297" lon="26.912398"><time>1970-01-01T00:00:01.000Z</time></trkpt>
			<trkpt lat="53.589090" lon="26.911325"><time>1970-01-01T00:00:01.000Z</time></trkpt>
			<trkpt lat="53.588971" lon="26.910189"><time>1970-01-01T00:00:01.000Z</time></trkpt>
			<trkpt lat="53.588230" lon="26.906108"><time>1970-01-01T00:00:01.000Z</time></trkpt>
			<trkpt lat="53.588139" lon="26.904959"><time>1970-01-01T00:00:01.000Z</time></trkpt>
			<trkpt lat="53.588007" lon="26.903842"><time>1970-01-01T00:00:01.000Z</time></trkpt>
			<trkpt lat="53.587646" lon="26.903013"><time>1970-01-01T00:00:01.000Z</time></trkpt>
			<trkpt lat="53.587327" lon="26.902459"><time>1970-01-01T00:00:01.000Z</time></trkpt>
			<trkpt lat="53.586876" lon="26.902394"><time>1970-01-01T00:00:01.000Z</time></trkpt>
			<trkpt lat="53.586619" lon="26.901998"><time>1970-01-01T00:00:01.000Z</time></trkpt>
			<trkpt lat="53.586121" lon="26.900644"><time>1970-01-01T00:00:01.000Z</time></trkpt>
			<trkpt lat="53.585483" lon="26.899251"><time>1970-01-01T00:00:01.000Z</time></trkpt>
			<trkpt lat="53.585543" lon="26.898704"><time>1970-01-01T00:00:01.000Z</time></trkpt>
			<trkpt lat="53.586495" lon="26.897143"><time>1970-01-01T00:00:01.000Z</time></trkpt>
			<trkpt lat="53.586922" lon="26.896200"><time>1970-01-01T00:00:01.000Z</time></trkpt>
			<trkpt lat="53.587600" lon="26.894890"><time>1970-01-01T00:00:01.000Z</time></trkpt>
			<trkpt lat="53.588005" lon="26.894296"><time>1970-01-01T00:00:01.000Z</time></trkpt>
			<trkpt lat="53.588558" lon="26.893245"><time>1970-01-01T00:00:01.000Z</time></trkpt>
			<trkpt lat="53.588923" lon="26.893134"><time>1970-01-01T00:00:01.000Z</time></trkpt>
			<trkpt lat="53.589435" lon="26.893077"><time>1970-01-01T00:00:01.000Z</time></trkpt>
			<trkpt lat="53.590528" lon="26.892371"><time>1970-01-01T00:00:01.000Z</time></trkpt>
			<trkpt lat="53.591439" lon="26.892915"><time>1970-01-01T00:00:01.000Z</time></trkpt>
			<trkpt lat="53.591960" lon="26.892853"><time>1970-01-01T00:00:01.000Z</time></trkpt>
			<trkpt lat="53.592230" lon="26.892349"><time>1970-01-01T00:00:01.000Z</time></trkpt>
			<trkpt lat="53.592383" lon="26.891838"><time>1970-01-01T00:00:01.000Z</time></trkpt>
			<trkpt lat="53.592426" lon="26.890785"><time>1970-01-01T00:00:01.000Z</time></trkpt>
			<trkpt lat="53.592406" lon="26.890211"><time>1970-01-01T00:00:01.000Z</time></trkpt>
			<trkpt lat="53.592517" lon="26.889381"><time>1970-01-01T00:00:01.000Z</time></trkpt>
			<trkpt lat="53.592643" lon="26.888826"><time>1970-01-01T00:00:01.000Z</time></trkpt>
			<trkpt lat="53.592702" lon="26.887716"><time>1970-01-01T00:00:01.000Z</time></trkpt>
			<trkpt lat="53.592650" lon="26.887119"><time>1970-01-01T00:00:01.000Z</time></trkpt>
			<trkpt lat="53.592807" lon="26.886003"><time>1970-01-01T00:00:01.000Z</time></trkpt>
			<trkpt lat="53.592798" lon="26.885030"><time>1970-01-01T00:00:01.000Z</time></trkpt>
			<trkpt lat="53.592992" lon="26.883650"><time>1970-01-01T00:00:01.000Z</time></trkpt>
			<trkpt lat="53.593090" lon="26.881552"><time>1970-01-01T00:00:01.000Z</time></trkpt>
			<trkpt lat="53.593060" lon="26.880842"><time>1970-01-01T00:00:01.000Z</time></trkpt>
			<trkpt lat="53.592961" lon="26.880014"><time>1970-01-01T00:00:01.000Z</time></trkpt>
			<trkpt lat="53.592922" lon="26.878653"><time>1970-01-01T00:00:01.000Z</time></trkpt>
			<trkpt lat="53.593091" lon="26.877848"><time>1970-01-01T00:00:01.000Z</time></trkpt>
			<trkpt lat="53.593084" lon="26.875961"><time>1970-01-01T00:00:01.000Z</time></trkpt>
			<trkpt lat="53.593285" lon="26.874646"><time>1970-01-01T00:00:01.000Z</time></trkpt>
			<trkpt lat="53.593330" lon="26.873971"><time>1970-01-01T00:00:01.000Z</time></trkpt>
			<trkpt lat="53.593344" lon="26.873188"><time>1970-01-01T00:00:01.000Z</time></trkpt>
			<trkpt lat="53.593253" lon="26.872431"><time>1970-01-01T00:00:01.000Z</time></trkpt>
			<trkpt lat="53.593362" lon="26.871423"><time>1970-01-01T00:00:01.000Z</time></trkpt>
			<trkpt lat="53.594045" lon="26.869539"><time>1970-01-01T00:00:01.000Z</time></trkpt>
			<trkpt lat="53.594317" lon="26.869018"><time>1970-01-01T00:00:01.000Z</time></trkpt>
			<trkpt lat="53.594792" lon="26.867891"><time>1970-01-01T00:00:01.000Z</time></trkpt>
			<trkpt lat="53.595085" lon="26.867313"><time>1970-01-01T00:00:01.000Z</time></trkpt>
			<trkpt lat="53.595349" lon="26.866633"><time>1970-01-01T00:00:01.000Z</time></trkpt>
			<trkpt lat="53.595903" lon="26.865409"><time>1970-01-01T00:00:01.000Z</time></trkpt>
			<trkpt lat="53.596721" lon="26.863329"><time>1970-01-01T00:00:01.000Z</time></trkpt>
			<trkpt lat="53.597316" lon="26.862100"><time>1970-01-01T00:00:01.000Z</time></trkpt>
			<trkpt lat="53.597650" lon="26.861276"><time>1970-01-01T00:00:01.000Z</time></trkpt>
			<trkpt lat="53.598658" lon="26.859062"><time>1970-01-01T00:00:01.000Z</time></trkpt>
			<trkpt lat="53.599285" lon="26.857780"><time>1970-01-01T00:00:01.000Z</time></trkpt>
			<trkpt lat="53.599553" lon="26.857116"><time>1970-01-01T00:00:01.000Z</time></trkpt>
			<trkpt lat="53.599771" lon="26.856408"><time>1970-01-01T00:00:01.000Z</time></trkpt>
			<trkpt lat="53.599771" lon="26.855842"><time>1970-01-01T00:00:01.000Z</time></trkpt>
			<trkpt lat="53.598381" lon="26.853660"><time>1970-01-01T00:00:01.000Z</time></trkpt>
			<trkpt lat="53.597976" lon="26.852926"><time>1970-01-01T00:00:01.000Z</time></trkpt>
			<trkpt lat="53.597737" lon="26.852084"><time>1970-01-01T00:00:01.000Z</time></trkpt>
			<trkpt lat="53.597302" lon="26.851457"><time>1970-01-01T00:00:01.000Z</time></trkpt>
			<trkpt lat="53.596250" lon="26.850527"><time>1970-01-01T00:00:01.000Z</time></trkpt>
			<trkpt lat="53.595822" lon="26.849980"><time>1970-01-01T00:00:01.000Z</time></trkpt>
			<trkpt lat="53.591066" lon="26.843143"><time>1970-01-01T00:00:01.000Z</time></trkpt>
			<trkpt lat="53.590319" lon="26.841985"><time>1970-01-01T00:00:01.000Z</time></trkpt>
			<trkpt lat="53.589649" lon="26.841047"><time>1970-01-01T00:00:01.000Z</time></trkpt>
			<trkpt lat="53.588772" lon="26.839678"><time>1970-01-01T00:00:01.000Z</time></trkpt>
			<trkpt lat="53.588113" lon="26.838802"><time>1970-01-01T00:00:01.000Z</time></trkpt>
			<trkpt lat="53.587894" lon="26.838107"><time>1970-01-01T00:00:01.000Z</time></trkpt>
			<trkpt lat="53.588181" lon="26.837415"><time>1970-01-01T00:00:01.000Z</time></trkpt>
			<trkpt lat="53.588373" lon="26.837425"><time>1970-01-01T00:00:01.000Z</time></trkpt>
			<trkpt lat="53.588357" lon="26.837404"><time>1970-01-01T00:00:01.000Z</time></trkpt>
			<trkpt lat="53.588333" lon="26.837529"><time>1970-01-01T00:00:01.000Z</time></trkpt>
			<trkpt lat="53.588308" lon="26.837514"><time>1970-01-01T00:00:01.000Z</time></trkpt>
			<trkpt lat="53.588372" lon="26.837610"><time>1970-01-01T00:00:01.000Z</time></trkpt>
			<trkpt lat="53.588547" lon="26.837596"><time>1970-01-01T00:00:01.000Z</time></trkpt>
			<trkpt lat="53.588446" lon="26.837367"><time>1970-01-01T00:00:01.000Z</time></trkpt>
			<trkpt lat="53.588388" lon="26.837467"><time>1970-01-01T00:00:01.000Z</time></trkpt>
			<trkpt lat="53.588370" lon="26.837439"><time>1970-01-01T00:00:01.000Z</time></trkpt>
			<trkpt lat="53.588391" lon="26.837463"><time>1970-01-01T00:00:01.000Z</time></trkpt>
			<trkpt lat="53.588364" lon="26.837516"><time>1970-01-01T00:00:01.000Z</time></trkpt>
			<trkpt lat="53.588378" lon="26.837474"><time>1970-01-01T00:00:01.000Z</time></trkpt>
			<trkpt lat="53.588399" lon="26.837501"><time>1970-01-01T00:00:01.000Z</time></trkpt>
			<trkpt lat="53.588361" lon="26.837410"><time>1970-01-01T00:00:01.000Z</time></trkpt>
			<trkpt lat="53.588378" lon="26.837488"><time>1970-01-01T00:00:01.000Z</time></trkpt>
			<trkpt lat="53.588377" lon="26.837432"><time>1970-01-01T00:00:01.000Z</time></trkpt>
			<trkpt lat="53.588369" lon="26.837490"><time>1970-01-01T00:00:01.000Z</time></trkpt>
			<trkpt lat="53.588351" lon="26.837391"><time>1970-01-01T00:00:01.000Z</time></trkpt>
			<trkpt lat="53.588265" lon="26.837266"><time>1970-01-01T00:00:01.000Z</time></trkpt>
			<trkpt lat="53.588049" lon="26.837738"><time>1970-01-01T00:00:01.000Z</time></trkpt>
			<trkpt lat="53.587675" lon="26.838315"><time>1970-01-01T00:00:01.000Z</time></trkpt>
			<trkpt lat="53.586348" lon="26.836543"><time>1970-01-01T00:00:01.000Z</time></trkpt>
			<trkpt lat="53.585892" lon="26.836070"><time>1970-01-01T00:00:01.000Z</time></trkpt>
			<trkpt lat="53.585370" lon="26.835647"><time>1970-01-01T00:00:01.000Z</time></trkpt>
			<trkpt lat="53.584919" lon="26.835177"><time>1970-01-01T00:00:01.000Z</time></trkpt>
			<trkpt lat="53.584525" lon="26.834688"><time>1970-01-01T00:00:01.000Z</time></trkpt>
			<trkpt lat="53.581699" lon="26.832043"><time>1970-01-01T00:00:01.000Z</time></trkpt>
			<trkpt lat="53.581579" lon="26.831407"><time>1970-01-01T00:00:01.000Z</time></trkpt>
			<trkpt lat="53.582404" lon="26.829234"><time>1970-01-01T00:00:01.000Z</time></trkpt>
			<trkpt lat="53.583038" lon="26.827679"><time>1970-01-01T00:00:01.000Z</time></trkpt>
			<trkpt lat="53.583439" lon="26.827101"><time>1970-01-01T00:00:01.000Z</time></trkpt>
			<trkpt lat="53.583985" lon="26.825504"><time>1970-01-01T00:00:01.000Z</time></trkpt>
			<trkpt lat="53.584219" lon="26.824627"><time>1970-01-01T00:00:01.000Z</time></trkpt>
			<trkpt lat="53.584497" lon="26.824731"><time>1970-01-01T00:00:01.000Z</time></trkpt>
			<trkpt lat="53.584607" lon="26.825658"><time>1970-01-01T00:00:01.000Z</time></trkpt>
			<trkpt lat="53.584715" lon="26.825884"><time>1970-01-01T00:00:01.000Z</time></trkpt>
			<trkpt lat="53.584769" lon="26.825798"><time>1970-01-01T00:00:01.000Z</time></trkpt>
			<trkpt lat="53.584700" lon="26.825801"><time>1970-01-01T00:00:01.000Z</time></trkpt>
			<trkpt lat="53.584735" lon="26.825578"><time>1970-01-01T00:00:01.000Z</time></trkpt>
			<trkpt lat="53.584778" lon="26.825536"><time>1970-01-01T00:00:01.000Z</time></trkpt>
			<trkpt lat="53.584869" lon="26.825536"><time>1970-01-01T00:00:01.000Z</time></trkpt>
			<trkpt lat="53.584744" lon="26.825396"><time>1970-01-01T00:00:01.000Z</time></trkpt>
			<trkpt lat="53.584688" lon="26.825377"><time>1970-01-01T00:00:01.000Z</time></trkpt>
			<trkpt lat="53.584653" lon="26.825436"><time>1970-01-01T00:00:01.000Z</time></trkpt>
			<trkpt lat="53.584630" lon="26.825418"><time>1970-01-01T00:00:01.000Z</time></trkpt>
			<trkpt lat="53.584608" lon="26.825450"><time>1970-01-01T00:00:01.000Z</time></trkpt>
			<trkpt lat="53.584650" lon="26.825518"><time>1970-01-01T00:00:01.000Z</time></trkpt>
			<trkpt lat="53.584657" lon="26.825497"><time>1970-01-01T00:00:01.000Z</time></trkpt>
			<trkpt lat="53.584617" lon="26.825581"><time>1970-01-01T00:00:01.000Z</time></trkpt>
			<trkpt lat="53.584661" lon="26.825661"><time>1970-01-01T00:00:01.000Z</time></trkpt>
			<trkpt lat="53.584691" lon="26.825631"><time>1970-01-01T00:00:01.000Z</time></trkpt>
			<trkpt lat="53.584646" lon="26.825723"><time>1970-01-01T00:00:01.000Z</time></trkpt>
			<trkpt lat="53.584700" lon="26.825610"><time>1970-01-01T00:00:01.000Z</time></trkpt>
			<trkpt lat="53.584728" lon="26.825618"><time>1970-01-01T00:00:01.000Z</time></trkpt>
			<trkpt lat="53.584680" lon="26.825668"><time>1970-01-01T00:00:01.000Z</time></trkpt>
			<trkpt lat="53.584667" lon="26.825616"><time>1970-01-01T00:00:01.000Z</time></trkpt>
			<trkpt lat="53.584650" lon="26.825638"><time>1970-01-01T00:00:01.000Z</time></trkpt>
			<trkpt lat="53.584632" lon="26.825612"><time>1970-01-01T00:00:01.000Z</time></trkpt>
			<trkpt lat="53.584646" lon="26.825662"><time>1970-01-01T00:00:01.000Z</time></trkpt>
			<trkpt lat="53.584621" lon="26.825677"><time>1970-01-01T00:00:01.000Z</time></trkpt>
			<trkpt lat="53.584507" lon="26.825206"><time>1970-01-01T00:00:01.000Z</time></trkpt>
			<trkpt lat="53.584539" lon="26.824972"><time>1970-01-01T00:00:01.000Z</time></trkpt>
			<trkpt lat="53.584498" lon="26.824709"><time>1970-01-01T00:00:01.000Z</time></trkpt>
			<trkpt lat="53.584382" lon="26.824521"><time>1970-01-01T00:00:01.000Z</time></trkpt>
			<trkpt lat="53.584287" lon="26.824466"><time>1970-01-01T00:00:01.000Z</time></trkpt>
			<trkpt lat="53.584236" lon="26.824461"><time>1970-01-01T00:00:01.000Z</time></trkpt>
			<trkpt lat="53.583984" lon="26.825492"><time>1970-01-01T00:00:01.000Z</time></trkpt>
			<trkpt lat="53.583348" lon="26.827274"><time>1970-01-01T00:00:01.000Z</time></trkpt>
			<trkpt lat="53.582922" lon="26.827882"><time>1970-01-01T00:00:01.000Z</time></trkpt>
			<trkpt lat="53.581589" lon="26.831313"><time>1970-01-01T00:00:01.000Z</time></trkpt>
			<trkpt lat="53.581617" lon="26.832067"><time>1970-01-01T00:00:01.000Z</time></trkpt>
			<trkpt lat="53.584687" lon="26.834925"><time>1970-01-01T00:00:01.000Z</time></trkpt>
			<trkpt lat="53.585330" lon="26.835212"><time>1970-01-01T00:00:01.000Z</time></trkpt>
			<trkpt lat="53.586028" lon="26.835228"><time>1970-01-01T00:00:01.000Z</time></trkpt>
			<trkpt lat="53.586623" lon="26.835018"><time>1970-01-01T00:00:01.000Z</time></trkpt>
			<trkpt lat="53.587215" lon="26.834514"><time>1970-01-01T00:00:01.000Z</time></trkpt>
			<trkpt lat="53.589185" lon="26.832155"><time>1970-01-01T00:00:01.000Z</time></trkpt>
			<trkpt lat="53.589647" lon="26.831656"><time>1970-01-01T00:00:01.000Z</time></trkpt>
			<trkpt lat="53.590188" lon="26.831280"><time>1970-01-01T00:00:01.000Z</time></trkpt>
			<trkpt lat="53.590702" lon="26.831114"><time>1970-01-01T00:00:01.000Z</time></trkpt>
			<trkpt lat="53.592191" lon="26.831094"><time>1970-01-01T00:00:01.000Z</time></trkpt>
			<trkpt lat="53.592710" lon="26.831023"><time>1970-01-01T00:00:01.000Z</time></trkpt>
			<trkpt lat="53.593306" lon="26.830805"><time>1970-01-01T00:00:01.000Z</time></trkpt>
			<trkpt lat="53.593886" lon="26.830480"><time>1970-01-01T00:00:01.000Z</time></trkpt>
			<trkpt lat="53.596002" lon="26.829117"><time>1970-01-01T00:00:01.000Z</time></trkpt>
			<trkpt lat="53.599013" lon="26.827240"><time>1970-01-01T00:00:01.000Z</time></trkpt>
			<trkpt lat="53.600716" lon="26.826322"><time>1970-01-01T00:00:01.000Z</time></trkpt>
			<trkpt lat="53.601505" lon="26.825948"><time>1970-01-01T00:00:01.000Z</time></trkpt>
			<trkpt lat="53.602214" lon="26.825542"><time>1970-01-01T00:00:01.000Z</time></trkpt>
			<trkpt lat="53.602725" lon="26.824986"><time>1970-01-01T00:00:01.000Z</time></trkpt>
			<trkpt lat="53.602919" lon="26.824470"><time>1970-01-01T00:00:01.000Z</time></trkpt>
			<trkpt lat="53.602673" lon="26.823605"><time>1970-01-01T00:00:01.000Z</time></trkpt>
			<trkpt lat="53.602478" lon="26.822768"><time>1970-01-01T00:00:01.000Z</time></trkpt>
			<trkpt lat="53.602383" lon="26.822135"><time>1970-01-01T00:00:01.000Z</time></trkpt>
			<trkpt lat="53.602020" lon="26.821576"><time>1970-01-01T00:00:01.000Z</time></trkpt>
			<trkpt lat="53.601532" lon="26.821183"><time>1970-01-01T00:00:01.000Z</time></trkpt>
			<trkpt lat="53.601105" lon="26.820531"><time>1970-01-01T00:00:01.000Z</time></trkpt>
			<trkpt lat="53.600483" lon="26.819219"><time>1970-01-01T00:00:01.000Z</time></trkpt>
			<trkpt lat="53.600091" lon="26.817685"><time>1970-01-01T00:00:01.000Z</time></trkpt>
			<trkpt lat="53.599400" lon="26.815355"><time>1970-01-01T00:00:01.000Z</time></trkpt>
			<trkpt lat="53.598351" lon="26.813743"><time>1970-01-01T00:00:01.000Z</time></trkpt>
			<trkpt lat="53.598007" lon="26.812996"><time>1970-01-01T00:00:01.000Z</time></trkpt>
			<trkpt lat="53.597590" lon="26.811928"><time>1970-01-01T00:00:01.000Z</time></trkpt>
			<trkpt lat="53.596974" lon="26.810618"><time>1970-01-01T00:00:01.000Z</time></trkpt>
			<trkpt lat="53.596758" lon="26.809781"><time>1970-01-01T00:00:01.000Z</time></trkpt>
			<trkpt lat="53.596697" lon="26.809099"><time>1970-01-01T00:00:01.000Z</time></trkpt>
			<trkpt lat="53.596975" lon="26.808682"><time>1970-01-01T00:00:01.000Z</time></trkpt>
			<trkpt lat="53.597243" lon="26.808376"><time>1970-01-01T00:00:01.000Z</time></trkpt>
			<trkpt lat="53.597713" lon="26.808201"><time>1970-01-01T00:00:01.000Z</time></trkpt>
			<trkpt lat="53.598222" lon="26.807628"><time>1970-01-01T00:00:01.000Z</time></trkpt>
			<trkpt lat="53.598667" lon="26.807305"><time>1970-01-01T00:00:01.000Z</time></trkpt>
			<trkpt lat="53.599607" lon="26.807068"><time>1970-01-01T00:00:01.000Z</time></trkpt>
			<trkpt lat="53.600045" lon="26.807095"><time>1970-01-01T00:00:01.000Z</time></trkpt>
			<trkpt lat="53.600943" lon="26.806755"><time>1970-01-01T00:00:01.000Z</time></trkpt>
			<trkpt lat="53.601466" lon="26.806693"><time>1970-01-01T00:00:01.000Z</time></trkpt>
			<trkpt lat="53.601872" lon="26.806876"><time>1970-01-01T00:00:01.000Z</time></trkpt>
			<trkpt lat="53.602249" lon="26.807294"><time>1970-01-01T00:00:01.000Z</time></trkpt>
			<trkpt lat="53.602811" lon="26.807750"><time>1970-01-01T00:00:01.000Z</time></trkpt>
			<trkpt lat="53.603270" lon="26.807940"><time>1970-01-01T00:00:01.000Z</time></trkpt>
			<trkpt lat="53.603700" lon="26.808330"><time>1970-01-01T00:00:01.000Z</time></trkpt>
			<trkpt lat="53.604212" lon="26.808699"><time>1970-01-01T00:00:01.000Z</time></trkpt>
			<trkpt lat="53.605021" lon="26.809158"><time>1970-01-01T00:00:01.000Z</time></trkpt>
			<trkpt lat="53.605456" lon="26.809500"><time>1970-01-01T00:00:01.000Z</time></trkpt>
			<trkpt lat="53.605948" lon="26.809772"><time>1970-01-01T00:00:01.000Z</time></trkpt>
			<trkpt lat="53.606254" lon="26.810173"><time>1970-01-01T00:00:01.000Z</time></trkpt>
			<trkpt lat="53.606896" lon="26.811192"><time>1970-01-01T00:00:01.000Z</time></trkpt>
			<trkpt lat="53.607367" lon="26.811525"><time>1970-01-01T00:00:01.000Z</time></trkpt>
			<trkpt lat="53.607722" lon="26.811693"><time>1970-01-01T00:00:01.000Z</time></trkpt>
			<trkpt lat="53.608008" lon="26.811225"><time>1970-01-01T00:00:01.000Z</time></trkpt>
			<trkpt lat="53.608147" lon="26.810531"><time>1970-01-01T00:00:01.000Z</time></trkpt>
			<trkpt lat="53.608261" lon="26.805487"><time>1970-01-01T00:00:01.000Z</time></trkpt>
			<trkpt lat="53.608397" lon="26.804327"><time>1970-01-01T00:00:01.000Z</time></trkpt>
			<trkpt lat="53.608544" lon="26.803372"><time>1970-01-01T00:00:01.000Z</time></trkpt>
			<trkpt lat="53.609373" lon="26.800152"><time>1970-01-01T00:00:01.000Z</time></trkpt>
			<trkpt lat="53.609599" lon="26.798327"><time>1970-01-01T00:00:01.000Z</time></trkpt>
			<trkpt lat="53.609685" lon="26.797339"><time>1970-01-01T00:00:01.000Z</time></trkpt>
			<trkpt lat="53.609698" lon="26.795210"><time>1970-01-01T00:00:01.000Z</time></trkpt>
			<trkpt lat="53.609569" lon="26.794188"><time>1970-01-01T00:00:01.000Z</time></trkpt>
			<trkpt lat="53.609838" lon="26.793599"><time>1970-01-01T00:00:01.000Z</time></trkpt>
			<trkpt lat="53.611398" lon="26.793635"><time>1970-01-01T00:00:01.000Z</time></trkpt>
			<trkpt lat="53.611800" lon="26.793854"><time>1970-01-01T00:00:01.000Z</time></trkpt>
			<trkpt lat="53.612207" lon="26.793944"><time>1970-01-01T00:00:01.000Z</time></trkpt>
			<trkpt lat="53.612620" lon="26.794230"><time>1970-01-01T00:00:01.000Z</time></trkpt>
			<trkpt lat="53.612995" lon="26.794745"><time>1970-01-01T00:00:01.000Z</time></trkpt>
			<trkpt lat="53.613495" lon="26.795099"><time>1970-01-01T00:00:01.000Z</time></trkpt>
			<trkpt lat="53.614557" lon="26.795357"><time>1970-01-01T00:00:01.000Z</time></trkpt>
			<trkpt lat="53.615549" lon="26.795224"><time>1970-01-01T00:00:01.000Z</time></trkpt>
			<trkpt lat="53.615861" lon="26.794922"><time>1970-01-01T00:00:01.000Z</time></trkpt>
			<trkpt lat="53.616167" lon="26.793534"><time>1970-01-01T00:00:01.000Z</time></trkpt>
			<trkpt lat="53.616535" lon="26.793010"><time>1970-01-01T00:00:01.000Z</time></trkpt>
			<trkpt lat="53.616974" lon="26.792765"><time>1970-01-01T00:00:01.000Z</time></trkpt>
			<trkpt lat="53.617423" lon="26.792383"><time>1970-01-01T00:00:01.000Z</time></trkpt>
			<trkpt lat="53.617725" lon="26.791663"><time>1970-01-01T00:00:01.000Z</time></trkpt>
			<trkpt lat="53.618074" lon="26.791159"><time>1970-01-01T00:00:01.000Z</time></trkpt>
			<trkpt lat="53.618525" lon="26.790718"><time>1970-01-01T00:00:01.000Z</time></trkpt>
			<trkpt lat="53.618600" lon="26.790054"><time>1970-01-01T00:00:01.000Z</time></trkpt>
			<trkpt lat="53.618458" lon="26.789391"><time>1970-01-01T00:00:01.000Z</time></trkpt>
			<trkpt lat="53.618567" lon="26.788778"><time>1970-01-01T00:00:01.000Z</time></trkpt>
			<trkpt lat="53.619161" lon="26.787798"><time>1970-01-01T00:00:01.000Z</time></trkpt>
			<trkpt lat="53.619814" lon="26.786864"><time>1970-01-01T00:00:01.000Z</time></trkpt>
			<trkpt lat="53.620081" lon="26.786384"><time>1970-01-01T00:00:01.000Z</time></trkpt>
			<trkpt lat="53.620762" lon="26.785343"><time>1970-01-01T00:00:01.000Z</time></trkpt>
			<trkpt lat="53.621026" lon="26.785260"><time>1970-01-01T00:00:01.000Z</time></trkpt>
			<trkpt lat="53.621315" lon="26.785270"><time>1970-01-01T00:00:01.000Z</time></trkpt>
			<trkpt lat="53.621354" lon="26.785237"><time>1970-01-01T00:00:01.000Z</time></trkpt>
			<trkpt lat="53.621426" lon="26.785274"><time>1970-01-01T00:00:01.000Z</time></trkpt>
			<trkpt lat="53.621398" lon="26.785249"><time>1970-01-01T00:00:01.000Z</time></trkpt>
			<trkpt lat="53.621389" lon="26.785332"><time>1970-01-01T00:00:01.000Z</time></trkpt>
			<trkpt lat="53.621401" lon="26.785300"><time>1970-01-01T00:00:01.000Z</time></trkpt>
			<trkpt lat="53.621384" lon="26.785315"><time>1970-01-01T00:00:01.000Z</time></trkpt>
			<trkpt lat="53.621349" lon="26.785232"><time>1970-01-01T00:00:01.000Z</time></trkpt>
			<trkpt lat="53.621334" lon="26.785253"><time>1970-01-01T00:00:01.000Z</time></trkpt>
			<trkpt lat="53.621360" lon="26.785280"><time>1970-01-01T00:00:01.000Z</time></trkpt>
			<trkpt lat="53.621378" lon="26.785230"><time>1970-01-01T00:00:01.000Z</time></trkpt>
			<trkpt lat="53.621416" lon="26.785270"><time>1970-01-01T00:00:01.000Z</time></trkpt>
			<trkpt lat="53.621418" lon="26.785226"><time>1970-01-01T00:00:01.000Z</time></trkpt>
			<trkpt lat="53.621394" lon="26.785233"><time>1970-01-01T00:00:01.000Z</time></trkpt>
			<trkpt lat="53.621429" lon="26.785332"><time>1970-01-01T00:00:01.000Z</time></trkpt>
			<trkpt lat="53.621399" lon="26.785288"><time>1970-01-01T00:00:01.000Z</time></trkpt>
			<trkpt lat="53.621415" lon="26.785212"><time>1970-01-01T00:00:01.000Z</time></trkpt>
			<trkpt lat="53.621423" lon="26.785249"><time>1970-01-01T00:00:01.000Z</time></trkpt>
			<trkpt lat="53.621424" lon="26.785220"><time>1970-01-01T00:00:01.000Z</time></trkpt>
			<trkpt lat="53.621369" lon="26.785290"><time>1970-01-01T00:00:01.000Z</time></trkpt>
			<trkpt lat="53.621413" lon="26.785271"><time>1970-01-01T00:00:01.000Z</time></trkpt>
			<trkpt lat="53.621493" lon="26.785398"><time>1970-01-01T00:00:01.000Z</time></trkpt>
			<trkpt lat="53.621499" lon="26.785359"><time>1970-01-01T00:00:01.000Z</time></trkpt>
			<trkpt lat="53.621502" lon="26.785382"><time>1970-01-01T00:00:01.000Z</time></trkpt>
			<trkpt lat="53.621431" lon="26.785304"><time>1970-01-01T00:00:01.000Z</time></trkpt>
			<trkpt lat="53.621425" lon="26.785223"><time>1970-01-01T00:00:01.000Z</time></trkpt>
			<trkpt lat="53.621322" lon="26.785336"><time>1970-01-01T00:00:01.000Z</time></trkpt>
			<trkpt lat="53.621418" lon="26.785488"><time>1970-01-01T00:00:01.000Z</time></trkpt>
			<trkpt lat="53.621628" lon="26.785674"><time>1970-01-01T00:00:01.000Z</time></trkpt>
			<trkpt lat="53.621984" lon="26.785873"><time>1970-01-01T00:00:01.000Z</time></trkpt>
			<trkpt lat="53.622492" lon="26.786291"><time>1970-01-01T00:00:01.000Z</time></trkpt>
			<trkpt lat="53.622627" lon="26.786600"><time>1970-01-01T00:00:01.000Z</time></trkpt>
			<trkpt lat="53.622750" lon="26.787037"><time>1970-01-01T00:00:01.000Z</time></trkpt>
			<trkpt lat="53.622714" lon="26.787893"><time>1970-01-01T00:00:01.000Z</time></trkpt>
			<trkpt lat="53.622647" lon="26.788314"><time>1970-01-01T00:00:01.000Z</time></trkpt>
			<trkpt lat="53.622486" lon="26.788765"><time>1970-01-01T00:00:01.000Z</time></trkpt>
			<trkpt lat="53.622239" lon="26.789262"><time>1970-01-01T00:00:01.000Z</time></trkpt>
			<trkpt lat="53.622133" lon="26.789757"><time>1970-01-01T00:00:01.000Z</time></trkpt>
			<trkpt lat="53.622278" lon="26.790218"><time>1970-01-01T00:00:01.000Z</time></trkpt>
			<trkpt lat="53.622264" lon="26.790581"><time>1970-01-01T00:00:01.000Z</time></trkpt>
			<trkpt lat="53.621764" lon="26.791225"><time>1970-01-01T00:00:01.000Z</time></trkpt>
			<trkpt lat="53.621224" lon="26.792025"><time>1970-01-01T00:00:01.000Z</time></trkpt>
			<trkpt lat="53.620903" lon="26.792253"><time>1970-01-01T00:00:01.000Z</time></trkpt>
			<trkpt lat="53.620591" lon="26.792394"><time>1970-01-01T00:00:01.000Z</time></trkpt>
			<trkpt lat="53.620213" lon="26.792514"><time>1970-01-01T00:00:01.000Z</time></trkpt>
			<trkpt lat="53.619885" lon="26.792564"><time>1970-01-01T00:00:01.000Z</time></trkpt>
			<trkpt lat="53.619532" lon="26.792873"><time>1970-01-01T00:00:01.000Z</time></trkpt>
			<trkpt lat="53.619208" lon="26.793034"><time>1970-01-01T00:00:01.000Z</time></trkpt>
			<trkpt lat="53.618989" lon="26.793241"><time>1970-01-01T00:00:01.000Z</time></trkpt>
			<trkpt lat="53.618777" lon="26.793504"><time>1970-01-01T00:00:01.000Z</time></trkpt>
			<trkpt lat="53.617688" lon="26.794547"><time>1970-01-01T00:00:01.000Z</time></trkpt>
			<trkpt lat="53.617243" lon="26.794880"><time>1970-01-01T00:00:01.000Z</time></trkpt>
			<trkpt lat="53.616664" lon="26.794983"><time>1970-01-01T00:00:01.000Z</time></trkpt>
			<trkpt lat="53.616236" lon="26.795100"><time>1970-01-01T00:00:01.000Z</time></trkpt>
			<trkpt lat="53.615789" lon="26.795137"><time>1970-01-01T00:00:01.000Z</time></trkpt>
			<trkpt lat="53.615315" lon="26.795333"><time>1970-01-01T00:00:01.000Z</time></trkpt>
			<trkpt lat="53.614314" lon="26.795355"><time>1970-01-01T00:00:01.000Z</time></trkpt>
			<trkpt lat="53.613917" lon="26.795179"><time>1970-01-01T00:00:01.000Z</time></trkpt>
			<trkpt lat="53.613477" lon="26.795123"><time>1970-01-01T00:00:01.000Z</time></trkpt>
			<trkpt lat="53.613110" lon="26.794973"><time>1970-01-01T00:00:01.000Z</time></trkpt>
			<trkpt lat="53.612740" lon="26.794423"><time>1970-01-01T00:00:01.000Z</time></trkpt>
			<trkpt lat="53.612318" lon="26.794018"><time>1970-01-01T00:00:01.000Z</time></trkpt>
			<trkpt lat="53.611746" lon="26.793849"><time>1970-01-01T00:00:01.000Z</time></trkpt>
			<trkpt lat="53.611246" lon="26.793630"><time>1970-01-01T00:00:01.000Z</time></trkpt>
			<trkpt lat="53.609650" lon="26.793596"><time>1970-01-01T00:00:01.000Z</time></trkpt>
			<trkpt lat="53.609424" lon="26.793909"><time>1970-01-01T00:00:01.000Z</time></trkpt>
			<trkpt lat="53.609728" lon="26.795635"><time>1970-01-01T00:00:01.000Z</time></trkpt>
			<trkpt lat="53.609702" lon="26.795666"><time>1970-01-01T00:00:01.000Z</time></trkpt>
			<trkpt lat="53.609670" lon="26.797384"><time>1970-01-01T00:00:01.000Z</time></trkpt>
			<trkpt lat="53.609484" lon="26.798987"><time>1970-01-01T00:00:01.000Z</time></trkpt>
			<trkpt lat="53.609230" lon="26.800588"><time>1970-01-01T00:00:01.000Z</time></trkpt>
			<trkpt lat="53.609601" lon="26.802838"><time>1970-01-01T00:00:01.000Z</time></trkpt>
			<trkpt lat="53.610644" lon="26.806650"><time>1970-01-01T00:00:01.000Z</time></trkpt>
			<trkpt lat="53.611360" lon="26.813255"><time>1970-01-01T00:00:01.000Z</time></trkpt>
			<trkpt lat="53.611351" lon="26.814558"><time>1970-01-01T00:00:01.000Z</time></trkpt>
			<trkpt lat="53.611172" lon="26.816868"><time>1970-01-01T00:00:01.000Z</time></trkpt>
			<trkpt lat="53.611040" lon="26.819864"><time>1970-01-01T00:00:01.000Z</time></trkpt>
			<trkpt lat="53.611025" lon="26.820932"><time>1970-01-01T00:00:01.000Z</time></trkpt>
			<trkpt lat="53.610586" lon="26.821318"><time>1970-01-01T00:00:01.000Z</time></trkpt>
			<trkpt lat="53.609942" lon="26.821614"><time>1970-01-01T00:00:01.000Z</time></trkpt>
			<trkpt lat="53.608727" lon="26.822270"><time>1970-01-01T00:00:01.000Z</time></trkpt>
			<trkpt lat="53.608565" lon="26.822721"><time>1970-01-01T00:00:01.000Z</time></trkpt>
			<trkpt lat="53.608353" lon="26.823079"><time>1970-01-01T00:00:01.000Z</time></trkpt>
			<trkpt lat="53.608236" lon="26.823494"><time>1970-01-01T00:00:01.000Z</time></trkpt>
			<trkpt lat="53.608064" lon="26.823907"><time>1970-01-01T00:00:01.000Z</time></trkpt>
			<trkpt lat="53.607892" lon="26.824203"><time>1970-01-01T00:00:01.000Z</time></trkpt>
			<trkpt lat="53.607646" lon="26.824490"><time>1970-01-01T00:00:01.000Z</time></trkpt>
			<trkpt lat="53.607187" lon="26.824865"><time>1970-01-01T00:00:01.000Z</time></trkpt>
			<trkpt lat="53.606974" lon="26.825183"><time>1970-01-01T00:00:01.000Z</time></trkpt>
			<trkpt lat="53.606789" lon="26.826041"><time>1970-01-01T00:00:01.000Z</time></trkpt>
			<trkpt lat="53.606513" lon="26.826430"><time>1970-01-01T00:00:01.000Z</time></trkpt>
			<trkpt lat="53.606164" lon="26.826826"><time>1970-01-01T00:00:01.000Z</time></trkpt>
			<trkpt lat="53.605766" lon="26.827161"><time>1970-01-01T00:00:01.000Z</time></trkpt>
			<trkpt lat="53.605387" lon="26.827374"><time>1970-01-01T00:00:01.000Z</time></trkpt>
			<trkpt lat="53.605029" lon="26.827642"><time>1970-01-01T00:00:01.000Z</time></trkpt>
			<trkpt lat="53.604692" lon="26.828003"><time>1970-01-01T00:00:01.000Z</time></trkpt>
			<trkpt lat="53.604362" lon="26.828439"><time>1970-01-01T00:00:01.000Z</time></trkpt>
			<trkpt lat="53.605490" lon="26.831344"><time>1970-01-01T00:00:01.000Z</time></trkpt>
			<trkpt lat="53.606719" lon="26.834991"><time>1970-01-01T00:00:01.000Z</time></trkpt>
			<trkpt lat="53.607665" lon="26.837996"><time>1970-01-01T00:00:01.000Z</time></trkpt>
			<trkpt lat="53.608263" lon="26.838518"><time>1970-01-01T00:00:01.000Z</time></trkpt>
			<trkpt lat="53.609475" lon="26.839372"><time>1970-01-01T00:00:01.000Z</time></trkpt>
			<trkpt lat="53.610045" lon="26.839829"><time>1970-01-01T00:00:01.000Z</time></trkpt>
			<trkpt lat="53.610378" lon="26.840765"><time>1970-01-01T00:00:01.000Z</time></trkpt>
			<trkpt lat="53.610269" lon="26.841863"><time>1970-01-01T00:00:01.000Z</time></trkpt>
			<trkpt lat="53.609226" lon="26.848079"><time>1970-01-01T00:00:01.000Z</time></trkpt>
			<trkpt lat="53.609433" lon="26.848842"><time>1970-01-01T00:00:01.000Z</time></trkpt>
			<trkpt lat="53.609748" lon="26.849628"><time>1970-01-01T00:00:01.000Z</time></trkpt>
			<trkpt lat="53.610344" lon="26.851350"><time>1970-01-01T00:00:01.000Z</time></trkpt>
			<trkpt lat="53.610694" lon="26.852126"><time>1970-01-01T00:00:01.000Z</time></trkpt>
			<trkpt lat="53.611508" lon="26.853731"><time>1970-01-01T00:00:01.000Z</time></trkpt>
			<trkpt lat="53.612331" lon="26.855247"><time>1970-01-01T00:00:01.000Z</time></trkpt>
			<trkpt lat="53.612860" lon="26.855961"><time>1970-01-01T00:00:01.000Z</time></trkpt>
			<trkpt lat="53.613342" lon="26.856484"><time>1970-01-01T00:00:01.000Z</time></trkpt>
			<trkpt lat="53.613890" lon="26.856912"><time>1970-01-01T00:00:01.000Z</time></trkpt>
			<trkpt lat="53.614441" lon="26.857202"><time>1970-01-01T00:00:01.000Z</time></trkpt>
			<trkpt lat="53.614996" lon="26.857644"><time>1970-01-01T00:00:01.000Z</time></trkpt>
			<trkpt lat="53.616653" lon="26.859233"><time>1970-01-01T00:00:01.000Z</time></trkpt>
			<trkpt lat="53.617563" lon="26.860173"><time>1970-01-01T00:00:01.000Z</time></trkpt>
			<trkpt lat="53.617784" lon="26.861039"><time>1970-01-01T00:00:01.000Z</time></trkpt>
			<trkpt lat="53.618374" lon="26.864041"><time>1970-01-01T00:00:01.000Z</time></trkpt>
			<trkpt lat="53.618708" lon="26.865086"><time>1970-01-01T00:00:01.000Z</time></trkpt>
			<trkpt lat="53.619190" lon="26.865575"><time>1970-01-01T00:00:01.000Z</time></trkpt>
			<trkpt lat="53.619714" lon="26.866030"><time>1970-01-01T00:00:01.000Z</time></trkpt>
			<trkpt lat="53.621389" lon="26.867387"><time>1970-01-01T00:00:01.000Z</time></trkpt>
			<trkpt lat="53.621906" lon="26.867957"><time>1970-01-01T00:00:01.000Z</time></trkpt>
			<trkpt lat="53.625992" lon="26.872884"><time>1970-01-01T00:00:01.000Z</time></trkpt>
			<trkpt lat="53.626369" lon="26.873678"><time>1970-01-01T00:00:01.000Z</time></trkpt>
			<trkpt lat="53.626921" lon="26.876584"><time>1970-01-01T00:00:01.000Z</time></trkpt>
			<trkpt lat="53.627216" lon="26.877587"><time>1970-01-01T00:00:01.000Z</time></trkpt>
			<trkpt lat="53.628550" lon="26.881379"><time>1970-01-01T00:00:01.000Z</time></trkpt>
			<trkpt lat="53.628963" lon="26.882308"><time>1970-01-01T00:00:01.000Z</time></trkpt>
			<trkpt lat="53.629381" lon="26.883067"><time>1970-01-01T00:00:01.000Z</time></trkpt>
			<trkpt lat="53.629841" lon="26.883856"><time>1970-01-01T00:00:01.000Z</time></trkpt>
			<trkpt lat="53.630819" lon="26.885336"><time>1970-01-01T00:00:01.000Z</time></trkpt>
			<trkpt lat="53.633242" lon="26.888769"><time>1970-01-01T00:00:01.000Z</time></trkpt>
			<trkpt lat="53.634079" lon="26.889864"><time>1970-01-01T00:00:01.000Z</time></trkpt>
			<trkpt lat="53.634887" lon="26.890845"><time>1970-01-01T00:00:01.000Z</time></trkpt>
			<trkpt lat="53.636382" lon="26.892830"><time>1970-01-01T00:00:01.000Z</time></trkpt>
			<trkpt lat="53.637207" lon="26.894138"><time>1970-01-01T00:00:01.000Z</time></trkpt>
			<trkpt lat="53.637882" lon="26.895331"><time>1970-01-01T00:00:01.000Z</time></trkpt>
			<trkpt lat="53.638337" lon="26.895924"><time>1970-01-01T00:00:01.000Z</time></trkpt>
			<trkpt lat="53.638974" lon="26.896175"><time>1970-01-01T00:00:01.000Z</time></trkpt>
			<trkpt lat="53.639581" lon="26.895935"><time>1970-01-01T00:00:01.000Z</time></trkpt>
			<trkpt lat="53.639949" lon="26.895462"><time>1970-01-01T00:00:01.000Z</time></trkpt>
			<trkpt lat="53.640042" lon="26.895764"><time>1970-01-01T00:00:01.000Z</time></trkpt>
			<trkpt lat="53.640084" lon="26.896348"><time>1970-01-01T00:00:01.000Z</time></trkpt>
			<trkpt lat="53.639911" lon="26.897101"><time>1970-01-01T00:00:01.000Z</time></trkpt>
			<trkpt lat="53.639283" lon="26.898127"><time>1970-01-01T00:00:01.000Z</time></trkpt>
			<trkpt lat="53.639187" lon="26.898834"><time>1970-01-01T00:00:01.000Z</time></trkpt>
			<trkpt lat="53.639329" lon="26.899554"><time>1970-01-01T00:00:01.000Z</time></trkpt>
			<trkpt lat="53.639974" lon="26.900679"><time>1970-01-01T00:00:01.000Z</time></trkpt>
			<trkpt lat="53.640260" lon="26.901437"><time>1970-01-01T00:00:01.000Z</time></trkpt>
			<trkpt lat="53.640482" lon="26.902247"><time>1970-01-01T00:00:01.000Z</time></trkpt>
			<trkpt lat="53.640608" lon="26.903018"><time>1970-01-01T00:00:01.000Z</time></trkpt>
			<trkpt lat="53.640533" lon="26.904668"><time>1970-01-01T00:00:01.000Z</time></trkpt>
			<trkpt lat="53.640743" lon="26.905063"><time>1970-01-01T00:00:01.000Z</time></trkpt>
			<trkpt lat="53.641120" lon="26.905147"><time>1970-01-01T00:00:01.000Z</time></trkpt>
			<trkpt lat="53.641530" lon="26.904987"><time>1970-01-01T00:00:01.000Z</time></trkpt>
			<trkpt lat="53.641891" lon="26.904981"><time>1970-01-01T00:00:01.000Z</time></trkpt>
			<trkpt lat="53.642226" lon="26.905256"><time>1970-01-01T00:00:01.000Z</time></trkpt>
			<trkpt lat="53.642480" lon="26.905630"><time>1970-01-01T00:00:01.000Z</time></trkpt>
			<trkpt lat="53.642316" lon="26.906347"><time>1970-01-01T00:00:01.000Z</time></trkpt>
			<trkpt lat="53.641720" lon="26.907551"><time>1970-01-01T00:00:01.000Z</time></trkpt>
			<trkpt lat="53.641385" lon="26.908072"><time>1970-01-01T00:00:01.000Z</time></trkpt>
			<trkpt lat="53.640980" lon="26.908512"><time>1970-01-01T00:00:01.000Z</time></trkpt>
			<trkpt lat="53.640643" lon="26.909183"><time>1970-01-01T00:00:01.000Z</time></trkpt>
			<trkpt lat="53.640606" lon="26.909842"><time>1970-01-01T00:00:01.000Z</time></trkpt>
			<trkpt lat="53.640789" lon="26.910470"><time>1970-01-01T00:00:01.000Z</time></trkpt>
			<trkpt lat="53.641406" lon="26.911900"><time>1970-01-01T00:00:01.000Z</time></trkpt>
			<trkpt lat="53.641606" lon="26.912450"><time>1970-01-01T00:00:01.000Z</time></trkpt>
			<trkpt lat="53.641472" lon="26.913203"><time>1970-01-01T00:00:01.000Z</time></trkpt>
			<trkpt lat="53.641354" lon="26.914186"><time>1970-01-01T00:00:01.000Z</time></trkpt>
			<trkpt lat="53.641553" lon="26.916058"><time>1970-01-01T00:00:01.000Z</time></trkpt>
			<trkpt lat="53.641763" lon="26.916940"><time>1970-01-01T00:00:01.000Z</time></trkpt>
			<trkpt lat="53.641663" lon="26.917936"><time>1970-01-01T00:00:01.000Z</time></trkpt>
			<trkpt lat="53.641648" lon="26.918928"><time>1970-01-01T00:00:01.000Z</time></trkpt>
			<trkpt lat="53.641677" lon="26.919769"><time>1970-01-01T00:00:01.000Z</time></trkpt>
			<trkpt lat="53.641271" lon="26.919750"><time>1970-01-01T00:00:01.000Z</time></trkpt>
			<trkpt lat="53.639053" lon="26.919166"><time>1970-01-01T00:00:01.000Z</time></trkpt>
			<trkpt lat="53.638506" lon="26.918987"><time>1970-01-01T00:00:01.000Z</time></trkpt>
			<trkpt lat="53.637898" lon="26.918872"><time>1970-01-01T00:00:01.000Z</time></trkpt>
			<trkpt lat="53.637303" lon="26.918650"><time>1970-01-01T00:00:01.000Z</time></trkpt>
			<trkpt lat="53.636810" lon="26.919108"><time>1970-01-01T00:00:01.000Z</time></trkpt>
			<trkpt lat="53.636674" lon="26.919979"><time>1970-01-01T00:00:01.000Z</time></trkpt>
			<trkpt lat="53.636445" lon="26.924032"><time>1970-01-01T00:00:01.000Z</time></trkpt>
			<trkpt lat="53.636086" lon="26.925893"><time>1970-01-01T00:00:01.000Z</time></trkpt>
			<trkpt lat="53.635647" lon="26.926382"><time>1970-01-01T00:00:01.000Z</time></trkpt>
			<trkpt lat="53.634510" lon="26.926398"><time>1970-01-01T00:00:01.000Z</time></trkpt>
			<trkpt lat="53.634018" lon="26.926302"><time>1970-01-01T00:00:01.000Z</time></trkpt>
			<trkpt lat="53.633140" lon="26.926278"><time>1970-01-01T00:00:01.000Z</time></trkpt>
			<trkpt lat="53.632228" lon="26.926328"><time>1970-01-01T00:00:01.000Z</time></trkpt>
			<trkpt lat="53.631806" lon="26.926330"><time>1970-01-01T00:00:01.000Z</time></trkpt>
			<trkpt lat="53.631473" lon="26.926290"><time>1970-01-01T00:00:01.000Z</time></trkpt>
			<trkpt lat="53.631392" lon="26.925950"><time>1970-01-01T00:00:01.000Z</time></trkpt>
			<trkpt lat="53.631482" lon="26.923829"><time>1970-01-01T00:00:01.000Z</time></trkpt>
			<trkpt lat="53.631460" lon="26.923064"><time>1970-01-01T00:00:01.000Z</time></trkpt>
			<trkpt lat="53.631580" lon="26.920010"><time>1970-01-01T00:00:01.000Z</time></trkpt>
			<trkpt lat="53.631563" lon="26.919308"><time>1970-01-01T00:00:01.000Z</time></trkpt>
			<trkpt lat="53.631602" lon="26.918486"><time>1970-01-01T00:00:01.000Z</time></trkpt>
			<trkpt lat="53.631855" lon="26.916883"><time>1970-01-01T00:00:01.000Z</time></trkpt>
			<trkpt lat="53.632030" lon="26.916121"><time>1970-01-01T00:00:01.000Z</time></trkpt>
			<trkpt lat="53.632754" lon="26.913622"><time>1970-01-01T00:00:01.000Z</time></trkpt>
			<trkpt lat="53.632919" lon="26.912827"><time>1970-01-01T00:00:01.000Z</time></trkpt>
			<trkpt lat="53.633299" lon="26.910239"><time>1970-01-01T00:00:01.000Z</time></trkpt>
			<trkpt lat="53.633366" lon="26.909439"><time>1970-01-01T00:00:01.000Z</time></trkpt>
			<trkpt lat="53.633352" lon="26.908780"><time>1970-01-01T00:00:01.000Z</time></trkpt>
			<trkpt lat="53.633252" lon="26.908255"><time>1970-01-01T00:00:01.000Z</time></trkpt>
			<trkpt lat="53.633208" lon="26.908386"><time>1970-01-01T00:00:01.000Z</time></trkpt>
			<trkpt lat="53.633153" lon="26.908362"><time>1970-01-01T00:00:01.000Z</time></trkpt>
			<trkpt lat="53.633120" lon="26.908431"><time>1970-01-01T00:00:01.000Z</time></trkpt>
			<trkpt lat="53.633076" lon="26.908740"><time>1970-01-01T00:00:01.000Z</time></trkpt>
			<trkpt lat="53.632864" lon="26.908996"><time>1970-01-01T00:00:01.000Z</time></trkpt>
			<trkpt lat="53.632739" lon="26.909053"><time>1970-01-01T00:00:01.000Z</time></trkpt>
			<trkpt lat="53.632720" lon="26.909191"><time>1970-01-01T00:00:01.000Z</time></trkpt>
			<trkpt lat="53.632857" lon="26.909584"><time>1970-01-01T00:00:01.000Z</time></trkpt>
			<trkpt lat="53.632850" lon="26.909755"><time>1970-01-01T00:00:01.000Z</time></trkpt>
			<trkpt lat="53.632778" lon="26.909742"><time>1970-01-01T00:00:01.000Z</time></trkpt>
			<trkpt lat="53.632795" lon="26.909814"><time>1970-01-01T00:00:01.000Z</time></trkpt>
			<trkpt lat="53.632877" lon="26.909821"><time>1970-01-01T00:00:01.000Z</time></trkpt>
			<trkpt lat="53.632906" lon="26.909737"><time>1970-01-01T00:00:01.000Z</time></trkpt>
			<trkpt lat="53.632821" lon="26.909571"><time>1970-01-01T00:00:01.000Z</time></trkpt>
			<trkpt lat="53.632877" lon="26.909705"><time>1970-01-01T00:00:01.000Z</time></trkpt>
			<trkpt lat="53.632872" lon="26.909641"><time>1970-01-01T00:00:01.000Z</time></trkpt>
			<trkpt lat="53.632841" lon="26.909623"><time>1970-01-01T00:00:01.000Z</time></trkpt>
			<trkpt lat="53.632873" lon="26.909725"><time>1970-01-01T00:00:01.000Z</time></trkpt>
			<trkpt lat="53.632896" lon="26.909695"><time>1970-01-01T00:00:01.000Z</time></trkpt>
			<trkpt lat="53.632835" lon="26.909605"><time>1970-01-01T00:00:01.000Z</time></trkpt>
			<trkpt lat="53.632854" lon="26.909529"><time>1970-01-01T00:00:01.000Z</time></trkpt>
			<trkpt lat="53.632998" lon="26.909193"><time>1970-01-01T00:00:01.000Z</time></trkpt>
			<trkpt lat="53.633082" lon="26.908863"><time>1970-01-01T00:00:01.000Z</time></trkpt>
			<trkpt lat="53.633145" lon="26.908793"><time>1970-01-01T00:00:01.000Z</time></trkpt>
			<trkpt lat="53.633200" lon="26.908482"><time>1970-01-01T00:00:01.000Z</time></trkpt>
			<trkpt lat="53.633161" lon="26.908392"><time>1970-01-01T00:00:01.000Z</time></trkpt>
			<trkpt lat="53.633174" lon="26.908325"><time>1970-01-01T00:00:01.000Z</time></trkpt>
			<trkpt lat="53.633308" lon="26.908287"><time>1970-01-01T00:00:01.000Z</time></trkpt>
			<trkpt lat="53.633338" lon="26.908410"><time>1970-01-01T00:00:01.000Z</time></trkpt>
			<trkpt lat="53.633315" lon="26.909891"><time>1970-01-01T00:00:01.000Z</time></trkpt>
			<trkpt lat="53.632855" lon="26.913127"><time>1970-01-01T00:00:01.000Z</time></trkpt>
			<trkpt lat="53.632669" lon="26.913959"><time>1970-01-01T00:00:01.000Z</time></trkpt>
			<trkpt lat="53.632446" lon="26.914765"><time>1970-01-01T00:00:01.000Z</time></trkpt>
			<trkpt lat="53.632236" lon="26.915364"><time>1970-01-01T00:00:01.000Z</time></trkpt>
			<trkpt lat="53.631774" lon="26.917094"><time>1970-01-01T00:00:01.000Z</time></trkpt>
			<trkpt lat="53.631543" lon="26.918892"><time>1970-01-01T00:00:01.000Z</time></trkpt>
			<trkpt lat="53.631436" lon="26.924770"><time>1970-01-01T00:00:01.000Z</time></trkpt>
			<trkpt lat="53.631191" lon="26.931056"><time>1970-01-01T00:00:01.000Z</time></trkpt>
			<trkpt lat="53.631042" lon="26.933237"><time>1970-01-01T00:00:01.000Z</time></trkpt>
			<trkpt lat="53.631048" lon="26.935415"><time>1970-01-01T00:00:01.000Z</time></trkpt>
			<trkpt lat="53.630959" lon="26.936409"><time>1970-01-01T00:00:01.000Z</time></trkpt>
			<trkpt lat="53.631067" lon="26.937182"><time>1970-01-01T00:00:01.000Z</time></trkpt>
			<trkpt lat="53.631529" lon="26.937988"><time>1970-01-01T00:00:01.000Z</time></trkpt>
			<trkpt lat="53.631827" lon="26.938993"><time>1970-01-01T00:00:01.000Z</time></trkpt>
			<trkpt lat="53.632122" lon="26.941196"><time>1970-01-01T00:00:01.000Z</time></trkpt>
			<trkpt lat="53.632456" lon="26.943207"><time>1970-01-01T00:00:01.000Z</time></trkpt>
			<trkpt lat="53.632639" lon="26.944587"><time>1970-01-01T00:00:01.000Z</time></trkpt>
			<trkpt lat="53.632743" lon="26.945606"><time>1970-01-01T00:00:01.000Z</time></trkpt>
			<trkpt lat="53.632704" lon="26.946550"><time>1970-01-01T00:00:01.000Z</time></trkpt>
			<trkpt lat="53.632488" lon="26.947380"><time>1970-01-01T00:00:01.000Z</time></trkpt>
			<trkpt lat="53.632261" lon="26.947958"><time>1970-01-01T00:00:01.000Z</time></trkpt>
			<trkpt lat="53.632013" lon="26.948403"><time>1970-01-01T00:00:01.000Z</time></trkpt>
			<trkpt lat="53.631877" lon="26.948848"><time>1970-01-01T00:00:01.000Z</time></trkpt>
			<trkpt lat="53.631453" lon="26.950688"><time>1970-01-01T00:00:01.000Z</time></trkpt>
			<trkpt lat="53.631103" lon="26.951692"><time>1970-01-01T00:00:01.000Z</time></trkpt>
			<trkpt lat="53.630864" lon="26.952178"><time>1970-01-01T00:00:01.000Z</time></trkpt>
			<trkpt lat="53.630734" lon="26.952812"><time>1970-01-01T00:00:01.000Z</time></trkpt>
			<trkpt lat="53.630784" lon="26.953417"><time>1970-01-01T00:00:01.000Z</time></trkpt>
			<trkpt lat="53.630933" lon="26.954182"><time>1970-01-01T00:00:01.000Z</time></trkpt>
			<trkpt lat="53.630782" lon="26.954740"><time>1970-01-01T00:00:01.000Z</time></trkpt>
			<trkpt lat="53.630541" lon="26.954899"><time>1970-01-01T00:00:01.000Z</time></trkpt>
			<trkpt lat="53.630310" lon="26.954980"><time>1970-01-01T00:00:01.000Z</time></trkpt>
			<trkpt lat="53.630122" lon="26.955213"><time>1970-01-01T00:00:01.000Z</time></trkpt>
			<trkpt lat="53.630015" lon="26.955619"><time>1970-01-01T00:00:01.000Z</time></trkpt>
			<trkpt lat="53.629779" lon="26.955826"><time>1970-01-01T00:00:01.000Z</time></trkpt>
			<trkpt lat="53.629536" lon="26.955960"><time>1970-01-01T00:00:01.000Z</time></trkpt>
			<trkpt lat="53.629470" lon="26.956195"><time>1970-01-01T00:00:01.000Z</time></trkpt>
			<trkpt lat="53.629329" lon="26.956431"><time>1970-01-01T00:00:01.000Z</time></trkpt>
			<trkpt lat="53.628970" lon="26.956653"><time>1970-01-01T00:00:01.000Z</time></trkpt>
			<trkpt lat="53.628751" lon="26.956721"><time>1970-01-01T00:00:01.000Z</time></trkpt>
			<trkpt lat="53.628489" lon="26.956738"><time>1970-01-01T00:00:01.000Z</time></trkpt>
			<trkpt lat="53.627957" lon="26.956920"><time>1970-01-01T00:00:01.000Z</time></trkpt>
			<trkpt lat="53.627528" lon="26.957271"><time>1970-01-01T00:00:01.000Z</time></trkpt>
			<trkpt lat="53.627446" lon="26.957381"><time>1970-01-01T00:00:01.000Z</time></trkpt>
			<trkpt lat="53.627392" lon="26.957314"><time>1970-01-01T00:00:01.000Z</time></trkpt>
			<trkpt lat="53.627455" lon="26.957067"><time>1970-01-01T00:00:01.000Z</time></trkpt>
			<trkpt lat="53.627325" lon="26.956937"><time>1970-01-01T00:00:01.000Z</time></trkpt>
			<trkpt lat="53.627245" lon="26.957472"><time>1970-01-01T00:00:01.000Z</time></trkpt>
			<trkpt lat="53.627276" lon="26.957502"><time>1970-01-01T00:00:01.000Z</time></trkpt>
			<trkpt lat="53.627235" lon="26.957491"><time>1970-01-01T00:00:01.000Z</time></trkpt>
			<trkpt lat="53.627108" lon="26.957622"><time>1970-01-01T00:00:01.000Z</time></trkpt>
			<trkpt lat="53.626402" lon="26.957937"><time>1970-01-01T00:00:01.000Z</time></trkpt>
			<trkpt lat="53.626145" lon="26.958330"><time>1970-01-01T00:00:01.000Z</time></trkpt>
			<trkpt lat="53.626217" lon="26.958858"><time>1970-01-01T00:00:01.000Z</time></trkpt>
			<trkpt lat="53.625380" lon="26.959225"><time>1970-01-01T00:00:01.000Z</time></trkpt>
			<trkpt lat="53.625137" lon="26.959387"><time>1970-01-01T00:00:01.000Z</time></trkpt>
			<trkpt lat="53.625063" lon="26.959340"><time>1970-01-01T00:00:01.000Z</time></trkpt>
			<trkpt lat="53.624974" lon="26.959735"><time>1970-01-01T00:00:01.000Z</time></trkpt>
			<trkpt lat="53.624884" lon="26.960473"><time>1970-01-01T00:00:01.000Z</time></trkpt>
			<trkpt lat="53.624851" lon="26.961252"><time>1970-01-01T00:00:01.000Z</time></trkpt>
			<trkpt lat="53.624836" lon="26.962831"><time>1970-01-01T00:00:01.000Z</time></trkpt>
			<trkpt lat="53.624900" lon="26.965724"><time>1970-01-01T00:00:01.000Z</time></trkpt>
			<trkpt lat="53.624812" lon="26.966746"><time>1970-01-01T00:00:01.000Z</time></trkpt>
			<trkpt lat="53.624661" lon="26.967734"><time>1970-01-01T00:00:01.000Z</time></trkpt>
			<trkpt lat="53.624437" lon="26.968515"><time>1970-01-01T00:00:01.000Z</time></trkpt>
			<trkpt lat="53.623898" lon="26.969839"><time>1970-01-01T00:00:01.000Z</time></trkpt>
			<trkpt lat="53.623658" lon="26.970518"><time>1970-01-01T00:00:01.000Z</time></trkpt>
			<trkpt lat="53.623218" lon="26.972059"><time>1970-01-01T00:00:01.000Z</time></trkpt>
			<trkpt lat="53.622958" lon="26.972827"><time>1970-01-01T00:00:01.000Z</time></trkpt>
			<trkpt lat="53.621444" lon="26.975922"><time>1970-01-01T00:00:01.000Z</time></trkpt>
			<trkpt lat="53.620967" lon="26.976442"><time>1970-01-01T00:00:01.000Z</time></trkpt>
			<trkpt lat="53.620333" lon="26.976853"><time>1970-01-01T00:00:01.000Z</time></trkpt>
			<trkpt lat="53.619732" lon="26.977329"><time>1970-01-01T00:00:01.000Z</time></trkpt>
			<trkpt lat="53.619216" lon="26.977888"><time>1970-01-01T00:00:01.000Z</time></trkpt>
			<trkpt lat="53.618782" lon="26.978712"><time>1970-01-01T00:00:01.000Z</time></trkpt>
			<trkpt lat="53.618395" lon="26.979674"><time>1970-01-01T00:00:01.000Z</time></trkpt>
			<trkpt lat="53.617968" lon="26.980122"><time>1970-01-01T00:00:01.000Z</time></trkpt>
			<trkpt lat="53.617396" lon="26.980481"><time>1970-01-01T00:00:01.000Z</time></trkpt>
			<trkpt lat="53.616746" lon="26.980803"><time>1970-01-01T00:00:01.000Z</time></trkpt>
			<trkpt lat="53.616183" lon="26.981006"><time>1970-01-01T00:00:01.000Z</time></trkpt>
			<trkpt lat="53.615622" lon="26.980979"><time>1970-01-01T00:00:01.000Z</time></trkpt>
			<trkpt lat="53.615019" lon="26.981013"><time>1970-01-01T00:00:01.000Z</time></trkpt>
			<trkpt lat="53.613371" lon="26.982039"><time>1970-01-01T00:00:01.000Z</time></trkpt>
			<trkpt lat="53.612963" lon="26.982355"><time>1970-01-01T00:00:01.000Z</time></trkpt>
			<trkpt lat="53.612229" lon="26.982765"><time>1970-01-01T00:00:01.000Z</time></trkpt>
			<trkpt lat="53.611568" lon="26.983214"><time>1970-01-01T00:00:01.000Z</time></trkpt>
			<trkpt lat="53.611484" lon="26.983828"><time>1970-01-01T00:00:01.000Z</time></trkpt>
			<trkpt lat="53.611174" lon="26.984140"><time>1970-01-01T00:00:01.000Z</time></trkpt>
			<trkpt lat="53.610637" lon="26.984590"><time>1970-01-01T00:00:01.000Z</time></trkpt>
			<trkpt lat="53.610698" lon="26.985241"><time>1970-01-01T00:00:01.000Z</time></trkpt>
			<trkpt lat="53.610702" lon="26.986685"><time>1970-01-01T00:00:01.000Z</time></trkpt>
			<trkpt lat="53.610782" lon="26.987772"><time>1970-01-01T00:00:01.000Z</time></trkpt>
			<trkpt lat="53.610754" lon="26.989106"><time>1970-01-01T00:00:01.000Z</time></trkpt>
			<trkpt lat="53.610588" lon="26.989089"><time>1970-01-01T00:00:01.000Z</time></trkpt>
			<trkpt lat="53.610651" lon="26.989094"><time>1970-01-01T00:00:01.000Z</time></trkpt>
			<trkpt lat="53.610803" lon="26.987090"><time>1970-01-01T00:00:01.000Z</time></trkpt>
			<trkpt lat="53.610732" lon="26.986874"><time>1970-01-01T00:00:01.000Z</time></trkpt>
			<trkpt lat="53.610666" lon="26.986241"><time>1970-01-01T00:00:01.000Z</time></trkpt>
			<trkpt lat="53.610650" lon="26.985699"><time>1970-01-01T00:00:01.000Z</time></trkpt>
			<trkpt lat="53.610696" lon="26.984607"><time>1970-01-01T00:00:01.000Z</time></trkpt>
			<trkpt lat="53.610656" lon="26.984500"><time>1970-01-01T00:00:01.000Z</time></trkpt>
			<trkpt lat="53.610645" lon="26.984528"><time>1970-01-01T00:00:01.000Z</time></trkpt>
			<trkpt lat="53.610759" lon="26.985059"><time>1970-01-01T00:00:01.000Z</time></trkpt>
			<trkpt lat="53.610774" lon="26.985472"><time>1970-01-01T00:00:01.000Z</time></trkpt>
			<trkpt lat="53.610824" lon="26.985617"><time>1970-01-01T00:00:01.000Z</time></trkpt>
			<trkpt lat="53.610900" lon="26.986407"><time>1970-01-01T00:00:01.000Z</time></trkpt>
			<trkpt lat="53.610827" lon="26.986836"><time>1970-01-01T00:00:01.000Z</time></trkpt>
			<trkpt lat="53.610649" lon="26.987162"><time>1970-01-01T00:00:01.000Z</time></trkpt>
			<trkpt lat="53.610712" lon="26.987111"><time>1970-01-01T00:00:01.000Z</time></trkpt>
			<trkpt lat="53.610705" lon="26.987057"><time>1970-01-01T00:00:01.000Z</time></trkpt>
			<trkpt lat="53.610716" lon="26.987130"><time>1970-01-01T00:00:01.000Z</time></trkpt>
			<trkpt lat="53.610544" lon="26.987189"><time>1970-01-01T00:00:01.000Z</time></trkpt>
			<trkpt lat="53.610625" lon="26.987164"><time>1970-01-01T00:00:01.000Z</time></trkpt>
			<trkpt lat="53.610700" lon="26.987056"><time>1970-01-01T00:00:01.000Z</time></trkpt>
			<trkpt lat="53.610765" lon="26.987606"><time>1970-01-01T00:00:01.000Z</time></trkpt>
			<trkpt lat="53.610734" lon="26.987488"><time>1970-01-01T00:00:01.000Z</time></trkpt>
			<trkpt lat="53.610761" lon="26.987288"><time>1970-01-01T00:00:01.000Z</time></trkpt>
			<trkpt lat="53.610721" lon="26.987126"><time>1970-01-01T00:00:01.000Z</time></trkpt>
			<trkpt lat="53.610772" lon="26.987201"><time>1970-01-01T00:00:01.000Z</time></trkpt>
			<trkpt lat="53.610782" lon="26.987854"><time>1970-01-01T00:00:01.000Z</time></trkpt>
			<trkpt lat="53.610869" lon="26.988629"><time>1970-01-01T00:00:01.000Z</time></trkpt>
			<trkpt lat="53.610837" lon="26.988832"><time>1970-01-01T00:00:01.000Z</time></trkpt>
			<trkpt lat="53.610687" lon="26.988951"><time>1970-01-01T00:00:01.000Z</time></trkpt>
			<trkpt lat="53.610549" lon="26.989150"><time>1970-01-01T00:00:01.000Z</time></trkpt>
			<trkpt lat="53.610601" lon="26.989150"><time>1970-01-01T00:00:01.000Z</time></trkpt>
			<trkpt lat="53.610555" lon="26.989158"><time>1970-01-01T00:00:01.000Z</time></trkpt>
			<trkpt lat="53.610588" lon="26.989123"><time>1970-01-01T00:00:01.000Z</time></trkpt>
			<trkpt lat="53.610615" lon="26.989156"><time>1970-01-01T00:00:01.000Z</time></trkpt>
			<trkpt lat="53.610568" lon="26.989136"><time>1970-01-01T00:00:01.000Z</time></trkpt>
			<trkpt lat="53.610617" lon="26.989112"><time>1970-01-01T00:00:01.000Z</time></trkpt>
			<trkpt lat="53.610587" lon="26.989139"><time>1970-01-01T00:00:01.000Z</time></trkpt>
			<trkpt lat="53.610513" lon="26.989057"><time>1970-01-01T00:00:01.000Z</time></trkpt>
			<trkpt lat="53.610745" lon="26.988849"><time>1970-01-01T00:00:01.000Z</time></trkpt>
			<trkpt lat="53.610819" lon="26.989131"><time>1970-01-01T00:00:01.000Z</time></trkpt>
			<trkpt lat="53.610669" lon="26.989219"><time>1970-01-01T00:00:01.000Z</time></trkpt>
			<trkpt lat="53.610662" lon="26.989092"><time>1970-01-01T00:00:01.000Z</time></trkpt>
			<trkpt lat="53.610583" lon="26.989129"><time>1970-01-01T00:00:01.000Z</time></trkpt>
			<trkpt lat="53.610643" lon="26.989288"><time>1970-01-01T00:00:01.000Z</time></trkpt>
			<trkpt lat="53.610547" lon="26.989194"><time>1970-01-01T00:00:01.000Z</time></trkpt>
			<trkpt lat="53.610597" lon="26.989152"><time>1970-01-01T00:00:01.000Z</time></trkpt>
			<trkpt lat="53.610589" lon="26.989173"><time>1970-01-01T00:00:01.000Z</time></trkpt>
			<trkpt lat="53.610586" lon="26.989127"><time>1970-01-01T00:00:01.000Z</time></trkpt>
			<trkpt lat="53.610596" lon="26.989174"><time>1970-01-01T00:00:01.000Z</time></trkpt>
			<trkpt lat="53.610576" lon="26.989125"><time>1970-01-01T00:00:01.000Z</time></trkpt>
			<trkpt lat="53.610565" lon="26.989187"><time>1970-01-01T00:00:01.000Z</time></trkpt>
			<trkpt lat="53.610580" lon="26.989117"><time>1970-01-01T00:00:01.000Z</time></trkpt>
			<trkpt lat="53.610574" lon="26.989201"><time>1970-01-01T00:00:01.000Z</time></trkpt>
			<trkpt lat="53.610589" lon="26.989153"><time>1970-01-01T00:00:01.000Z</time></trkpt>
			<trkpt lat="53.610547" lon="26.989186"><time>1970-01-01T00:00:01.000Z</time></trkpt>
			<trkpt lat="53.610554" lon="26.989470"><time>1970-01-01T00:00:01.000Z</time></trkpt>
			<trkpt lat="53.610472" lon="26.989610"><time>1970-01-01T00:00:01.000Z</time></trkpt>
			<trkpt lat="53.610604" lon="26.989106"><time>1970-01-01T00:00:01.000Z</time></trkpt>
			<trkpt lat="53.610584" lon="26.989180"><time>1970-01-01T00:00:01.000Z</time></trkpt>
			<trkpt lat="53.610533" lon="26.989221"><time>1970-01-01T00:00:01.000Z</time></trkpt>
			<trkpt lat="53.610468" lon="26.989648"><time>1970-01-01T00:00:01.000Z</time></trkpt>
			<trkpt lat="53.610503" lon="26.989574"><time>1970-01-01T00:00:01.000Z</time></trkpt>
			<trkpt lat="53.610423" lon="26.989685"><time>1970-01-01T00:00:01.000Z</time></trkpt>
			<trkpt lat="53.610455" lon="26.989859"><time>1970-01-01T00:00:01.000Z</time></trkpt>
			<trkpt lat="53.610516" lon="26.989719"><time>1970-01-01T00:00:01.000Z</time></trkpt>
			<trkpt lat="53.610619" lon="26.989259"><time>1970-01-01T00:00:01.000Z</time></trkpt>
			<trkpt lat="53.610581" lon="26.989132"><time>1970-01-01T00:00:01.000Z</time></trkpt>
			<trkpt lat="53.610555" lon="26.989128"><time>1970-01-01T00:00:01.000Z</time></trkpt>
			<trkpt lat="53.610580" lon="26.989145"><time>1970-01-01T00:00:01.000Z</time></trkpt>
			<trkpt lat="53.610591" lon="26.989117"><time>1970-01-01T00:00:01.000Z</time></trkpt>
			<trkpt lat="53.610582" lon="26.989165"><time>1970-01-01T00:00:01.000Z</time></trkpt>
			<trkpt lat="53.610703" lon="26.989090"><time>1970-01-01T00:00:01.000Z</time></trkpt>
			<trkpt lat="53.610741" lon="26.988503"><time>1970-01-01T00:00:01.000Z</time></trkpt>
			<trkpt lat="53.610738" lon="26.987082"><time>1970-01-01T00:00:01.000Z</time></trkpt>
			<trkpt lat="53.610621" lon="26.985025"><time>1970-01-01T00:00:01.000Z</time></trkpt>
			<trkpt lat="53.610660" lon="26.984627"><time>1970-01-01T00:00:01.000Z</time></trkpt>
			<trkpt lat="53.610595" lon="26.983779"><time>1970-01-01T00:00:01.000Z</time></trkpt>
			<trkpt lat="53.610593" lon="26.982037"><time>1970-01-01T00:00:01.000Z</time></trkpt>
			<trkpt lat="53.610463" lon="26.977128"><time>1970-01-01T00:00:01.000Z</time></trkpt>
			<trkpt lat="53.610477" lon="26.976387"><time>1970-01-01T00:00:01.000Z</time></trkpt>
			<trkpt lat="53.610372" lon="26.974324"><time>1970-01-01T00:00:01.000Z</time></trkpt>
			<trkpt lat="53.610359" lon="26.972082"><time>1970-01-01T00:00:01.000Z</time></trkpt>
			<trkpt lat="53.610278" lon="26.971167"><time>1970-01-01T00:00:01.000Z</time></trkpt>
			<trkpt lat="53.610247" lon="26.968954"><time>1970-01-01T00:00:01.000Z</time></trkpt>
			<trkpt lat="53.610168" lon="26.968104"><time>1970-01-01T00:00:01.000Z</time></trkpt>
			<trkpt lat="53.610084" lon="26.967693"><time>1970-01-01T00:00:01.000Z</time></trkpt>
			<trkpt lat="53.610038" lon="26.966783"><time>1970-01-01T00:00:01.000Z</time></trkpt>
			<trkpt lat="53.609917" lon="26.966212"><time>1970-01-01T00:00:01.000Z</time></trkpt>
			<trkpt lat="53.609771" lon="26.964068"><time>1970-01-01T00:00:01.000Z</time></trkpt>
			<trkpt lat="53.609824" lon="26.963579"><time>1970-01-01T00:00:01.000Z</time></trkpt>
			<trkpt lat="53.609533" lon="26.960524"><time>1970-01-01T00:00:01.000Z</time></trkpt>
			<trkpt lat="53.609420" lon="26.958800"><time>1970-01-01T00:00:01.000Z</time></trkpt>
			<trkpt lat="53.609405" lon="26.957588"><time>1970-01-01T00:00:01.000Z</time></trkpt>
			<trkpt lat="53.609427" lon="26.957573"><time>1970-01-01T00:00:01.000Z</time></trkpt>
			<trkpt lat="53.609302" lon="26.956438"><time>1970-01-01T00:00:01.000Z</time></trkpt>
			<trkpt lat="53.609291" lon="26.955789"><time>1970-01-01T00:00:01.000Z</time></trkpt>
			<trkpt lat="53.609114" lon="26.954405"><time>1970-01-01T00:00:01.000Z</time></trkpt>
			<trkpt lat="53.609036" lon="26.953050"><time>1970-01-01T00:00:01.000Z</time></trkpt>
			<trkpt lat="53.608818" lon="26.950945"><time>1970-01-01T00:00:01.000Z</time></trkpt>
			<trkpt lat="53.608531" lon="26.950846"><time>1970-01-01T00:00:01.000Z</time></trkpt>
			<trkpt lat="53.607645" lon="26.950951"><time>1970-01-01T00:00:01.000Z</time></trkpt>
			<trkpt lat="53.607094" lon="26.950966"><time>1970-01-01T00:00:01.000Z</time></trkpt>
			<trkpt lat="53.606119" lon="26.951059"><time>1970-01-01T00:00:01.000Z</time></trkpt>
			<trkpt lat="53.605380" lon="26.951075"><time>1970-01-01T00:00:01.000Z</time></trkpt>
			<trkpt lat="53.605326" lon="26.951065"><time>1970-01-01T00:00:01.000Z</time></trkpt>
			<trkpt lat="53.605281" lon="26.950974"><time>1970-01-01T00:00:01.000Z</time></trkpt>
			<trkpt lat="53.605219" lon="26.951060"><time>1970-01-01T00:00:01.000Z</time></trkpt>
			<trkpt lat="53.605018" lon="26.951125"><time>1970-01-01T00:00:01.000Z</time></trkpt>
			<trkpt lat="53.603604" lon="26.951241"><time>1970-01-01T00:00:01.000Z</time></trkpt>
			<trkpt lat="53.603558" lon="26.951421"><time>1970-01-01T00:00:01.000Z</time></trkpt>
			<trkpt lat="53.603433" lon="26.951499"><time>1970-01-01T00:00:01.000Z</time></trkpt>
			<trkpt lat="53.603431" lon="26.951467"><time>1970-01-01T00:00:01.000Z</time></trkpt>
			<trkpt lat="53.603402" lon="26.951483"><time>1970-01-01T00:00:01.000Z</time></trkpt>
			<trkpt lat="53.603357" lon="26.951616"><time>1970-01-01T00:00:01.000Z</time></trkpt>
			<trkpt lat="53.603362" lon="26.951736"><time>1970-01-01T00:00:01.000Z</time></trkpt>
			<trkpt lat="53.603371" lon="26.951686"><time>1970-01-01T00:00:01.000Z</time></trkpt>
			<trkpt lat="53.603423" lon="26.951771"><time>1970-01-01T00:00:01.000Z</time></trkpt>
			<trkpt lat="53.603383" lon="26.951829"><time>1970-01-01T00:00:01.000Z</time></trkpt>
			<trkpt lat="53.603355" lon="26.951739"><time>1970-01-01T00:00:01.000Z</time></trkpt>
			<trkpt lat="53.603345" lon="26.951777"><time>1970-01-01T00:00:01.000Z</time></trkpt>
			<trkpt lat="53.603378" lon="26.951812"><time>1970-01-01T00:00:01.000Z</time></trkpt>
			<trkpt lat="53.603448" lon="26.952154"><time>1970-01-01T00:00:01.000Z</time></trkpt>
			<trkpt lat="53.603338" lon="26.951936"><time>1970-01-01T00:00:01.000Z</time></trkpt>
			<trkpt lat="53.603319" lon="26.951800"><time>1970-01-01T00:00:01.000Z</time></trkpt>
			<trkpt lat="53.603397" lon="26.951574"><time>1970-01-01T00:00:01.000Z</time></trkpt>
			<trkpt lat="53.603460" lon="26.951493"><time>1970-01-01T00:00:01.000Z</time></trkpt>
			<trkpt lat="53.603508" lon="26.951486"><time>1970-01-01T00:00:01.000Z</time></trkpt>
			<trkpt lat="53.603501" lon="26.951601"><time>1970-01-01T00:00:01.000Z</time></trkpt>
			<trkpt lat="53.603536" lon="26.951640"><time>1970-01-01T00:00:01.000Z</time></trkpt>
			<trkpt lat="53.603493" lon="26.951540"><time>1970-01-01T00:00:01.000Z</time></trkpt>
			<trkpt lat="53.603510" lon="26.951474"><time>1970-01-01T00:00:01.000Z</time></trkpt>
			<trkpt lat="53.603454" lon="26.951401"><time>1970-01-01T00:00:01.000Z</time></trkpt>
			<trkpt lat="53.603409" lon="26.951414"><time>1970-01-01T00:00:01.000Z</time></trkpt>
			<trkpt lat="53.603396" lon="26.951166"><time>1970-01-01T00:00:01.000Z</time></trkpt>
			<trkpt lat="53.603387" lon="26.951213"><time>1970-01-01T00:00:01.000Z</time></trkpt>
			<trkpt lat="53.603209" lon="26.951259"><time>1970-01-01T00:00:01.000Z</time></trkpt>
			<trkpt lat="53.602656" lon="26.951333"><time>1970-01-01T00:00:01.000Z</time></trkpt>
			<trkpt lat="53.602105" lon="26.951313"><time>1970-01-01T00:00:01.000Z</time></trkpt>
			<trkpt lat="53.601652" lon="26.951420"><time>1970-01-01T00:00:01.000Z</time></trkpt>
			<trkpt lat="53.601757" lon="26.952853"><time>1970-01-01T00:00:01.000Z</time></trkpt>
			<trkpt lat="53.601750" lon="26.954442"><time>1970-01-01T00:00:01.000Z</time></trkpt>
			<trkpt lat="53.601821" lon="26.956413"><time>1970-01-01T00:00:01.000Z</time></trkpt>
			<trkpt lat="53.601820" lon="26.958364"><time>1970-01-01T00:00:01.000Z</time></trkpt>
			<trkpt lat="53.601881" lon="26.959287"><time>1970-01-01T00:00:01.000Z</time></trkpt>
			<trkpt lat="53.601949" lon="26.963354"><time>1970-01-01T00:00:01.000Z</time></trkpt>
			<trkpt lat="53.602023" lon="26.964373"><time>1970-01-01T00:00:01.000Z</time></trkpt>
			<trkpt lat="53.602017" lon="26.965344"><time>1970-01-01T00:00:01.000Z</time></trkpt>
			<trkpt lat="53.602080" lon="26.967291"><time>1970-01-01T00:00:01.000Z</time></trkpt>
			<trkpt lat="53.602208" lon="26.968020"><time>1970-01-01T00:00:01.000Z</time></trkpt>
			<trkpt lat="53.602352" lon="26.970686"><time>1970-01-01T00:00:01.000Z</time></trkpt>
			<trkpt lat="53.602325" lon="26.971608"><time>1970-01-01T00:00:01.000Z</time></trkpt>
			<trkpt lat="53.602437" lon="26.973480"><time>1970-01-01T00:00:01.000Z</time></trkpt>
			<trkpt lat="53.602409" lon="26.974414"><time>1970-01-01T00:00:01.000Z</time></trkpt>
			<trkpt lat="53.602122" lon="26.975360"><time>1970-01-01T00:00:01.000Z</time></trkpt>
			<trkpt lat="53.601782" lon="26.976126"><time>1970-01-01T00:00:01.000Z</time></trkpt>
			<trkpt lat="53.601409" lon="26.976734"><time>1970-01-01T00:00:01.000Z</time></trkpt>
			<trkpt lat="53.601170" lon="26.977479"><time>1970-01-01T00:00:01.000Z</time></trkpt>
			<trkpt lat="53.600831" lon="26.979342"><time>1970-01-01T00:00:01.000Z</time></trkpt>
			<trkpt lat="53.600477" lon="26.980950"><time>1970-01-01T00:00:01.000Z</time></trkpt>
			<trkpt lat="53.600159" lon="26.982706"><time>1970-01-01T00:00:01.000Z</time></trkpt>
			<trkpt lat="53.599482" lon="26.985965"><time>1970-01-01T00:00:01.000Z</time></trkpt>
			<trkpt lat="53.599372" lon="26.986775"><time>1970-01-01T00:00:01.000Z</time></trkpt>
			<trkpt lat="53.599058" lon="26.988476"><time>1970-01-01T00:00:01.000Z</time></trkpt>
			<trkpt lat="53.598711" lon="26.990056"><time>1970-01-01T00:00:01.000Z</time></trkpt>
			<trkpt lat="53.598092" lon="26.993347"><time>1970-01-01T00:00:01.000Z</time></trkpt>
			<trkpt lat="53.597570" lon="26.995884"><time>1970-01-01T00:00:01.000Z</time></trkpt>
			<trkpt lat="53.597539" lon="26.996789"><time>1970-01-01T00:00:01.000Z</time></trkpt>
			<trkpt lat="53.597638" lon="26.997542"><time>1970-01-01T00:00:01.000Z</time></trkpt>
			<trkpt lat="53.597816" lon="26.998348"><time>1970-01-01T00:00:01.000Z</time></trkpt>
			<trkpt lat="53.597896" lon="26.999066"><time>1970-01-01T00:00:01.000Z</time></trkpt>
			<trkpt lat="53.596555" lon="27.001039"><time>1970-01-01T00:00:01.000Z</time></trkpt>
			<trkpt lat="53.595752" lon="27.002350"><time>1970-01-01T00:00:01.000Z</time></trkpt>
			<trkpt lat="53.595727" lon="27.003182"><time>1970-01-01T00:00:01.000Z</time></trkpt>
			<trkpt lat="53.597272" lon="27.010431"><time>1970-01-01T00:00:01.000Z</time></trkpt>
			<trkpt lat="53.597598" lon="27.011474"><time>1970-01-01T00:00:01.000Z</time></trkpt>
			<trkpt lat="53.598217" lon="27.012264"><time>1970-01-01T00:00:01.000Z</time></trkpt>
			<trkpt lat="53.598803" lon="27.013125"><time>1970-01-01T00:00:01.000Z</time></trkpt>
			<trkpt lat="53.599209" lon="27.014001"><time>1970-01-01T00:00:01.000Z</time></trkpt>
			<trkpt lat="53.600467" lon="27.017038"><time>1970-01-01T00:00:01.000Z</time></trkpt>
			<trkpt lat="53.601227" lon="27.018991"><time>1970-01-01T00:00:01.000Z</time></trkpt>
			<trkpt lat="53.602525" lon="27.021904"><time>1970-01-01T00:00:01.000Z</time></trkpt>
			<trkpt lat="53.602570" lon="27.022462"><time>1970-01-01T00:00:01.000Z</time></trkpt>
			<trkpt lat="53.602244" lon="27.023063"><time>1970-01-01T00:00:01.000Z</time></trkpt>
			<trkpt lat="53.601435" lon="27.024879"><time>1970-01-01T00:00:01.000Z</time></trkpt>
			<trkpt lat="53.600233" lon="27.028714"><time>1970-01-01T00:00:01.000Z</time></trkpt>
			<trkpt lat="53.599465" lon="27.030717"><time>1970-01-01T00:00:01.000Z</time></trkpt>
			<trkpt lat="53.598276" lon="27.034262"><time>1970-01-01T00:00:01.000Z</time></trkpt>
			<trkpt lat="53.596238" lon="27.040080"><time>1970-01-01T00:00:01.000Z</time></trkpt>
			<trkpt lat="53.595890" lon="27.040999"><time>1970-01-01T00:00:01.000Z</time></trkpt>
			<trkpt lat="53.595474" lon="27.040963"><time>1970-01-01T00:00:01.000Z</time></trkpt>
			<trkpt lat="53.595237" lon="27.041519"><time>1970-01-01T00:00:01.000Z</time></trkpt>
			<trkpt lat="53.595427" lon="27.041921"><time>1970-01-01T00:00:01.000Z</time></trkpt>
			<trkpt lat="53.595339" lon="27.041921"><time>1970-01-01T00:00:01.000Z</time></trkpt>
			<trkpt lat="53.595290" lon="27.041838"><time>1970-01-01T00:00:01.000Z</time></trkpt>
			<trkpt lat="53.595254" lon="27.041985"><time>1970-01-01T00:00:01.000Z</time></trkpt>
			<trkpt lat="53.595328" lon="27.042576"><time>1970-01-01T00:00:01.000Z</time></trkpt>
			<trkpt lat="53.595299" lon="27.043050"><time>1970-01-01T00:00:01.000Z</time></trkpt>
			<trkpt lat="53.593887" lon="27.047146"><time>1970-01-01T00:00:01.000Z</time></trkpt>
			<trkpt lat="53.592794" lon="27.050175"><time>1970-01-01T00:00:01.000Z</time></trkpt>
			<trkpt lat="53.592531" lon="27.051039"><time>1970-01-01T00:00:01.000Z</time></trkpt>
			<trkpt lat="53.592398" lon="27.051102"><time>1970-01-01T00:00:01.000Z</time></trkpt>
			<trkpt lat="53.592339" lon="27.051177"><time>1970-01-01T00:00:01.000Z</time></trkpt>
			<trkpt lat="53.592208" lon="27.050995"><time>1970-01-01T00:00:01.000Z</time></trkpt>
			<trkpt lat="53.591786" lon="27.050592"><time>1970-01-01T00:00:01.000Z</time></trkpt>
			<trkpt lat="53.591494" lon="27.050590"><time>1970-01-01T00:00:01.000Z</time></trkpt>
			<trkpt lat="53.591006" lon="27.050516"><time>1970-01-01T00:00:01.000Z</time></trkpt>
			<trkpt lat="53.590585" lon="27.050258"><time>1970-01-01T00:00:01.000Z</time></trkpt>
			<trkpt lat="53.589104" lon="27.048768"><time>1970-01-01T00:00:01.000Z</time></trkpt>
			<trkpt lat="53.588806" lon="27.048784"><time>1970-01-01T00:00:01.000Z</time></trkpt>
			<trkpt lat="53.588626" lon="27.049465"><time>1970-01-01T00:00:01.000Z</time></trkpt>
			<trkpt lat="53.588490" lon="27.049803"><time>1970-01-01T00:00:01.000Z</time></trkpt>
			<trkpt lat="53.587963" lon="27.051854"><time>1970-01-01T00:00:01.000Z</time></trkpt>
			<trkpt lat="53.587673" lon="27.052340"><time>1970-01-01T00:00:01.000Z</time></trkpt>
			<trkpt lat="53.587555" lon="27.052705"><time>1970-01-01T00:00:01.000Z</time></trkpt>
			<trkpt lat="53.587600" lon="27.052900"><time>1970-01-01T00:00:01.000Z</time></trkpt>
			<trkpt lat="53.587596" lon="27.052869"><time>1970-01-01T00:00:01.000Z</time></trkpt>
			<trkpt lat="53.587626" lon="27.052876"><time>1970-01-01T00:00:01.000Z</time></trkpt>
		</trkseg>
	</trk>
</gpx>