<?xml version="1.0" encoding="UTF-8" standalone="no" ?>
<gpx xmlns="http://www.topografix.com/GPX/1/1" creator="http://nakarte.me" xmlns:xsi="http://www.w3.org/2001/XMLSchema-instance" xsi:schemaLocation="http://www.topografix.com/GPX/1/1 http://www.topografix.com/GPX/1/1/gpx.xsd" version="1.1">
	<wpt lat="55.530106" lon="27.864370">
		<name>Камень, не глубоко</name>
	</wpt>
	<wpt lat="55.486182" lon="27.818027">
		<name>Канал, переход по бревнам</name>
	</wpt>
	<wpt lat="55.492465" lon="27.825499">
		<name>На подходе к лесу жидко</name>
	</wpt>
	<trk>
		<name>2021-07-11_ельня_сплав_день2</name>
		<trkseg>
			<trkpt lat="55.548832" lon="27.876828"><time>1970-01-01T00:00:01.000Z</time></trkpt>
			<trkpt lat="55.548770" lon="27.876799"><time>1970-01-01T00:00:01.000Z</time></trkpt>
			<trkpt lat="55.548701" lon="27.876469"><time>1970-01-01T00:00:01.000Z</time></trkpt>
			<trkpt lat="55.548536" lon="27.876319"><time>1970-01-01T00:00:01.000Z</time></trkpt>
			<trkpt lat="55.548431" lon="27.876035"><time>1970-01-01T00:00:01.000Z</time></trkpt>
			<trkpt lat="55.548103" lon="27.875580"><time>1970-01-01T00:00:01.000Z</time></trkpt>
			<trkpt lat="55.547969" lon="27.875269"><time>1970-01-01T00:00:01.000Z</time></trkpt>
			<trkpt lat="55.547796" lon="27.875072"><time>1970-01-01T00:00:01.000Z</time></trkpt>
			<trkpt lat="55.547648" lon="27.874745"><time>1970-01-01T00:00:01.000Z</time></trkpt>
			<trkpt lat="55.547487" lon="27.874499"><time>1970-01-01T00:00:01.000Z</time></trkpt>
			<trkpt lat="55.547368" lon="27.874127"><time>1970-01-01T00:00:01.000Z</time></trkpt>
			<trkpt lat="55.547249" lon="27.873924"><time>1970-01-01T00:00:01.000Z</time></trkpt>
			<trkpt lat="55.547219" lon="27.873730"><time>1970-01-01T00:00:01.000Z</time></trkpt>
			<trkpt lat="55.547158" lon="27.873596"><time>1970-01-01T00:00:01.000Z</time></trkpt>
			<trkpt lat="55.546910" lon="27.873542"><time>1970-01-01T00:00:01.000Z</time></trkpt>
			<trkpt lat="55.546829" lon="27.873421"><time>1970-01-01T00:00:01.000Z</time></trkpt>
			<trkpt lat="55.546773" lon="27.872940"><time>1970-01-01T00:00:01.000Z</time></trkpt>
			<trkpt lat="55.546540" lon="27.872563"><time>1970-01-01T00:00:01.000Z</time></trkpt>
			<trkpt lat="55.546453" lon="27.872242"><time>1970-01-01T00:00:01.000Z</time></trkpt>
			<trkpt lat="55.546365" lon="27.872154"><time>1970-01-01T00:00:01.000Z</time></trkpt>
			<trkpt lat="55.546285" lon="27.871988"><time>1970-01-01T00:00:01.000Z</time></trkpt>
			<trkpt lat="55.546243" lon="27.871644"><time>1970-01-01T00:00:01.000Z</time></trkpt>
			<trkpt lat="55.546179" lon="27.871530"><time>1970-01-01T00:00:01.000Z</time></trkpt>
			<trkpt lat="55.545984" lon="27.871335"><time>1970-01-01T00:00:01.000Z</time></trkpt>
			<trkpt lat="55.545913" lon="27.870990"><time>1970-01-01T00:00:01.000Z</time></trkpt>
			<trkpt lat="55.545843" lon="27.870883"><time>1970-01-01T00:00:01.000Z</time></trkpt>
			<trkpt lat="55.545743" lon="27.870823"><time>1970-01-01T00:00:01.000Z</time></trkpt>
			<trkpt lat="55.545662" lon="27.870520"><time>1970-01-01T00:00:01.000Z</time></trkpt>
			<trkpt lat="55.545600" lon="27.870440"><time>1970-01-01T00:00:01.000Z</time></trkpt>
			<trkpt lat="55.545357" lon="27.870386"><time>1970-01-01T00:00:01.000Z</time></trkpt>
			<trkpt lat="55.545270" lon="27.870268"><time>1970-01-01T00:00:01.000Z</time></trkpt>
			<trkpt lat="55.545199" lon="27.869964"><time>1970-01-01T00:00:01.000Z</time></trkpt>
			<trkpt lat="55.545132" lon="27.869898"><time>1970-01-01T00:00:01.000Z</time></trkpt>
			<trkpt lat="55.545021" lon="27.869925"><time>1970-01-01T00:00:01.000Z</time></trkpt>
			<trkpt lat="55.544943" lon="27.869873"><time>1970-01-01T00:00:01.000Z</time></trkpt>
			<trkpt lat="55.544925" lon="27.869565"><time>1970-01-01T00:00:01.000Z</time></trkpt>
			<trkpt lat="55.544774" lon="27.869404"><time>1970-01-01T00:00:01.000Z</time></trkpt>
			<trkpt lat="55.544751" lon="27.869065"><time>1970-01-01T00:00:01.000Z</time></trkpt>
			<trkpt lat="55.544672" lon="27.868933"><time>1970-01-01T00:00:01.000Z</time></trkpt>
			<trkpt lat="55.544561" lon="27.868879"><time>1970-01-01T00:00:01.000Z</time></trkpt>
			<trkpt lat="55.544472" lon="27.868757"><time>1970-01-01T00:00:01.000Z</time></trkpt>
			<trkpt lat="55.544492" lon="27.868453"><time>1970-01-01T00:00:01.000Z</time></trkpt>
			<trkpt lat="55.544445" lon="27.868337"><time>1970-01-01T00:00:01.000Z</time></trkpt>
			<trkpt lat="55.544341" lon="27.868222"><time>1970-01-01T00:00:01.000Z</time></trkpt>
			<trkpt lat="55.544205" lon="27.868158"><time>1970-01-01T00:00:01.000Z</time></trkpt>
			<trkpt lat="55.544125" lon="27.868017"><time>1970-01-01T00:00:01.000Z</time></trkpt>
			<trkpt lat="55.544156" lon="27.867684"><time>1970-01-01T00:00:01.000Z</time></trkpt>
			<trkpt lat="55.544112" lon="27.867557"><time>1970-01-01T00:00:01.000Z</time></trkpt>
			<trkpt lat="55.543932" lon="27.867393"><time>1970-01-01T00:00:01.000Z</time></trkpt>
			<trkpt lat="55.543915" lon="27.867216"><time>1970-01-01T00:00:01.000Z</time></trkpt>
			<trkpt lat="55.543960" lon="27.867072"><time>1970-01-01T00:00:01.000Z</time></trkpt>
			<trkpt lat="55.543949" lon="27.866905"><time>1970-01-01T00:00:01.000Z</time></trkpt>
			<trkpt lat="55.543838" lon="27.866312"><time>1970-01-01T00:00:01.000Z</time></trkpt>
			<trkpt lat="55.543708" lon="27.866024"><time>1970-01-01T00:00:01.000Z</time></trkpt>
			<trkpt lat="55.543672" lon="27.865853"><time>1970-01-01T00:00:01.000Z</time></trkpt>
			<trkpt lat="55.543583" lon="27.865709"><time>1970-01-01T00:00:01.000Z</time></trkpt>
			<trkpt lat="55.543503" lon="27.865645"><time>1970-01-01T00:00:01.000Z</time></trkpt>
			<trkpt lat="55.543441" lon="27.865428"><time>1970-01-01T00:00:01.000Z</time></trkpt>
			<trkpt lat="55.543290" lon="27.865394"><time>1970-01-01T00:00:01.000Z</time></trkpt>
			<trkpt lat="55.543070" lon="27.865250"><time>1970-01-01T00:00:01.000Z</time></trkpt>
			<trkpt lat="55.542897" lon="27.865379"><time>1970-01-01T00:00:01.000Z</time></trkpt>
			<trkpt lat="55.542713" lon="27.865196"><time>1970-01-01T00:00:01.000Z</time></trkpt>
			<trkpt lat="55.542504" lon="27.865113"><time>1970-01-01T00:00:01.000Z</time></trkpt>
			<trkpt lat="55.542338" lon="27.864961"><time>1970-01-01T00:00:01.000Z</time></trkpt>
			<trkpt lat="55.542265" lon="27.865016"><time>1970-01-01T00:00:01.000Z</time></trkpt>
			<trkpt lat="55.542088" lon="27.864862"><time>1970-01-01T00:00:01.000Z</time></trkpt>
			<trkpt lat="55.541977" lon="27.864843"><time>1970-01-01T00:00:01.000Z</time></trkpt>
			<trkpt lat="55.541902" lon="27.864781"><time>1970-01-01T00:00:01.000Z</time></trkpt>
			<trkpt lat="55.541468" lon="27.864142"><time>1970-01-01T00:00:01.000Z</time></trkpt>
			<trkpt lat="55.541354" lon="27.864007"><time>1970-01-01T00:00:01.000Z</time></trkpt>
			<trkpt lat="55.541161" lon="27.863894"><time>1970-01-01T00:00:01.000Z</time></trkpt>
			<trkpt lat="55.541058" lon="27.863606"><time>1970-01-01T00:00:01.000Z</time></trkpt>
			<trkpt lat="55.540887" lon="27.863491"><time>1970-01-01T00:00:01.000Z</time></trkpt>
			<trkpt lat="55.540803" lon="27.863389"><time>1970-01-01T00:00:01.000Z</time></trkpt>
			<trkpt lat="55.540591" lon="27.863292"><time>1970-01-01T00:00:01.000Z</time></trkpt>
			<trkpt lat="55.540513" lon="27.863158"><time>1970-01-01T00:00:01.000Z</time></trkpt>
			<trkpt lat="55.540311" lon="27.863008"><time>1970-01-01T00:00:01.000Z</time></trkpt>
			<trkpt lat="55.540242" lon="27.862864"><time>1970-01-01T00:00:01.000Z</time></trkpt>
			<trkpt lat="55.540053" lon="27.862705"><time>1970-01-01T00:00:01.000Z</time></trkpt>
			<trkpt lat="55.539980" lon="27.862366"><time>1970-01-01T00:00:01.000Z</time></trkpt>
			<trkpt lat="55.539722" lon="27.862021"><time>1970-01-01T00:00:01.000Z</time></trkpt>
			<trkpt lat="55.539674" lon="27.861851"><time>1970-01-01T00:00:01.000Z</time></trkpt>
			<trkpt lat="55.539460" lon="27.861494"><time>1970-01-01T00:00:01.000Z</time></trkpt>
			<trkpt lat="55.539425" lon="27.861376"><time>1970-01-01T00:00:01.000Z</time></trkpt>
			<trkpt lat="55.539355" lon="27.861265"><time>1970-01-01T00:00:01.000Z</time></trkpt>
			<trkpt lat="55.539257" lon="27.861200"><time>1970-01-01T00:00:01.000Z</time></trkpt>
			<trkpt lat="55.539151" lon="27.860984"><time>1970-01-01T00:00:01.000Z</time></trkpt>
			<trkpt lat="55.539062" lon="27.860892"><time>1970-01-01T00:00:01.000Z</time></trkpt>
			<trkpt lat="55.538667" lon="27.860719"><time>1970-01-01T00:00:01.000Z</time></trkpt>
			<trkpt lat="55.538585" lon="27.860759"><time>1970-01-01T00:00:01.000Z</time></trkpt>
			<trkpt lat="55.538435" lon="27.860728"><time>1970-01-01T00:00:01.000Z</time></trkpt>
			<trkpt lat="55.538403" lon="27.860640"><time>1970-01-01T00:00:01.000Z</time></trkpt>
			<trkpt lat="55.538329" lon="27.860608"><time>1970-01-01T00:00:01.000Z</time></trkpt>
			<trkpt lat="55.538170" lon="27.860567"><time>1970-01-01T00:00:01.000Z</time></trkpt>
			<trkpt lat="55.538083" lon="27.860593"><time>1970-01-01T00:00:01.000Z</time></trkpt>
			<trkpt lat="55.537988" lon="27.860691"><time>1970-01-01T00:00:01.000Z</time></trkpt>
			<trkpt lat="55.537886" lon="27.860750"><time>1970-01-01T00:00:01.000Z</time></trkpt>
			<trkpt lat="55.537772" lon="27.860749"><time>1970-01-01T00:00:01.000Z</time></trkpt>
			<trkpt lat="55.537615" lon="27.860868"><time>1970-01-01T00:00:01.000Z</time></trkpt>
			<trkpt lat="55.537466" lon="27.861184"><time>1970-01-01T00:00:01.000Z</time></trkpt>
			<trkpt lat="55.537377" lon="27.861292"><time>1970-01-01T00:00:01.000Z</time></trkpt>
			<trkpt lat="55.537249" lon="27.861291"><time>1970-01-01T00:00:01.000Z</time></trkpt>
			<trkpt lat="55.537074" lon="27.861373"><time>1970-01-01T00:00:01.000Z</time></trkpt>
			<trkpt lat="55.536831" lon="27.861791"><time>1970-01-01T00:00:01.000Z</time></trkpt>
			<trkpt lat="55.536710" lon="27.861811"><time>1970-01-01T00:00:01.000Z</time></trkpt>
			<trkpt lat="55.536547" lon="27.861744"><time>1970-01-01T00:00:01.000Z</time></trkpt>
			<trkpt lat="55.536462" lon="27.861754"><time>1970-01-01T00:00:01.000Z</time></trkpt>
			<trkpt lat="55.536258" lon="27.861967"><time>1970-01-01T00:00:01.000Z</time></trkpt>
			<trkpt lat="55.535753" lon="27.862220"><time>1970-01-01T00:00:01.000Z</time></trkpt>
			<trkpt lat="55.535600" lon="27.862255"><time>1970-01-01T00:00:01.000Z</time></trkpt>
			<trkpt lat="55.535314" lon="27.862483"><time>1970-01-01T00:00:01.000Z</time></trkpt>
			<trkpt lat="55.535117" lon="27.862716"><time>1970-01-01T00:00:01.000Z</time></trkpt>
			<trkpt lat="55.534773" lon="27.862928"><time>1970-01-01T00:00:01.000Z</time></trkpt>
			<trkpt lat="55.534372" lon="27.863109"><time>1970-01-01T00:00:01.000Z</time></trkpt>
			<trkpt lat="55.534259" lon="27.863213"><time>1970-01-01T00:00:01.000Z</time></trkpt>
			<trkpt lat="55.534125" lon="27.863212"><time>1970-01-01T00:00:01.000Z</time></trkpt>
			<trkpt lat="55.534064" lon="27.863169"><time>1970-01-01T00:00:01.000Z</time></trkpt>
			<trkpt lat="55.533924" lon="27.863195"><time>1970-01-01T00:00:01.000Z</time></trkpt>
			<trkpt lat="55.533577" lon="27.863340"><time>1970-01-01T00:00:01.000Z</time></trkpt>
			<trkpt lat="55.533304" lon="27.863270"><time>1970-01-01T00:00:01.000Z</time></trkpt>
			<trkpt lat="55.533166" lon="27.863271"><time>1970-01-01T00:00:01.000Z</time></trkpt>
			<trkpt lat="55.532892" lon="27.863519"><time>1970-01-01T00:00:01.000Z</time></trkpt>
			<trkpt lat="55.532634" lon="27.863668"><time>1970-01-01T00:00:01.000Z</time></trkpt>
			<trkpt lat="55.532521" lon="27.863729"><time>1970-01-01T00:00:01.000Z</time></trkpt>
			<trkpt lat="55.532277" lon="27.863787"><time>1970-01-01T00:00:01.000Z</time></trkpt>
			<trkpt lat="55.532157" lon="27.863762"><time>1970-01-01T00:00:01.000Z</time></trkpt>
			<trkpt lat="55.531896" lon="27.863937"><time>1970-01-01T00:00:01.000Z</time></trkpt>
			<trkpt lat="55.531777" lon="27.863979"><time>1970-01-01T00:00:01.000Z</time></trkpt>
			<trkpt lat="55.531476" lon="27.864214"><time>1970-01-01T00:00:01.000Z</time></trkpt>
			<trkpt lat="55.531208" lon="27.864327"><time>1970-01-01T00:00:01.000Z</time></trkpt>
			<trkpt lat="55.531062" lon="27.864368"><time>1970-01-01T00:00:01.000Z</time></trkpt>
			<trkpt lat="55.530833" lon="27.864328"><time>1970-01-01T00:00:01.000Z</time></trkpt>
			<trkpt lat="55.530242" lon="27.864368"><time>1970-01-01T00:00:01.000Z</time></trkpt>
			<trkpt lat="55.530214" lon="27.864409"><time>1970-01-01T00:00:01.000Z</time></trkpt>
			<trkpt lat="55.530110" lon="27.864411"><time>1970-01-01T00:00:01.000Z</time></trkpt>
			<trkpt lat="55.530057" lon="27.864471"><time>1970-01-01T00:00:01.000Z</time></trkpt>
			<trkpt lat="55.530045" lon="27.864379"><time>1970-01-01T00:00:01.000Z</time></trkpt>
			<trkpt lat="55.530126" lon="27.864441"><time>1970-01-01T00:00:01.000Z</time></trkpt>
			<trkpt lat="55.530062" lon="27.864464"><time>1970-01-01T00:00:01.000Z</time></trkpt>
			<trkpt lat="55.530088" lon="27.864544"><time>1970-01-01T00:00:01.000Z</time></trkpt>
			<trkpt lat="55.530046" lon="27.864272"><time>1970-01-01T00:00:01.000Z</time></trkpt>
			<trkpt lat="55.529968" lon="27.864076"><time>1970-01-01T00:00:01.000Z</time></trkpt>
			<trkpt lat="55.529948" lon="27.863818"><time>1970-01-01T00:00:01.000Z</time></trkpt>
			<trkpt lat="55.529718" lon="27.863252"><time>1970-01-01T00:00:01.000Z</time></trkpt>
			<trkpt lat="55.529700" lon="27.862997"><time>1970-01-01T00:00:01.000Z</time></trkpt>
			<trkpt lat="55.529769" lon="27.862880"><time>1970-01-01T00:00:01.000Z</time></trkpt>
			<trkpt lat="55.529845" lon="27.862882"><time>1970-01-01T00:00:01.000Z</time></trkpt>
			<trkpt lat="55.529886" lon="27.862924"><time>1970-01-01T00:00:01.000Z</time></trkpt>
			<trkpt lat="55.529860" lon="27.863037"><time>1970-01-01T00:00:01.000Z</time></trkpt>
			<trkpt lat="55.529774" lon="27.863082"><time>1970-01-01T00:00:01.000Z</time></trkpt>
			<trkpt lat="55.529604" lon="27.862997"><time>1970-01-01T00:00:01.000Z</time></trkpt>
			<trkpt lat="55.529541" lon="27.862907"><time>1970-01-01T00:00:01.000Z</time></trkpt>
			<trkpt lat="55.529458" lon="27.862420"><time>1970-01-01T00:00:01.000Z</time></trkpt>
			<trkpt lat="55.529341" lon="27.862081"><time>1970-01-01T00:00:01.000Z</time></trkpt>
			<trkpt lat="55.529219" lon="27.862018"><time>1970-01-01T00:00:01.000Z</time></trkpt>
			<trkpt lat="55.529126" lon="27.861869"><time>1970-01-01T00:00:01.000Z</time></trkpt>
			<trkpt lat="55.529080" lon="27.861637"><time>1970-01-01T00:00:01.000Z</time></trkpt>
			<trkpt lat="55.528895" lon="27.861446"><time>1970-01-01T00:00:01.000Z</time></trkpt>
			<trkpt lat="55.528783" lon="27.861127"><time>1970-01-01T00:00:01.000Z</time></trkpt>
			<trkpt lat="55.528704" lon="27.861015"><time>1970-01-01T00:00:01.000Z</time></trkpt>
			<trkpt lat="55.528601" lon="27.860959"><time>1970-01-01T00:00:01.000Z</time></trkpt>
			<trkpt lat="55.528466" lon="27.860665"><time>1970-01-01T00:00:01.000Z</time></trkpt>
			<trkpt lat="55.528371" lon="27.860562"><time>1970-01-01T00:00:01.000Z</time></trkpt>
			<trkpt lat="55.528271" lon="27.860580"><time>1970-01-01T00:00:01.000Z</time></trkpt>
			<trkpt lat="55.528092" lon="27.860131"><time>1970-01-01T00:00:01.000Z</time></trkpt>
			<trkpt lat="55.528018" lon="27.860077"><time>1970-01-01T00:00:01.000Z</time></trkpt>
			<trkpt lat="55.527916" lon="27.860156"><time>1970-01-01T00:00:01.000Z</time></trkpt>
			<trkpt lat="55.527874" lon="27.860035"><time>1970-01-01T00:00:01.000Z</time></trkpt>
			<trkpt lat="55.528171" lon="27.860637"><time>1970-01-01T00:00:01.000Z</time></trkpt>
			<trkpt lat="55.528251" lon="27.860769"><time>1970-01-01T00:00:01.000Z</time></trkpt>
			<trkpt lat="55.528312" lon="27.860725"><time>1970-01-01T00:00:01.000Z</time></trkpt>
			<trkpt lat="55.528292" lon="27.860497"><time>1970-01-01T00:00:01.000Z</time></trkpt>
			<trkpt lat="55.528190" lon="27.860135"><time>1970-01-01T00:00:01.000Z</time></trkpt>
			<trkpt lat="55.527906" lon="27.859399"><time>1970-01-01T00:00:01.000Z</time></trkpt>
			<trkpt lat="55.527562" lon="27.858862"><time>1970-01-01T00:00:01.000Z</time></trkpt>
			<trkpt lat="55.527356" lon="27.858379"><time>1970-01-01T00:00:01.000Z</time></trkpt>
			<trkpt lat="55.527135" lon="27.858150"><time>1970-01-01T00:00:01.000Z</time></trkpt>
			<trkpt lat="55.526897" lon="27.857695"><time>1970-01-01T00:00:01.000Z</time></trkpt>
			<trkpt lat="55.526707" lon="27.857466"><time>1970-01-01T00:00:01.000Z</time></trkpt>
			<trkpt lat="55.526580" lon="27.857186"><time>1970-01-01T00:00:01.000Z</time></trkpt>
			<trkpt lat="55.526391" lon="27.856910"><time>1970-01-01T00:00:01.000Z</time></trkpt>
			<trkpt lat="55.526282" lon="27.856570"><time>1970-01-01T00:00:01.000Z</time></trkpt>
			<trkpt lat="55.525814" lon="27.855927"><time>1970-01-01T00:00:01.000Z</time></trkpt>
			<trkpt lat="55.525502" lon="27.855365"><time>1970-01-01T00:00:01.000Z</time></trkpt>
			<trkpt lat="55.525107" lon="27.854921"><time>1970-01-01T00:00:01.000Z</time></trkpt>
			<trkpt lat="55.524930" lon="27.854542"><time>1970-01-01T00:00:01.000Z</time></trkpt>
			<trkpt lat="55.524944" lon="27.854502"><time>1970-01-01T00:00:01.000Z</time></trkpt>
			<trkpt lat="55.524926" lon="27.854514"><time>1970-01-01T00:00:01.000Z</time></trkpt>
			<trkpt lat="55.524896" lon="27.854373"><time>1970-01-01T00:00:01.000Z</time></trkpt>
			<trkpt lat="55.524837" lon="27.854366"><time>1970-01-01T00:00:01.000Z</time></trkpt>
			<trkpt lat="55.524814" lon="27.854502"><time>1970-01-01T00:00:01.000Z</time></trkpt>
			<trkpt lat="55.524827" lon="27.854391"><time>1970-01-01T00:00:01.000Z</time></trkpt>
			<trkpt lat="55.524867" lon="27.854347"><time>1970-01-01T00:00:01.000Z</time></trkpt>
			<trkpt lat="55.524918" lon="27.854519"><time>1970-01-01T00:00:01.000Z</time></trkpt>
			<trkpt lat="55.524885" lon="27.854446"><time>1970-01-01T00:00:01.000Z</time></trkpt>
			<trkpt lat="55.524905" lon="27.854349"><time>1970-01-01T00:00:01.000Z</time></trkpt>
			<trkpt lat="55.524884" lon="27.854373"><time>1970-01-01T00:00:01.000Z</time></trkpt>
			<trkpt lat="55.524875" lon="27.854341"><time>1970-01-01T00:00:01.000Z</time></trkpt>
			<trkpt lat="55.524833" lon="27.854455"><time>1970-01-01T00:00:01.000Z</time></trkpt>
			<trkpt lat="55.524830" lon="27.854433"><time>1970-01-01T00:00:01.000Z</time></trkpt>
			<trkpt lat="55.525027" lon="27.854408"><time>1970-01-01T00:00:01.000Z</time></trkpt>
			<trkpt lat="55.524901" lon="27.854363"><time>1970-01-01T00:00:01.000Z</time></trkpt>
			<trkpt lat="55.524868" lon="27.854404"><time>1970-01-01T00:00:01.000Z</time></trkpt>
			<trkpt lat="55.524933" lon="27.854395"><time>1970-01-01T00:00:01.000Z</time></trkpt>
			<trkpt lat="55.524865" lon="27.854336"><time>1970-01-01T00:00:01.000Z</time></trkpt>
			<trkpt lat="55.524842" lon="27.854379"><time>1970-01-01T00:00:01.000Z</time></trkpt>
			<trkpt lat="55.524867" lon="27.854486"><time>1970-01-01T00:00:01.000Z</time></trkpt>
			<trkpt lat="55.524832" lon="27.854370"><time>1970-01-01T00:00:01.000Z</time></trkpt>
			<trkpt lat="55.524578" lon="27.854612"><time>1970-01-01T00:00:01.000Z</time></trkpt>
			<trkpt lat="55.524515" lon="27.854739"><time>1970-01-01T00:00:01.000Z</time></trkpt>
			<trkpt lat="55.524413" lon="27.854775"><time>1970-01-01T00:00:01.000Z</time></trkpt>
			<trkpt lat="55.523830" lon="27.854425"><time>1970-01-01T00:00:01.000Z</time></trkpt>
			<trkpt lat="55.523267" lon="27.853914"><time>1970-01-01T00:00:01.000Z</time></trkpt>
			<trkpt lat="55.522527" lon="27.853612"><time>1970-01-01T00:00:01.000Z</time></trkpt>
			<trkpt lat="55.522442" lon="27.853511"><time>1970-01-01T00:00:01.000Z</time></trkpt>
			<trkpt lat="55.522064" lon="27.853279"><time>1970-01-01T00:00:01.000Z</time></trkpt>
			<trkpt lat="55.521621" lon="27.852926"><time>1970-01-01T00:00:01.000Z</time></trkpt>
			<trkpt lat="55.521497" lon="27.852891"><time>1970-01-01T00:00:01.000Z</time></trkpt>
			<trkpt lat="55.521313" lon="27.852725"><time>1970-01-01T00:00:01.000Z</time></trkpt>
			<trkpt lat="55.521198" lon="27.852690"><time>1970-01-01T00:00:01.000Z</time></trkpt>
			<trkpt lat="55.521033" lon="27.852538"><time>1970-01-01T00:00:01.000Z</time></trkpt>
			<trkpt lat="55.520830" lon="27.852442"><time>1970-01-01T00:00:01.000Z</time></trkpt>
			<trkpt lat="55.520555" lon="27.852226"><time>1970-01-01T00:00:01.000Z</time></trkpt>
			<trkpt lat="55.520199" lon="27.852016"><time>1970-01-01T00:00:01.000Z</time></trkpt>
			<trkpt lat="55.520051" lon="27.851880"><time>1970-01-01T00:00:01.000Z</time></trkpt>
			<trkpt lat="55.519421" lon="27.851500"><time>1970-01-01T00:00:01.000Z</time></trkpt>
			<trkpt lat="55.518971" lon="27.851127"><time>1970-01-01T00:00:01.000Z</time></trkpt>
			<trkpt lat="55.518607" lon="27.850944"><time>1970-01-01T00:00:01.000Z</time></trkpt>
			<trkpt lat="55.518105" lon="27.850581"><time>1970-01-01T00:00:01.000Z</time></trkpt>
			<trkpt lat="55.517976" lon="27.850556"><time>1970-01-01T00:00:01.000Z</time></trkpt>
			<trkpt lat="55.517032" lon="27.849888"><time>1970-01-01T00:00:01.000Z</time></trkpt>
			<trkpt lat="55.516803" lon="27.849784"><time>1970-01-01T00:00:01.000Z</time></trkpt>
			<trkpt lat="55.516630" lon="27.849645"><time>1970-01-01T00:00:01.000Z</time></trkpt>
			<trkpt lat="55.516496" lon="27.849597"><time>1970-01-01T00:00:01.000Z</time></trkpt>
			<trkpt lat="55.516331" lon="27.849432"><time>1970-01-01T00:00:01.000Z</time></trkpt>
			<trkpt lat="55.515563" lon="27.849007"><time>1970-01-01T00:00:01.000Z</time></trkpt>
			<trkpt lat="55.514929" lon="27.848509"><time>1970-01-01T00:00:01.000Z</time></trkpt>
			<trkpt lat="55.514670" lon="27.848401"><time>1970-01-01T00:00:01.000Z</time></trkpt>
			<trkpt lat="55.514386" lon="27.848185"><time>1970-01-01T00:00:01.000Z</time></trkpt>
			<trkpt lat="55.513288" lon="27.847516"><time>1970-01-01T00:00:01.000Z</time></trkpt>
			<trkpt lat="55.512993" lon="27.847274"><time>1970-01-01T00:00:01.000Z</time></trkpt>
			<trkpt lat="55.512903" lon="27.847253"><time>1970-01-01T00:00:01.000Z</time></trkpt>
			<trkpt lat="55.512817" lon="27.847182"><time>1970-01-01T00:00:01.000Z</time></trkpt>
			<trkpt lat="55.512718" lon="27.847035"><time>1970-01-01T00:00:01.000Z</time></trkpt>
			<trkpt lat="55.512716" lon="27.846951"><time>1970-01-01T00:00:01.000Z</time></trkpt>
			<trkpt lat="55.512714" lon="27.846973"><time>1970-01-01T00:00:01.000Z</time></trkpt>
			<trkpt lat="55.512588" lon="27.846864"><time>1970-01-01T00:00:01.000Z</time></trkpt>
			<trkpt lat="55.512181" lon="27.846633"><time>1970-01-01T00:00:01.000Z</time></trkpt>
			<trkpt lat="55.512110" lon="27.846558"><time>1970-01-01T00:00:01.000Z</time></trkpt>
			<trkpt lat="55.512030" lon="27.846558"><time>1970-01-01T00:00:01.000Z</time></trkpt>
			<trkpt lat="55.511888" lon="27.846439"><time>1970-01-01T00:00:01.000Z</time></trkpt>
			<trkpt lat="55.511824" lon="27.846337"><time>1970-01-01T00:00:01.000Z</time></trkpt>
			<trkpt lat="55.511638" lon="27.846305"><time>1970-01-01T00:00:01.000Z</time></trkpt>
			<trkpt lat="55.511371" lon="27.846166"><time>1970-01-01T00:00:01.000Z</time></trkpt>
			<trkpt lat="55.511098" lon="27.845905"><time>1970-01-01T00:00:01.000Z</time></trkpt>
			<trkpt lat="55.510877" lon="27.845811"><time>1970-01-01T00:00:01.000Z</time></trkpt>
			<trkpt lat="55.510386" lon="27.845447"><time>1970-01-01T00:00:01.000Z</time></trkpt>
			<trkpt lat="55.510292" lon="27.845428"><time>1970-01-01T00:00:01.000Z</time></trkpt>
			<trkpt lat="55.510062" lon="27.845182"><time>1970-01-01T00:00:01.000Z</time></trkpt>
			<trkpt lat="55.509591" lon="27.844902"><time>1970-01-01T00:00:01.000Z</time></trkpt>
			<trkpt lat="55.509430" lon="27.844736"><time>1970-01-01T00:00:01.000Z</time></trkpt>
			<trkpt lat="55.509160" lon="27.844606"><time>1970-01-01T00:00:01.000Z</time></trkpt>
			<trkpt lat="55.508903" lon="27.844295"><time>1970-01-01T00:00:01.000Z</time></trkpt>
			<trkpt lat="55.508653" lon="27.844081"><time>1970-01-01T00:00:01.000Z</time></trkpt>
			<trkpt lat="55.508545" lon="27.844157"><time>1970-01-01T00:00:01.000Z</time></trkpt>
			<trkpt lat="55.508047" lon="27.843310"><time>1970-01-01T00:00:01.000Z</time></trkpt>
			<trkpt lat="55.507958" lon="27.842978"><time>1970-01-01T00:00:01.000Z</time></trkpt>
			<trkpt lat="55.507830" lon="27.842829"><time>1970-01-01T00:00:01.000Z</time></trkpt>
			<trkpt lat="55.507209" lon="27.842509"><time>1970-01-01T00:00:01.000Z</time></trkpt>
			<trkpt lat="55.507082" lon="27.842662"><time>1970-01-01T00:00:01.000Z</time></trkpt>
			<trkpt lat="55.506870" lon="27.842629"><time>1970-01-01T00:00:01.000Z</time></trkpt>
			<trkpt lat="55.506471" lon="27.842756"><time>1970-01-01T00:00:01.000Z</time></trkpt>
			<trkpt lat="55.506300" lon="27.842735"><time>1970-01-01T00:00:01.000Z</time></trkpt>
			<trkpt lat="55.505705" lon="27.842315"><time>1970-01-01T00:00:01.000Z</time></trkpt>
			<trkpt lat="55.505217" lon="27.842039"><time>1970-01-01T00:00:01.000Z</time></trkpt>
			<trkpt lat="55.505085" lon="27.841913"><time>1970-01-01T00:00:01.000Z</time></trkpt>
			<trkpt lat="55.504702" lon="27.841701"><time>1970-01-01T00:00:01.000Z</time></trkpt>
			<trkpt lat="55.504709" lon="27.841784"><time>1970-01-01T00:00:01.000Z</time></trkpt>
			<trkpt lat="55.504628" lon="27.841776"><time>1970-01-01T00:00:01.000Z</time></trkpt>
			<trkpt lat="55.504527" lon="27.841559"><time>1970-01-01T00:00:01.000Z</time></trkpt>
			<trkpt lat="55.504376" lon="27.841494"><time>1970-01-01T00:00:01.000Z</time></trkpt>
			<trkpt lat="55.504267" lon="27.841404"><time>1970-01-01T00:00:01.000Z</time></trkpt>
			<trkpt lat="55.503793" lon="27.840768"><time>1970-01-01T00:00:01.000Z</time></trkpt>
			<trkpt lat="55.503590" lon="27.840690"><time>1970-01-01T00:00:01.000Z</time></trkpt>
			<trkpt lat="55.503485" lon="27.840815"><time>1970-01-01T00:00:01.000Z</time></trkpt>
			<trkpt lat="55.503508" lon="27.840848"><time>1970-01-01T00:00:01.000Z</time></trkpt>
			<trkpt lat="55.503500" lon="27.840789"><time>1970-01-01T00:00:01.000Z</time></trkpt>
			<trkpt lat="55.503497" lon="27.840853"><time>1970-01-01T00:00:01.000Z</time></trkpt>
			<trkpt lat="55.503524" lon="27.840859"><time>1970-01-01T00:00:01.000Z</time></trkpt>
			<trkpt lat="55.503470" lon="27.840916"><time>1970-01-01T00:00:01.000Z</time></trkpt>
			<trkpt lat="55.503490" lon="27.840858"><time>1970-01-01T00:00:01.000Z</time></trkpt>
			<trkpt lat="55.503396" lon="27.840847"><time>1970-01-01T00:00:01.000Z</time></trkpt>
			<trkpt lat="55.503306" lon="27.840762"><time>1970-01-01T00:00:01.000Z</time></trkpt>
			<trkpt lat="55.502858" lon="27.840559"><time>1970-01-01T00:00:01.000Z</time></trkpt>
			<trkpt lat="55.502482" lon="27.840211"><time>1970-01-01T00:00:01.000Z</time></trkpt>
			<trkpt lat="55.502291" lon="27.840075"><time>1970-01-01T00:00:01.000Z</time></trkpt>
			<trkpt lat="55.502189" lon="27.840063"><time>1970-01-01T00:00:01.000Z</time></trkpt>
			<trkpt lat="55.501967" lon="27.839854"><time>1970-01-01T00:00:01.000Z</time></trkpt>
			<trkpt lat="55.501674" lon="27.839254"><time>1970-01-01T00:00:01.000Z</time></trkpt>
			<trkpt lat="55.501391" lon="27.838861"><time>1970-01-01T00:00:01.000Z</time></trkpt>
			<trkpt lat="55.501018" lon="27.838086"><time>1970-01-01T00:00:01.000Z</time></trkpt>
			<trkpt lat="55.500524" lon="27.837598"><time>1970-01-01T00:00:01.000Z</time></trkpt>
			<trkpt lat="55.500039" lon="27.836742"><time>1970-01-01T00:00:01.000Z</time></trkpt>
			<trkpt lat="55.499755" lon="27.835485"><time>1970-01-01T00:00:01.000Z</time></trkpt>
			<trkpt lat="55.499662" lon="27.835217"><time>1970-01-01T00:00:01.000Z</time></trkpt>
			<trkpt lat="55.499179" lon="27.834036"><time>1970-01-01T00:00:01.000Z</time></trkpt>
			<trkpt lat="55.498736" lon="27.833228"><time>1970-01-01T00:00:01.000Z</time></trkpt>
			<trkpt lat="55.498578" lon="27.833013"><time>1970-01-01T00:00:01.000Z</time></trkpt>
			<trkpt lat="55.498401" lon="27.832907"><time>1970-01-01T00:00:01.000Z</time></trkpt>
			<trkpt lat="55.498289" lon="27.832737"><time>1970-01-01T00:00:01.000Z</time></trkpt>
			<trkpt lat="55.498205" lon="27.832702"><time>1970-01-01T00:00:01.000Z</time></trkpt>
			<trkpt lat="55.498140" lon="27.832441"><time>1970-01-01T00:00:01.000Z</time></trkpt>
			<trkpt lat="55.497934" lon="27.832126"><time>1970-01-01T00:00:01.000Z</time></trkpt>
			<trkpt lat="55.497825" lon="27.832059"><time>1970-01-01T00:00:01.000Z</time></trkpt>
			<trkpt lat="55.497688" lon="27.831828"><time>1970-01-01T00:00:01.000Z</time></trkpt>
			<trkpt lat="55.497547" lon="27.831772"><time>1970-01-01T00:00:01.000Z</time></trkpt>
			<trkpt lat="55.497354" lon="27.831576"><time>1970-01-01T00:00:01.000Z</time></trkpt>
			<trkpt lat="55.497214" lon="27.831305"><time>1970-01-01T00:00:01.000Z</time></trkpt>
			<trkpt lat="55.496923" lon="27.831017"><time>1970-01-01T00:00:01.000Z</time></trkpt>
			<trkpt lat="55.496844" lon="27.830857"><time>1970-01-01T00:00:01.000Z</time></trkpt>
			<trkpt lat="55.496688" lon="27.830701"><time>1970-01-01T00:00:01.000Z</time></trkpt>
			<trkpt lat="55.496573" lon="27.830641"><time>1970-01-01T00:00:01.000Z</time></trkpt>
			<trkpt lat="55.496416" lon="27.830412"><time>1970-01-01T00:00:01.000Z</time></trkpt>
			<trkpt lat="55.496179" lon="27.830174"><time>1970-01-01T00:00:01.000Z</time></trkpt>
			<trkpt lat="55.496076" lon="27.830141"><time>1970-01-01T00:00:01.000Z</time></trkpt>
			<trkpt lat="55.495903" lon="27.829988"><time>1970-01-01T00:00:01.000Z</time></trkpt>
			<trkpt lat="55.495486" lon="27.829526"><time>1970-01-01T00:00:01.000Z</time></trkpt>
			<trkpt lat="55.495214" lon="27.829156"><time>1970-01-01T00:00:01.000Z</time></trkpt>
			<trkpt lat="55.494946" lon="27.828696"><time>1970-01-01T00:00:01.000Z</time></trkpt>
			<trkpt lat="55.494822" lon="27.828575"><time>1970-01-01T00:00:01.000Z</time></trkpt>
			<trkpt lat="55.494692" lon="27.828240"><time>1970-01-01T00:00:01.000Z</time></trkpt>
			<trkpt lat="55.494510" lon="27.827928"><time>1970-01-01T00:00:01.000Z</time></trkpt>
			<trkpt lat="55.494480" lon="27.827945"><time>1970-01-01T00:00:01.000Z</time></trkpt>
			<trkpt lat="55.494422" lon="27.827779"><time>1970-01-01T00:00:01.000Z</time></trkpt>
			<trkpt lat="55.494258" lon="27.827661"><time>1970-01-01T00:00:01.000Z</time></trkpt>
			<trkpt lat="55.494010" lon="27.827292"><time>1970-01-01T00:00:01.000Z</time></trkpt>
			<trkpt lat="55.493975" lon="27.827291"><time>1970-01-01T00:00:01.000Z</time></trkpt>
			<trkpt lat="55.493983" lon="27.827267"><time>1970-01-01T00:00:01.000Z</time></trkpt>
			<trkpt lat="55.494004" lon="27.827410"><time>1970-01-01T00:00:01.000Z</time></trkpt>
			<trkpt lat="55.493959" lon="27.827288"><time>1970-01-01T00:00:01.000Z</time></trkpt>
			<trkpt lat="55.493758" lon="27.827139"><time>1970-01-01T00:00:01.000Z</time></trkpt>
			<trkpt lat="55.493734" lon="27.827066"><time>1970-01-01T00:00:01.000Z</time></trkpt>
			<trkpt lat="55.493516" lon="27.826870"><time>1970-01-01T00:00:01.000Z</time></trkpt>
			<trkpt lat="55.493209" lon="27.826720"><time>1970-01-01T00:00:01.000Z</time></trkpt>
			<trkpt lat="55.492886" lon="27.826408"><time>1970-01-01T00:00:01.000Z</time></trkpt>
			<trkpt lat="55.492676" lon="27.826078"><time>1970-01-01T00:00:01.000Z</time></trkpt>
			<trkpt lat="55.492617" lon="27.825848"><time>1970-01-01T00:00:01.000Z</time></trkpt>
			<trkpt lat="55.492360" lon="27.825416"><time>1970-01-01T00:00:01.000Z</time></trkpt>
			<trkpt lat="55.492245" lon="27.825075"><time>1970-01-01T00:00:01.000Z</time></trkpt>
			<trkpt lat="55.492246" lon="27.825131"><time>1970-01-01T00:00:01.000Z</time></trkpt>
			<trkpt lat="55.492190" lon="27.825177"><time>1970-01-01T00:00:01.000Z</time></trkpt>
			<trkpt lat="55.492241" lon="27.825139"><time>1970-01-01T00:00:01.000Z</time></trkpt>
			<trkpt lat="55.492219" lon="27.825165"><time>1970-01-01T00:00:01.000Z</time></trkpt>
			<trkpt lat="55.492206" lon="27.825142"><time>1970-01-01T00:00:01.000Z</time></trkpt>
			<trkpt lat="55.492204" lon="27.825007"><time>1970-01-01T00:00:01.000Z</time></trkpt>
			<trkpt lat="55.492025" lon="27.824941"><time>1970-01-01T00:00:01.000Z</time></trkpt>
			<trkpt lat="55.491928" lon="27.824857"><time>1970-01-01T00:00:01.000Z</time></trkpt>
			<trkpt lat="55.491867" lon="27.824767"><time>1970-01-01T00:00:01.000Z</time></trkpt>
			<trkpt lat="55.491736" lon="27.824401"><time>1970-01-01T00:00:01.000Z</time></trkpt>
			<trkpt lat="55.491488" lon="27.823971"><time>1970-01-01T00:00:01.000Z</time></trkpt>
			<trkpt lat="55.490822" lon="27.823417"><time>1970-01-01T00:00:01.000Z</time></trkpt>
			<trkpt lat="55.490599" lon="27.822971"><time>1970-01-01T00:00:01.000Z</time></trkpt>
			<trkpt lat="55.490231" lon="27.821870"><time>1970-01-01T00:00:01.000Z</time></trkpt>
			<trkpt lat="55.490129" lon="27.821433"><time>1970-01-01T00:00:01.000Z</time></trkpt>
			<trkpt lat="55.490049" lon="27.821276"><time>1970-01-01T00:00:01.000Z</time></trkpt>
			<trkpt lat="55.489702" lon="27.820955"><time>1970-01-01T00:00:01.000Z</time></trkpt>
			<trkpt lat="55.489583" lon="27.820904"><time>1970-01-01T00:00:01.000Z</time></trkpt>
			<trkpt lat="55.489273" lon="27.820846"><time>1970-01-01T00:00:01.000Z</time></trkpt>
			<trkpt lat="55.488869" lon="27.820892"><time>1970-01-01T00:00:01.000Z</time></trkpt>
			<trkpt lat="55.488562" lon="27.820705"><time>1970-01-01T00:00:01.000Z</time></trkpt>
			<trkpt lat="55.488444" lon="27.820618"><time>1970-01-01T00:00:01.000Z</time></trkpt>
			<trkpt lat="55.488384" lon="27.820505"><time>1970-01-01T00:00:01.000Z</time></trkpt>
			<trkpt lat="55.488214" lon="27.820435"><time>1970-01-01T00:00:01.000Z</time></trkpt>
			<trkpt lat="55.487957" lon="27.820183"><time>1970-01-01T00:00:01.000Z</time></trkpt>
			<trkpt lat="55.487700" lon="27.820032"><time>1970-01-01T00:00:01.000Z</time></trkpt>
			<trkpt lat="55.487192" lon="27.819452"><time>1970-01-01T00:00:01.000Z</time></trkpt>
			<trkpt lat="55.486989" lon="27.819044"><time>1970-01-01T00:00:01.000Z</time></trkpt>
			<trkpt lat="55.486666" lon="27.818610"><time>1970-01-01T00:00:01.000Z</time></trkpt>
			<trkpt lat="55.486517" lon="27.818232"><time>1970-01-01T00:00:01.000Z</time></trkpt>
			<trkpt lat="55.486411" lon="27.818070"><time>1970-01-01T00:00:01.000Z</time></trkpt>
			<trkpt lat="55.486350" lon="27.818041"><time>1970-01-01T00:00:01.000Z</time></trkpt>
			<trkpt lat="55.486152" lon="27.818113"><time>1970-01-01T00:00:01.000Z</time></trkpt>
			<trkpt lat="55.486073" lon="27.817937"><time>1970-01-01T00:00:01.000Z</time></trkpt>
			<trkpt lat="55.485931" lon="27.817932"><time>1970-01-01T00:00:01.000Z</time></trkpt>
			<trkpt lat="55.485940" lon="27.818013"><time>1970-01-01T00:00:01.000Z</time></trkpt>
			<trkpt lat="55.485919" lon="27.817814"><time>1970-01-01T00:00:01.000Z</time></trkpt>
			<trkpt lat="55.485955" lon="27.817832"><time>1970-01-01T00:00:01.000Z</time></trkpt>
			<trkpt lat="55.485919" lon="27.817840"><time>1970-01-01T00:00:01.000Z</time></trkpt>
			<trkpt lat="55.485161" lon="27.816458"><time>1970-01-01T00:00:01.000Z</time></trkpt>
			<trkpt lat="55.484323" lon="27.815104"><time>1970-01-01T00:00:01.000Z</time></trkpt>
			<trkpt lat="55.483555" lon="27.813945"><time>1970-01-01T00:00:01.000Z</time></trkpt>
			<trkpt lat="55.483031" lon="27.813337"><time>1970-01-01T00:00:01.000Z</time></trkpt>
			<trkpt lat="55.482607" lon="27.812261"><time>1970-01-01T00:00:01.000Z</time></trkpt>
			<trkpt lat="55.482118" lon="27.811517"><time>1970-01-01T00:00:01.000Z</time></trkpt>
			<trkpt lat="55.481930" lon="27.811289"><time>1970-01-01T00:00:01.000Z</time></trkpt>
			<trkpt lat="55.481375" lon="27.810440"><time>1970-01-01T00:00:01.000Z</time></trkpt>
			<trkpt lat="55.481084" lon="27.810070"><time>1970-01-01T00:00:01.000Z</time></trkpt>
			<trkpt lat="55.480584" lon="27.809299"><time>1970-01-01T00:00:01.000Z</time></trkpt>
			<trkpt lat="55.480259" lon="27.808918"><time>1970-01-01T00:00:01.000Z</time></trkpt>
			<trkpt lat="55.479870" lon="27.808330"><time>1970-01-01T00:00:01.000Z</time></trkpt>
			<trkpt lat="55.479317" lon="27.807799"><time>1970-01-01T00:00:01.000Z</time></trkpt>
			<trkpt lat="55.479002" lon="27.807420"><time>1970-01-01T00:00:01.000Z</time></trkpt>
			<trkpt lat="55.478848" lon="27.807128"><time>1970-01-01T00:00:01.000Z</time></trkpt>
			<trkpt lat="55.478473" lon="27.806567"><time>1970-01-01T00:00:01.000Z</time></trkpt>
			<trkpt lat="55.478312" lon="27.806148"><time>1970-01-01T00:00:01.000Z</time></trkpt>
			<trkpt lat="55.478214" lon="27.805986"><time>1970-01-01T00:00:01.000Z</time></trkpt>
			<trkpt lat="55.477874" lon="27.805684"><time>1970-01-01T00:00:01.000Z</time></trkpt>
			<trkpt lat="55.477486" lon="27.805156"><time>1970-01-01T00:00:01.000Z</time></trkpt>
			<trkpt lat="55.477140" lon="27.804754"><time>1970-01-01T00:00:01.000Z</time></trkpt>
			<trkpt lat="55.475615" lon="27.802635"><time>1970-01-01T00:00:01.000Z</time></trkpt>
			<trkpt lat="55.475491" lon="27.802489"><time>1970-01-01T00:00:01.000Z</time></trkpt>
			<trkpt lat="55.475356" lon="27.802435"><time>1970-01-01T00:00:01.000Z</time></trkpt>
			<trkpt lat="55.475263" lon="27.802304"><time>1970-01-01T00:00:01.000Z</time></trkpt>
			<trkpt lat="55.475208" lon="27.801898"><time>1970-01-01T00:00:01.000Z</time></trkpt>
			<trkpt lat="55.475136" lon="27.801736"><time>1970-01-01T00:00:01.000Z</time></trkpt>
			<trkpt lat="55.475053" lon="27.801573"><time>1970-01-01T00:00:01.000Z</time></trkpt>
			<trkpt lat="55.474644" lon="27.801042"><time>1970-01-01T00:00:01.000Z</time></trkpt>
			<trkpt lat="55.474215" lon="27.800227"><time>1970-01-01T00:00:01.000Z</time></trkpt>
			<trkpt lat="55.474336" lon="27.799694"><time>1970-01-01T00:00:01.000Z</time></trkpt>
			<trkpt lat="55.474344" lon="27.799397"><time>1970-01-01T00:00:01.000Z</time></trkpt>
			<trkpt lat="55.474303" lon="27.799203"><time>1970-01-01T00:00:01.000Z</time></trkpt>
			<trkpt lat="55.474157" lon="27.798767"><time>1970-01-01T00:00:01.000Z</time></trkpt>
			<trkpt lat="55.473875" lon="27.798234"><time>1970-01-01T00:00:01.000Z</time></trkpt>
			<trkpt lat="55.473639" lon="27.797670"><time>1970-01-01T00:00:01.000Z</time></trkpt>
			<trkpt lat="55.473395" lon="27.796794"><time>1970-01-01T00:00:01.000Z</time></trkpt>
			<trkpt lat="55.473119" lon="27.796353"><time>1970-01-01T00:00:01.000Z</time></trkpt>
			<trkpt lat="55.472665" lon="27.795946"><time>1970-01-01T00:00:01.000Z</time></trkpt>
			<trkpt lat="55.472460" lon="27.795647"><time>1970-01-01T00:00:01.000Z</time></trkpt>
			<trkpt lat="55.472193" lon="27.795098"><time>1970-01-01T00:00:01.000Z</time></trkpt>
			<trkpt lat="55.471879" lon="27.794285"><time>1970-01-01T00:00:01.000Z</time></trkpt>
			<trkpt lat="55.471736" lon="27.793812"><time>1970-01-01T00:00:01.000Z</time></trkpt>
			<trkpt lat="55.471571" lon="27.793472"><time>1970-01-01T00:00:01.000Z</time></trkpt>
			<trkpt lat="55.471633" lon="27.793311"><time>1970-01-01T00:00:01.000Z</time></trkpt>
			<trkpt lat="55.471866" lon="27.793087"><time>1970-01-01T00:00:01.000Z</time></trkpt>
			<trkpt lat="55.472107" lon="27.792941"><time>1970-01-01T00:00:01.000Z</time></trkpt>
			<trkpt lat="55.472549" lon="27.792478"><time>1970-01-01T00:00:01.000Z</time></trkpt>
			<trkpt lat="55.472638" lon="27.792319"><time>1970-01-01T00:00:01.000Z</time></trkpt>
			<trkpt lat="55.472637" lon="27.792235"><time>1970-01-01T00:00:01.000Z</time></trkpt>
			<trkpt lat="55.472345" lon="27.791996"><time>1970-01-01T00:00:01.000Z</time></trkpt>
			<trkpt lat="55.472280" lon="27.791847"><time>1970-01-01T00:00:01.000Z</time></trkpt>
			<trkpt lat="55.472184" lon="27.791806"><time>1970-01-01T00:00:01.000Z</time></trkpt>
			<trkpt lat="55.472243" lon="27.791891"><time>1970-01-01T00:00:01.000Z</time></trkpt>
			<trkpt lat="55.472273" lon="27.791839"><time>1970-01-01T00:00:01.000Z</time></trkpt>
			<trkpt lat="55.472250" lon="27.791641"><time>1970-01-01T00:00:01.000Z</time></trkpt>
			<trkpt lat="55.472440" lon="27.791080"><time>1970-01-01T00:00:01.000Z</time></trkpt>
			<trkpt lat="55.472423" lon="27.790920"><time>1970-01-01T00:00:01.000Z</time></trkpt>
			<trkpt lat="55.472455" lon="27.790902"><time>1970-01-01T00:00:01.000Z</time></trkpt>
			<trkpt lat="55.472372" lon="27.791021"><time>1970-01-01T00:00:01.000Z</time></trkpt>
			<trkpt lat="55.472453" lon="27.790834"><time>1970-01-01T00:00:01.000Z</time></trkpt>
			<trkpt lat="55.472438" lon="27.790896"><time>1970-01-01T00:00:01.000Z</time></trkpt>
			<trkpt lat="55.472454" lon="27.790880"><time>1970-01-01T00:00:01.000Z</time></trkpt>
		</trkseg>
	</trk>
</gpx>