<?xml version="1.0" encoding="UTF-8" standalone="no" ?>
<gpx xmlns="http://www.topografix.com/GPX/1/1" creator="http://nakarte.me" xmlns:xsi="http://www.w3.org/2001/XMLSchema-instance" xsi:schemaLocation="http://www.topografix.com/GPX/1/1 http://www.topografix.com/GPX/1/1/gpx.xsd" version="1.1">
	<wpt lat="55.474682" lon="27.787492">
		<name>Лесная тропа</name>
	</wpt>
	<wpt lat="55.482441" lon="27.793420">
		<name>Вышка</name>
	</wpt>
	<wpt lat="55.483149" lon="27.792760">
		<name>Помост в болоте</name>
	</wpt>
	<wpt lat="55.482435" lon="27.793318">
		<name>Велопарковка</name>
	</wpt>
	<wpt lat="55.515822" lon="27.820516">
		<name>Поляна</name>
	</wpt>
	<wpt lat="55.520918" lon="27.837145">
		<name>Густой лес, завалы</name>
	</wpt>
	<wpt lat="55.523684" lon="27.847939">
		<name>Много воды</name>
	</wpt>
	<wpt lat="55.548759" lon="27.877293">
		<name>Хорошая поляна</name>
	</wpt>
	<wpt lat="55.561481" lon="27.899458">
		<name>Песчаное дно</name>
	</wpt>
	<trk>
		<name>2021-07-10_ельня_сплав</name>
		<trkseg>
			<trkpt lat="55.472487" lon="27.790886"><time>1970-01-01T00:00:01.000Z</time></trkpt>
			<trkpt lat="55.472488" lon="27.790937"><time>1970-01-01T00:00:01.000Z</time></trkpt>
			<trkpt lat="55.472409" lon="27.790904"><time>1970-01-01T00:00:01.000Z</time></trkpt>
			<trkpt lat="55.472174" lon="27.790495"><time>1970-01-01T00:00:01.000Z</time></trkpt>
			<trkpt lat="55.472190" lon="27.790339"><time>1970-01-01T00:00:01.000Z</time></trkpt>
			<trkpt lat="55.472296" lon="27.790040"><time>1970-01-01T00:00:01.000Z</time></trkpt>
			<trkpt lat="55.472723" lon="27.789395"><time>1970-01-01T00:00:01.000Z</time></trkpt>
			<trkpt lat="55.472759" lon="27.789184"><time>1970-01-01T00:00:01.000Z</time></trkpt>
			<trkpt lat="55.473058" lon="27.788490"><time>1970-01-01T00:00:01.000Z</time></trkpt>
			<trkpt lat="55.473385" lon="27.787939"><time>1970-01-01T00:00:01.000Z</time></trkpt>
			<trkpt lat="55.473437" lon="27.787585"><time>1970-01-01T00:00:01.000Z</time></trkpt>
			<trkpt lat="55.473622" lon="27.787253"><time>1970-01-01T00:00:01.000Z</time></trkpt>
			<trkpt lat="55.473689" lon="27.787225"><time>1970-01-01T00:00:01.000Z</time></trkpt>
			<trkpt lat="55.473920" lon="27.787315"><time>1970-01-01T00:00:01.000Z</time></trkpt>
			<trkpt lat="55.474005" lon="27.787313"><time>1970-01-01T00:00:01.000Z</time></trkpt>
			<trkpt lat="55.474477" lon="27.787614"><time>1970-01-01T00:00:01.000Z</time></trkpt>
			<trkpt lat="55.474625" lon="27.787659"><time>1970-01-01T00:00:01.000Z</time></trkpt>
			<trkpt lat="55.474703" lon="27.787625"><time>1970-01-01T00:00:01.000Z</time></trkpt>
			<trkpt lat="55.474812" lon="27.787641"><time>1970-01-01T00:00:01.000Z</time></trkpt>
			<trkpt lat="55.475028" lon="27.787774"><time>1970-01-01T00:00:01.000Z</time></trkpt>
			<trkpt lat="55.475139" lon="27.787776"><time>1970-01-01T00:00:01.000Z</time></trkpt>
			<trkpt lat="55.475227" lon="27.787703"><time>1970-01-01T00:00:01.000Z</time></trkpt>
			<trkpt lat="55.475391" lon="27.787712"><time>1970-01-01T00:00:01.000Z</time></trkpt>
			<trkpt lat="55.475530" lon="27.787670"><time>1970-01-01T00:00:01.000Z</time></trkpt>
			<trkpt lat="55.475752" lon="27.787505"><time>1970-01-01T00:00:01.000Z</time></trkpt>
			<trkpt lat="55.475885" lon="27.787546"><time>1970-01-01T00:00:01.000Z</time></trkpt>
			<trkpt lat="55.476022" lon="27.787628"><time>1970-01-01T00:00:01.000Z</time></trkpt>
			<trkpt lat="55.476302" lon="27.787931"><time>1970-01-01T00:00:01.000Z</time></trkpt>
			<trkpt lat="55.476623" lon="27.788506"><time>1970-01-01T00:00:01.000Z</time></trkpt>
			<trkpt lat="55.476744" lon="27.788637"><time>1970-01-01T00:00:01.000Z</time></trkpt>
			<trkpt lat="55.476784" lon="27.788528"><time>1970-01-01T00:00:01.000Z</time></trkpt>
			<trkpt lat="55.476954" lon="27.788288"><time>1970-01-01T00:00:01.000Z</time></trkpt>
			<trkpt lat="55.477288" lon="27.787587"><time>1970-01-01T00:00:01.000Z</time></trkpt>
			<trkpt lat="55.477524" lon="27.787404"><time>1970-01-01T00:00:01.000Z</time></trkpt>
			<trkpt lat="55.477743" lon="27.787299"><time>1970-01-01T00:00:01.000Z</time></trkpt>
			<trkpt lat="55.478240" lon="27.786544"><time>1970-01-01T00:00:01.000Z</time></trkpt>
			<trkpt lat="55.478485" lon="27.786264"><time>1970-01-01T00:00:01.000Z</time></trkpt>
			<trkpt lat="55.478628" lon="27.786314"><time>1970-01-01T00:00:01.000Z</time></trkpt>
			<trkpt lat="55.478806" lon="27.786476"><time>1970-01-01T00:00:01.000Z</time></trkpt>
			<trkpt lat="55.478944" lon="27.786995"><time>1970-01-01T00:00:01.000Z</time></trkpt>
			<trkpt lat="55.479109" lon="27.787170"><time>1970-01-01T00:00:01.000Z</time></trkpt>
			<trkpt lat="55.479202" lon="27.787192"><time>1970-01-01T00:00:01.000Z</time></trkpt>
			<trkpt lat="55.479305" lon="27.787291"><time>1970-01-01T00:00:01.000Z</time></trkpt>
			<trkpt lat="55.479737" lon="27.787963"><time>1970-01-01T00:00:01.000Z</time></trkpt>
			<trkpt lat="55.479837" lon="27.788057"><time>1970-01-01T00:00:01.000Z</time></trkpt>
			<trkpt lat="55.480136" lon="27.788599"><time>1970-01-01T00:00:01.000Z</time></trkpt>
			<trkpt lat="55.480526" lon="27.789492"><time>1970-01-01T00:00:01.000Z</time></trkpt>
			<trkpt lat="55.480571" lon="27.789541"><time>1970-01-01T00:00:01.000Z</time></trkpt>
			<trkpt lat="55.480618" lon="27.789525"><time>1970-01-01T00:00:01.000Z</time></trkpt>
			<trkpt lat="55.480810" lon="27.789752"><time>1970-01-01T00:00:01.000Z</time></trkpt>
			<trkpt lat="55.481014" lon="27.789910"><time>1970-01-01T00:00:01.000Z</time></trkpt>
			<trkpt lat="55.481134" lon="27.790073"><time>1970-01-01T00:00:01.000Z</time></trkpt>
			<trkpt lat="55.481451" lon="27.790773"><time>1970-01-01T00:00:01.000Z</time></trkpt>
			<trkpt lat="55.481627" lon="27.791408"><time>1970-01-01T00:00:01.000Z</time></trkpt>
			<trkpt lat="55.481777" lon="27.791702"><time>1970-01-01T00:00:01.000Z</time></trkpt>
			<trkpt lat="55.482111" lon="27.792206"><time>1970-01-01T00:00:01.000Z</time></trkpt>
			<trkpt lat="55.482214" lon="27.792808"><time>1970-01-01T00:00:01.000Z</time></trkpt>
			<trkpt lat="55.482347" lon="27.793184"><time>1970-01-01T00:00:01.000Z</time></trkpt>
			<trkpt lat="55.482373" lon="27.793354"><time>1970-01-01T00:00:01.000Z</time></trkpt>
			<trkpt lat="55.482351" lon="27.793591"><time>1970-01-01T00:00:01.000Z</time></trkpt>
			<trkpt lat="55.482397" lon="27.793622"><time>1970-01-01T00:00:01.000Z</time></trkpt>
			<trkpt lat="55.482627" lon="27.793003"><time>1970-01-01T00:00:01.000Z</time></trkpt>
			<trkpt lat="55.482391" lon="27.793809"><time>1970-01-01T00:00:01.000Z</time></trkpt>
			<trkpt lat="55.482399" lon="27.793702"><time>1970-01-01T00:00:01.000Z</time></trkpt>
			<trkpt lat="55.482309" lon="27.794089"><time>1970-01-01T00:00:01.000Z</time></trkpt>
			<trkpt lat="55.482345" lon="27.793980"><time>1970-01-01T00:00:01.000Z</time></trkpt>
			<trkpt lat="55.482425" lon="27.793997"><time>1970-01-01T00:00:01.000Z</time></trkpt>
			<trkpt lat="55.482395" lon="27.793901"><time>1970-01-01T00:00:01.000Z</time></trkpt>
			<trkpt lat="55.482454" lon="27.793805"><time>1970-01-01T00:00:01.000Z</time></trkpt>
			<trkpt lat="55.482478" lon="27.793651"><time>1970-01-01T00:00:01.000Z</time></trkpt>
			<trkpt lat="55.482456" lon="27.793603"><time>1970-01-01T00:00:01.000Z</time></trkpt>
			<trkpt lat="55.482455" lon="27.793730"><time>1970-01-01T00:00:01.000Z</time></trkpt>
			<trkpt lat="55.482429" lon="27.793748"><time>1970-01-01T00:00:01.000Z</time></trkpt>
			<trkpt lat="55.482435" lon="27.793581"><time>1970-01-01T00:00:01.000Z</time></trkpt>
			<trkpt lat="55.482487" lon="27.793503"><time>1970-01-01T00:00:01.000Z</time></trkpt>
			<trkpt lat="55.482378" lon="27.793683"><time>1970-01-01T00:00:01.000Z</time></trkpt>
			<trkpt lat="55.482418" lon="27.793606"><time>1970-01-01T00:00:01.000Z</time></trkpt>
			<trkpt lat="55.482484" lon="27.793675"><time>1970-01-01T00:00:01.000Z</time></trkpt>
			<trkpt lat="55.482484" lon="27.793768"><time>1970-01-01T00:00:01.000Z</time></trkpt>
			<trkpt lat="55.482557" lon="27.793856"><time>1970-01-01T00:00:01.000Z</time></trkpt>
			<trkpt lat="55.482806" lon="27.794925"><time>1970-01-01T00:00:01.000Z</time></trkpt>
			<trkpt lat="55.482909" lon="27.795157"><time>1970-01-01T00:00:01.000Z</time></trkpt>
			<trkpt lat="55.483156" lon="27.795393"><time>1970-01-01T00:00:01.000Z</time></trkpt>
			<trkpt lat="55.483847" lon="27.796347"><time>1970-01-01T00:00:01.000Z</time></trkpt>
			<trkpt lat="55.484018" lon="27.796742"><time>1970-01-01T00:00:01.000Z</time></trkpt>
			<trkpt lat="55.484065" lon="27.797197"><time>1970-01-01T00:00:01.000Z</time></trkpt>
			<trkpt lat="55.484154" lon="27.797457"><time>1970-01-01T00:00:01.000Z</time></trkpt>
			<trkpt lat="55.484355" lon="27.797656"><time>1970-01-01T00:00:01.000Z</time></trkpt>
			<trkpt lat="55.484558" lon="27.797763"><time>1970-01-01T00:00:01.000Z</time></trkpt>
			<trkpt lat="55.484760" lon="27.797922"><time>1970-01-01T00:00:01.000Z</time></trkpt>
			<trkpt lat="55.484850" lon="27.798068"><time>1970-01-01T00:00:01.000Z</time></trkpt>
			<trkpt lat="55.485145" lon="27.798797"><time>1970-01-01T00:00:01.000Z</time></trkpt>
			<trkpt lat="55.485517" lon="27.798879"><time>1970-01-01T00:00:01.000Z</time></trkpt>
			<trkpt lat="55.485738" lon="27.798756"><time>1970-01-01T00:00:01.000Z</time></trkpt>
			<trkpt lat="55.486114" lon="27.798758"><time>1970-01-01T00:00:01.000Z</time></trkpt>
			<trkpt lat="55.486430" lon="27.798891"><time>1970-01-01T00:00:01.000Z</time></trkpt>
			<trkpt lat="55.486508" lon="27.799005"><time>1970-01-01T00:00:01.000Z</time></trkpt>
			<trkpt lat="55.486809" lon="27.799258"><time>1970-01-01T00:00:01.000Z</time></trkpt>
			<trkpt lat="55.487128" lon="27.799230"><time>1970-01-01T00:00:01.000Z</time></trkpt>
			<trkpt lat="55.487514" lon="27.799135"><time>1970-01-01T00:00:01.000Z</time></trkpt>
			<trkpt lat="55.488316" lon="27.799328"><time>1970-01-01T00:00:01.000Z</time></trkpt>
			<trkpt lat="55.488441" lon="27.799320"><time>1970-01-01T00:00:01.000Z</time></trkpt>
			<trkpt lat="55.488480" lon="27.799362"><time>1970-01-01T00:00:01.000Z</time></trkpt>
			<trkpt lat="55.488693" lon="27.799231"><time>1970-01-01T00:00:01.000Z</time></trkpt>
			<trkpt lat="55.488874" lon="27.799205"><time>1970-01-01T00:00:01.000Z</time></trkpt>
			<trkpt lat="55.488922" lon="27.799158"><time>1970-01-01T00:00:01.000Z</time></trkpt>
			<trkpt lat="55.488948" lon="27.799249"><time>1970-01-01T00:00:01.000Z</time></trkpt>
			<trkpt lat="55.488930" lon="27.799199"><time>1970-01-01T00:00:01.000Z</time></trkpt>
			<trkpt lat="55.489046" lon="27.799022"><time>1970-01-01T00:00:01.000Z</time></trkpt>
			<trkpt lat="55.489112" lon="27.799032"><time>1970-01-01T00:00:01.000Z</time></trkpt>
			<trkpt lat="55.489279" lon="27.798950"><time>1970-01-01T00:00:01.000Z</time></trkpt>
			<trkpt lat="55.489916" lon="27.798818"><time>1970-01-01T00:00:01.000Z</time></trkpt>
			<trkpt lat="55.490016" lon="27.798738"><time>1970-01-01T00:00:01.000Z</time></trkpt>
			<trkpt lat="55.490190" lon="27.798501"><time>1970-01-01T00:00:01.000Z</time></trkpt>
			<trkpt lat="55.490490" lon="27.798650"><time>1970-01-01T00:00:01.000Z</time></trkpt>
			<trkpt lat="55.490575" lon="27.798650"><time>1970-01-01T00:00:01.000Z</time></trkpt>
			<trkpt lat="55.490659" lon="27.798577"><time>1970-01-01T00:00:01.000Z</time></trkpt>
			<trkpt lat="55.490842" lon="27.798595"><time>1970-01-01T00:00:01.000Z</time></trkpt>
			<trkpt lat="55.490926" lon="27.798542"><time>1970-01-01T00:00:01.000Z</time></trkpt>
			<trkpt lat="55.491027" lon="27.798534"><time>1970-01-01T00:00:01.000Z</time></trkpt>
			<trkpt lat="55.491123" lon="27.798578"><time>1970-01-01T00:00:01.000Z</time></trkpt>
			<trkpt lat="55.491328" lon="27.798495"><time>1970-01-01T00:00:01.000Z</time></trkpt>
			<trkpt lat="55.491409" lon="27.798529"><time>1970-01-01T00:00:01.000Z</time></trkpt>
			<trkpt lat="55.491574" lon="27.798693"><time>1970-01-01T00:00:01.000Z</time></trkpt>
			<trkpt lat="55.491679" lon="27.798653"><time>1970-01-01T00:00:01.000Z</time></trkpt>
			<trkpt lat="55.491935" lon="27.798779"><time>1970-01-01T00:00:01.000Z</time></trkpt>
			<trkpt lat="55.492128" lon="27.798921"><time>1970-01-01T00:00:01.000Z</time></trkpt>
			<trkpt lat="55.492499" lon="27.798671"><time>1970-01-01T00:00:01.000Z</time></trkpt>
			<trkpt lat="55.492590" lon="27.798726"><time>1970-01-01T00:00:01.000Z</time></trkpt>
			<trkpt lat="55.492767" lon="27.798722"><time>1970-01-01T00:00:01.000Z</time></trkpt>
			<trkpt lat="55.493118" lon="27.798486"><time>1970-01-01T00:00:01.000Z</time></trkpt>
			<trkpt lat="55.493334" lon="27.798270"><time>1970-01-01T00:00:01.000Z</time></trkpt>
			<trkpt lat="55.493549" lon="27.798160"><time>1970-01-01T00:00:01.000Z</time></trkpt>
			<trkpt lat="55.493653" lon="27.798156"><time>1970-01-01T00:00:01.000Z</time></trkpt>
			<trkpt lat="55.493748" lon="27.798106"><time>1970-01-01T00:00:01.000Z</time></trkpt>
			<trkpt lat="55.493999" lon="27.797875"><time>1970-01-01T00:00:01.000Z</time></trkpt>
			<trkpt lat="55.494237" lon="27.797557"><time>1970-01-01T00:00:01.000Z</time></trkpt>
			<trkpt lat="55.494437" lon="27.797540"><time>1970-01-01T00:00:01.000Z</time></trkpt>
			<trkpt lat="55.494595" lon="27.797472"><time>1970-01-01T00:00:01.000Z</time></trkpt>
			<trkpt lat="55.494852" lon="27.797207"><time>1970-01-01T00:00:01.000Z</time></trkpt>
			<trkpt lat="55.494907" lon="27.797163"><time>1970-01-01T00:00:01.000Z</time></trkpt>
			<trkpt lat="55.494967" lon="27.797183"><time>1970-01-01T00:00:01.000Z</time></trkpt>
			<trkpt lat="55.495365" lon="27.796828"><time>1970-01-01T00:00:01.000Z</time></trkpt>
			<trkpt lat="55.495907" lon="27.796143"><time>1970-01-01T00:00:01.000Z</time></trkpt>
			<trkpt lat="55.496006" lon="27.795940"><time>1970-01-01T00:00:01.000Z</time></trkpt>
			<trkpt lat="55.496055" lon="27.795937"><time>1970-01-01T00:00:01.000Z</time></trkpt>
			<trkpt lat="55.496103" lon="27.796005"><time>1970-01-01T00:00:01.000Z</time></trkpt>
			<trkpt lat="55.496099" lon="27.796200"><time>1970-01-01T00:00:01.000Z</time></trkpt>
			<trkpt lat="55.496206" lon="27.796426"><time>1970-01-01T00:00:01.000Z</time></trkpt>
			<trkpt lat="55.496714" lon="27.796248"><time>1970-01-01T00:00:01.000Z</time></trkpt>
			<trkpt lat="55.496766" lon="27.796274"><time>1970-01-01T00:00:01.000Z</time></trkpt>
			<trkpt lat="55.496918" lon="27.796145"><time>1970-01-01T00:00:01.000Z</time></trkpt>
			<trkpt lat="55.497007" lon="27.796173"><time>1970-01-01T00:00:01.000Z</time></trkpt>
			<trkpt lat="55.497357" lon="27.796051"><time>1970-01-01T00:00:01.000Z</time></trkpt>
			<trkpt lat="55.497556" lon="27.796076"><time>1970-01-01T00:00:01.000Z</time></trkpt>
			<trkpt lat="55.497631" lon="27.796000"><time>1970-01-01T00:00:01.000Z</time></trkpt>
			<trkpt lat="55.497922" lon="27.795937"><time>1970-01-01T00:00:01.000Z</time></trkpt>
			<trkpt lat="55.498080" lon="27.795820"><time>1970-01-01T00:00:01.000Z</time></trkpt>
			<trkpt lat="55.498325" lon="27.795726"><time>1970-01-01T00:00:01.000Z</time></trkpt>
			<trkpt lat="55.498496" lon="27.795788"><time>1970-01-01T00:00:01.000Z</time></trkpt>
			<trkpt lat="55.498667" lon="27.795912"><time>1970-01-01T00:00:01.000Z</time></trkpt>
			<trkpt lat="55.498718" lon="27.795909"><time>1970-01-01T00:00:01.000Z</time></trkpt>
			<trkpt lat="55.498748" lon="27.795837"><time>1970-01-01T00:00:01.000Z</time></trkpt>
			<trkpt lat="55.498820" lon="27.795817"><time>1970-01-01T00:00:01.000Z</time></trkpt>
			<trkpt lat="55.499022" lon="27.795868"><time>1970-01-01T00:00:01.000Z</time></trkpt>
			<trkpt lat="55.499081" lon="27.795923"><time>1970-01-01T00:00:01.000Z</time></trkpt>
			<trkpt lat="55.499169" lon="27.795890"><time>1970-01-01T00:00:01.000Z</time></trkpt>
			<trkpt lat="55.499414" lon="27.796118"><time>1970-01-01T00:00:01.000Z</time></trkpt>
			<trkpt lat="55.499603" lon="27.796119"><time>1970-01-01T00:00:01.000Z</time></trkpt>
			<trkpt lat="55.499685" lon="27.796177"><time>1970-01-01T00:00:01.000Z</time></trkpt>
			<trkpt lat="55.499807" lon="27.796393"><time>1970-01-01T00:00:01.000Z</time></trkpt>
			<trkpt lat="55.499903" lon="27.796673"><time>1970-01-01T00:00:01.000Z</time></trkpt>
			<trkpt lat="55.499953" lon="27.797006"><time>1970-01-01T00:00:01.000Z</time></trkpt>
			<trkpt lat="55.500067" lon="27.797233"><time>1970-01-01T00:00:01.000Z</time></trkpt>
			<trkpt lat="55.500085" lon="27.797473"><time>1970-01-01T00:00:01.000Z</time></trkpt>
			<trkpt lat="55.500264" lon="27.797830"><time>1970-01-01T00:00:01.000Z</time></trkpt>
			<trkpt lat="55.500286" lon="27.798176"><time>1970-01-01T00:00:01.000Z</time></trkpt>
			<trkpt lat="55.500397" lon="27.798611"><time>1970-01-01T00:00:01.000Z</time></trkpt>
			<trkpt lat="55.500399" lon="27.798783"><time>1970-01-01T00:00:01.000Z</time></trkpt>
			<trkpt lat="55.500437" lon="27.798872"><time>1970-01-01T00:00:01.000Z</time></trkpt>
			<trkpt lat="55.500554" lon="27.798947"><time>1970-01-01T00:00:01.000Z</time></trkpt>
			<trkpt lat="55.500607" lon="27.799042"><time>1970-01-01T00:00:01.000Z</time></trkpt>
			<trkpt lat="55.500657" lon="27.799290"><time>1970-01-01T00:00:01.000Z</time></trkpt>
			<trkpt lat="55.500737" lon="27.799427"><time>1970-01-01T00:00:01.000Z</time></trkpt>
			<trkpt lat="55.500804" lon="27.799656"><time>1970-01-01T00:00:01.000Z</time></trkpt>
			<trkpt lat="55.500890" lon="27.800043"><time>1970-01-01T00:00:01.000Z</time></trkpt>
			<trkpt lat="55.501008" lon="27.800254"><time>1970-01-01T00:00:01.000Z</time></trkpt>
			<trkpt lat="55.501024" lon="27.800521"><time>1970-01-01T00:00:01.000Z</time></trkpt>
			<trkpt lat="55.501119" lon="27.800741"><time>1970-01-01T00:00:01.000Z</time></trkpt>
			<trkpt lat="55.501253" lon="27.800788"><time>1970-01-01T00:00:01.000Z</time></trkpt>
			<trkpt lat="55.501307" lon="27.800859"><time>1970-01-01T00:00:01.000Z</time></trkpt>
			<trkpt lat="55.501468" lon="27.800868"><time>1970-01-01T00:00:01.000Z</time></trkpt>
			<trkpt lat="55.501639" lon="27.800946"><time>1970-01-01T00:00:01.000Z</time></trkpt>
			<trkpt lat="55.501706" lon="27.800928"><time>1970-01-01T00:00:01.000Z</time></trkpt>
			<trkpt lat="55.501889" lon="27.800696"><time>1970-01-01T00:00:01.000Z</time></trkpt>
			<trkpt lat="55.502067" lon="27.800581"><time>1970-01-01T00:00:01.000Z</time></trkpt>
			<trkpt lat="55.502177" lon="27.800602"><time>1970-01-01T00:00:01.000Z</time></trkpt>
			<trkpt lat="55.502380" lon="27.800490"><time>1970-01-01T00:00:01.000Z</time></trkpt>
			<trkpt lat="55.502579" lon="27.800564"><time>1970-01-01T00:00:01.000Z</time></trkpt>
			<trkpt lat="55.503113" lon="27.800506"><time>1970-01-01T00:00:01.000Z</time></trkpt>
			<trkpt lat="55.503361" lon="27.800417"><time>1970-01-01T00:00:01.000Z</time></trkpt>
			<trkpt lat="55.503540" lon="27.800409"><time>1970-01-01T00:00:01.000Z</time></trkpt>
			<trkpt lat="55.503703" lon="27.800358"><time>1970-01-01T00:00:01.000Z</time></trkpt>
			<trkpt lat="55.503829" lon="27.800359"><time>1970-01-01T00:00:01.000Z</time></trkpt>
			<trkpt lat="55.503824" lon="27.800383"><time>1970-01-01T00:00:01.000Z</time></trkpt>
			<trkpt lat="55.503802" lon="27.800291"><time>1970-01-01T00:00:01.000Z</time></trkpt>
			<trkpt lat="55.503825" lon="27.800617"><time>1970-01-01T00:00:01.000Z</time></trkpt>
			<trkpt lat="55.503765" lon="27.800910"><time>1970-01-01T00:00:01.000Z</time></trkpt>
			<trkpt lat="55.503821" lon="27.801081"><time>1970-01-01T00:00:01.000Z</time></trkpt>
			<trkpt lat="55.503940" lon="27.801268"><time>1970-01-01T00:00:01.000Z</time></trkpt>
			<trkpt lat="55.504323" lon="27.802280"><time>1970-01-01T00:00:01.000Z</time></trkpt>
			<trkpt lat="55.504335" lon="27.802517"><time>1970-01-01T00:00:01.000Z</time></trkpt>
			<trkpt lat="55.504301" lon="27.802796"><time>1970-01-01T00:00:01.000Z</time></trkpt>
			<trkpt lat="55.504353" lon="27.802931"><time>1970-01-01T00:00:01.000Z</time></trkpt>
			<trkpt lat="55.504325" lon="27.803115"><time>1970-01-01T00:00:01.000Z</time></trkpt>
			<trkpt lat="55.504376" lon="27.803265"><time>1970-01-01T00:00:01.000Z</time></trkpt>
			<trkpt lat="55.504609" lon="27.803595"><time>1970-01-01T00:00:01.000Z</time></trkpt>
			<trkpt lat="55.504874" lon="27.804235"><time>1970-01-01T00:00:01.000Z</time></trkpt>
			<trkpt lat="55.504981" lon="27.804365"><time>1970-01-01T00:00:01.000Z</time></trkpt>
			<trkpt lat="55.505169" lon="27.804418"><time>1970-01-01T00:00:01.000Z</time></trkpt>
			<trkpt lat="55.505234" lon="27.804368"><time>1970-01-01T00:00:01.000Z</time></trkpt>
			<trkpt lat="55.505677" lon="27.804210"><time>1970-01-01T00:00:01.000Z</time></trkpt>
			<trkpt lat="55.505767" lon="27.804168"><time>1970-01-01T00:00:01.000Z</time></trkpt>
			<trkpt lat="55.505939" lon="27.803933"><time>1970-01-01T00:00:01.000Z</time></trkpt>
			<trkpt lat="55.506185" lon="27.803801"><time>1970-01-01T00:00:01.000Z</time></trkpt>
			<trkpt lat="55.506308" lon="27.803772"><time>1970-01-01T00:00:01.000Z</time></trkpt>
			<trkpt lat="55.506560" lon="27.803809"><time>1970-01-01T00:00:01.000Z</time></trkpt>
			<trkpt lat="55.506804" lon="27.803910"><time>1970-01-01T00:00:01.000Z</time></trkpt>
			<trkpt lat="55.506985" lon="27.804159"><time>1970-01-01T00:00:01.000Z</time></trkpt>
			<trkpt lat="55.507079" lon="27.804142"><time>1970-01-01T00:00:01.000Z</time></trkpt>
			<trkpt lat="55.507166" lon="27.804079"><time>1970-01-01T00:00:01.000Z</time></trkpt>
			<trkpt lat="55.507297" lon="27.804089"><time>1970-01-01T00:00:01.000Z</time></trkpt>
			<trkpt lat="55.507346" lon="27.804275"><time>1970-01-01T00:00:01.000Z</time></trkpt>
			<trkpt lat="55.507492" lon="27.804252"><time>1970-01-01T00:00:01.000Z</time></trkpt>
			<trkpt lat="55.507478" lon="27.804193"><time>1970-01-01T00:00:01.000Z</time></trkpt>
			<trkpt lat="55.507755" lon="27.804058"><time>1970-01-01T00:00:01.000Z</time></trkpt>
			<trkpt lat="55.507786" lon="27.804011"><time>1970-01-01T00:00:01.000Z</time></trkpt>
			<trkpt lat="55.507885" lon="27.803999"><time>1970-01-01T00:00:01.000Z</time></trkpt>
			<trkpt lat="55.508166" lon="27.804055"><time>1970-01-01T00:00:01.000Z</time></trkpt>
			<trkpt lat="55.508272" lon="27.803976"><time>1970-01-01T00:00:01.000Z</time></trkpt>
			<trkpt lat="55.508273" lon="27.804068"><time>1970-01-01T00:00:01.000Z</time></trkpt>
			<trkpt lat="55.508358" lon="27.803963"><time>1970-01-01T00:00:01.000Z</time></trkpt>
			<trkpt lat="55.508598" lon="27.803931"><time>1970-01-01T00:00:01.000Z</time></trkpt>
			<trkpt lat="55.508740" lon="27.803832"><time>1970-01-01T00:00:01.000Z</time></trkpt>
			<trkpt lat="55.509356" lon="27.803641"><time>1970-01-01T00:00:01.000Z</time></trkpt>
			<trkpt lat="55.509660" lon="27.803458"><time>1970-01-01T00:00:01.000Z</time></trkpt>
			<trkpt lat="55.509937" lon="27.803406"><time>1970-01-01T00:00:01.000Z</time></trkpt>
			<trkpt lat="55.510159" lon="27.803423"><time>1970-01-01T00:00:01.000Z</time></trkpt>
			<trkpt lat="55.510350" lon="27.803312"><time>1970-01-01T00:00:01.000Z</time></trkpt>
			<trkpt lat="55.510332" lon="27.803297"><time>1970-01-01T00:00:01.000Z</time></trkpt>
			<trkpt lat="55.510344" lon="27.803351"><time>1970-01-01T00:00:01.000Z</time></trkpt>
			<trkpt lat="55.510354" lon="27.803250"><time>1970-01-01T00:00:01.000Z</time></trkpt>
			<trkpt lat="55.510346" lon="27.803462"><time>1970-01-01T00:00:01.000Z</time></trkpt>
			<trkpt lat="55.510313" lon="27.803412"><time>1970-01-01T00:00:01.000Z</time></trkpt>
			<trkpt lat="55.510335" lon="27.803332"><time>1970-01-01T00:00:01.000Z</time></trkpt>
			<trkpt lat="55.510254" lon="27.803292"><time>1970-01-01T00:00:01.000Z</time></trkpt>
			<trkpt lat="55.510275" lon="27.803337"><time>1970-01-01T00:00:01.000Z</time></trkpt>
			<trkpt lat="55.510308" lon="27.803290"><time>1970-01-01T00:00:01.000Z</time></trkpt>
			<trkpt lat="55.510328" lon="27.803308"><time>1970-01-01T00:00:01.000Z</time></trkpt>
			<trkpt lat="55.510406" lon="27.803451"><time>1970-01-01T00:00:01.000Z</time></trkpt>
			<trkpt lat="55.510531" lon="27.804173"><time>1970-01-01T00:00:01.000Z</time></trkpt>
			<trkpt lat="55.510684" lon="27.804728"><time>1970-01-01T00:00:01.000Z</time></trkpt>
			<trkpt lat="55.510754" lon="27.805271"><time>1970-01-01T00:00:01.000Z</time></trkpt>
			<trkpt lat="55.511040" lon="27.806163"><time>1970-01-01T00:00:01.000Z</time></trkpt>
			<trkpt lat="55.511168" lon="27.806441"><time>1970-01-01T00:00:01.000Z</time></trkpt>
			<trkpt lat="55.511327" lon="27.806633"><time>1970-01-01T00:00:01.000Z</time></trkpt>
			<trkpt lat="55.511504" lon="27.807097"><time>1970-01-01T00:00:01.000Z</time></trkpt>
			<trkpt lat="55.511762" lon="27.807613"><time>1970-01-01T00:00:01.000Z</time></trkpt>
			<trkpt lat="55.511997" lon="27.808274"><time>1970-01-01T00:00:01.000Z</time></trkpt>
			<trkpt lat="55.512377" lon="27.808943"><time>1970-01-01T00:00:01.000Z</time></trkpt>
			<trkpt lat="55.512618" lon="27.809468"><time>1970-01-01T00:00:01.000Z</time></trkpt>
			<trkpt lat="55.512906" lon="27.809997"><time>1970-01-01T00:00:01.000Z</time></trkpt>
			<trkpt lat="55.513070" lon="27.810108"><time>1970-01-01T00:00:01.000Z</time></trkpt>
			<trkpt lat="55.513328" lon="27.810405"><time>1970-01-01T00:00:01.000Z</time></trkpt>
			<trkpt lat="55.513631" lon="27.811102"><time>1970-01-01T00:00:01.000Z</time></trkpt>
			<trkpt lat="55.514016" lon="27.811722"><time>1970-01-01T00:00:01.000Z</time></trkpt>
			<trkpt lat="55.514038" lon="27.811987"><time>1970-01-01T00:00:01.000Z</time></trkpt>
			<trkpt lat="55.514141" lon="27.812225"><time>1970-01-01T00:00:01.000Z</time></trkpt>
			<trkpt lat="55.514130" lon="27.812405"><time>1970-01-01T00:00:01.000Z</time></trkpt>
			<trkpt lat="55.514163" lon="27.812545"><time>1970-01-01T00:00:01.000Z</time></trkpt>
			<trkpt lat="55.514240" lon="27.812769"><time>1970-01-01T00:00:01.000Z</time></trkpt>
			<trkpt lat="55.514311" lon="27.812854"><time>1970-01-01T00:00:01.000Z</time></trkpt>
			<trkpt lat="55.514398" lon="27.813127"><time>1970-01-01T00:00:01.000Z</time></trkpt>
			<trkpt lat="55.514534" lon="27.814211"><time>1970-01-01T00:00:01.000Z</time></trkpt>
			<trkpt lat="55.514579" lon="27.814365"><time>1970-01-01T00:00:01.000Z</time></trkpt>
			<trkpt lat="55.514700" lon="27.814565"><time>1970-01-01T00:00:01.000Z</time></trkpt>
			<trkpt lat="55.515022" lon="27.816063"><time>1970-01-01T00:00:01.000Z</time></trkpt>
			<trkpt lat="55.515199" lon="27.816615"><time>1970-01-01T00:00:01.000Z</time></trkpt>
			<trkpt lat="55.515235" lon="27.817243"><time>1970-01-01T00:00:01.000Z</time></trkpt>
			<trkpt lat="55.515213" lon="27.817707"><time>1970-01-01T00:00:01.000Z</time></trkpt>
			<trkpt lat="55.515239" lon="27.817893"><time>1970-01-01T00:00:01.000Z</time></trkpt>
			<trkpt lat="55.515206" lon="27.818074"><time>1970-01-01T00:00:01.000Z</time></trkpt>
			<trkpt lat="55.515228" lon="27.818388"><time>1970-01-01T00:00:01.000Z</time></trkpt>
			<trkpt lat="55.515448" lon="27.819093"><time>1970-01-01T00:00:01.000Z</time></trkpt>
			<trkpt lat="55.515586" lon="27.819319"><time>1970-01-01T00:00:01.000Z</time></trkpt>
			<trkpt lat="55.515669" lon="27.819607"><time>1970-01-01T00:00:01.000Z</time></trkpt>
			<trkpt lat="55.515732" lon="27.820008"><time>1970-01-01T00:00:01.000Z</time></trkpt>
			<trkpt lat="55.515623" lon="27.820343"><time>1970-01-01T00:00:01.000Z</time></trkpt>
			<trkpt lat="55.515632" lon="27.820477"><time>1970-01-01T00:00:01.000Z</time></trkpt>
			<trkpt lat="55.515714" lon="27.820689"><time>1970-01-01T00:00:01.000Z</time></trkpt>
			<trkpt lat="55.515746" lon="27.820616"><time>1970-01-01T00:00:01.000Z</time></trkpt>
			<trkpt lat="55.515810" lon="27.820653"><time>1970-01-01T00:00:01.000Z</time></trkpt>
			<trkpt lat="55.515787" lon="27.820639"><time>1970-01-01T00:00:01.000Z</time></trkpt>
			<trkpt lat="55.515778" lon="27.820673"><time>1970-01-01T00:00:01.000Z</time></trkpt>
			<trkpt lat="55.515833" lon="27.820532"><time>1970-01-01T00:00:01.000Z</time></trkpt>
			<trkpt lat="55.515850" lon="27.820585"><time>1970-01-01T00:00:01.000Z</time></trkpt>
			<trkpt lat="55.515808" lon="27.820615"><time>1970-01-01T00:00:01.000Z</time></trkpt>
			<trkpt lat="55.515831" lon="27.820588"><time>1970-01-01T00:00:01.000Z</time></trkpt>
			<trkpt lat="55.515748" lon="27.820548"><time>1970-01-01T00:00:01.000Z</time></trkpt>
			<trkpt lat="55.515757" lon="27.820482"><time>1970-01-01T00:00:01.000Z</time></trkpt>
			<trkpt lat="55.515729" lon="27.820515"><time>1970-01-01T00:00:01.000Z</time></trkpt>
			<trkpt lat="55.515849" lon="27.820753"><time>1970-01-01T00:00:01.000Z</time></trkpt>
			<trkpt lat="55.515874" lon="27.820730"><time>1970-01-01T00:00:01.000Z</time></trkpt>
			<trkpt lat="55.515801" lon="27.820763"><time>1970-01-01T00:00:01.000Z</time></trkpt>
			<trkpt lat="55.515782" lon="27.820618"><time>1970-01-01T00:00:01.000Z</time></trkpt>
			<trkpt lat="55.515801" lon="27.820650"><time>1970-01-01T00:00:01.000Z</time></trkpt>
			<trkpt lat="55.515748" lon="27.820636"><time>1970-01-01T00:00:01.000Z</time></trkpt>
			<trkpt lat="55.515775" lon="27.820595"><time>1970-01-01T00:00:01.000Z</time></trkpt>
			<trkpt lat="55.515810" lon="27.820608"><time>1970-01-01T00:00:01.000Z</time></trkpt>
			<trkpt lat="55.515805" lon="27.820631"><time>1970-01-01T00:00:01.000Z</time></trkpt>
			<trkpt lat="55.515777" lon="27.820481"><time>1970-01-01T00:00:01.000Z</time></trkpt>
			<trkpt lat="55.515698" lon="27.820357"><time>1970-01-01T00:00:01.000Z</time></trkpt>
			<trkpt lat="55.515761" lon="27.820591"><time>1970-01-01T00:00:01.000Z</time></trkpt>
			<trkpt lat="55.515775" lon="27.820542"><time>1970-01-01T00:00:01.000Z</time></trkpt>
			<trkpt lat="55.515802" lon="27.820609"><time>1970-01-01T00:00:01.000Z</time></trkpt>
			<trkpt lat="55.515799" lon="27.820551"><time>1970-01-01T00:00:01.000Z</time></trkpt>
			<trkpt lat="55.515776" lon="27.820632"><time>1970-01-01T00:00:01.000Z</time></trkpt>
			<trkpt lat="55.515754" lon="27.820560"><time>1970-01-01T00:00:01.000Z</time></trkpt>
			<trkpt lat="55.515847" lon="27.820703"><time>1970-01-01T00:00:01.000Z</time></trkpt>
			<trkpt lat="55.515830" lon="27.820730"><time>1970-01-01T00:00:01.000Z</time></trkpt>
			<trkpt lat="55.515792" lon="27.820662"><time>1970-01-01T00:00:01.000Z</time></trkpt>
			<trkpt lat="55.515906" lon="27.821036"><time>1970-01-01T00:00:01.000Z</time></trkpt>
			<trkpt lat="55.515946" lon="27.821334"><time>1970-01-01T00:00:01.000Z</time></trkpt>
			<trkpt lat="55.516103" lon="27.821769"><time>1970-01-01T00:00:01.000Z</time></trkpt>
			<trkpt lat="55.516228" lon="27.821950"><time>1970-01-01T00:00:01.000Z</time></trkpt>
			<trkpt lat="55.516374" lon="27.822316"><time>1970-01-01T00:00:01.000Z</time></trkpt>
			<trkpt lat="55.516431" lon="27.822339"><time>1970-01-01T00:00:01.000Z</time></trkpt>
			<trkpt lat="55.516582" lon="27.822689"><time>1970-01-01T00:00:01.000Z</time></trkpt>
			<trkpt lat="55.516886" lon="27.823116"><time>1970-01-01T00:00:01.000Z</time></trkpt>
			<trkpt lat="55.517028" lon="27.823417"><time>1970-01-01T00:00:01.000Z</time></trkpt>
			<trkpt lat="55.517170" lon="27.823567"><time>1970-01-01T00:00:01.000Z</time></trkpt>
			<trkpt lat="55.517232" lon="27.823576"><time>1970-01-01T00:00:01.000Z</time></trkpt>
			<trkpt lat="55.517300" lon="27.823637"><time>1970-01-01T00:00:01.000Z</time></trkpt>
			<trkpt lat="55.517484" lon="27.823987"><time>1970-01-01T00:00:01.000Z</time></trkpt>
			<trkpt lat="55.517632" lon="27.824191"><time>1970-01-01T00:00:01.000Z</time></trkpt>
			<trkpt lat="55.517960" lon="27.824969"><time>1970-01-01T00:00:01.000Z</time></trkpt>
			<trkpt lat="55.518136" lon="27.825155"><time>1970-01-01T00:00:01.000Z</time></trkpt>
			<trkpt lat="55.518205" lon="27.825289"><time>1970-01-01T00:00:01.000Z</time></trkpt>
			<trkpt lat="55.518309" lon="27.825325"><time>1970-01-01T00:00:01.000Z</time></trkpt>
			<trkpt lat="55.518597" lon="27.825622"><time>1970-01-01T00:00:01.000Z</time></trkpt>
			<trkpt lat="55.518702" lon="27.825912"><time>1970-01-01T00:00:01.000Z</time></trkpt>
			<trkpt lat="55.518891" lon="27.826201"><time>1970-01-01T00:00:01.000Z</time></trkpt>
			<trkpt lat="55.519035" lon="27.826339"><time>1970-01-01T00:00:01.000Z</time></trkpt>
			<trkpt lat="55.519186" lon="27.826394"><time>1970-01-01T00:00:01.000Z</time></trkpt>
			<trkpt lat="55.519307" lon="27.826722"><time>1970-01-01T00:00:01.000Z</time></trkpt>
			<trkpt lat="55.519354" lon="27.827129"><time>1970-01-01T00:00:01.000Z</time></trkpt>
			<trkpt lat="55.519477" lon="27.827487"><time>1970-01-01T00:00:01.000Z</time></trkpt>
			<trkpt lat="55.519456" lon="27.827963"><time>1970-01-01T00:00:01.000Z</time></trkpt>
			<trkpt lat="55.519393" lon="27.828289"><time>1970-01-01T00:00:01.000Z</time></trkpt>
			<trkpt lat="55.519149" lon="27.828813"><time>1970-01-01T00:00:01.000Z</time></trkpt>
			<trkpt lat="55.519093" lon="27.829015"><time>1970-01-01T00:00:01.000Z</time></trkpt>
			<trkpt lat="55.518980" lon="27.829166"><time>1970-01-01T00:00:01.000Z</time></trkpt>
			<trkpt lat="55.518940" lon="27.829670"><time>1970-01-01T00:00:01.000Z</time></trkpt>
			<trkpt lat="55.518750" lon="27.830174"><time>1970-01-01T00:00:01.000Z</time></trkpt>
			<trkpt lat="55.518696" lon="27.830576"><time>1970-01-01T00:00:01.000Z</time></trkpt>
			<trkpt lat="55.518713" lon="27.831234"><time>1970-01-01T00:00:01.000Z</time></trkpt>
			<trkpt lat="55.518811" lon="27.831563"><time>1970-01-01T00:00:01.000Z</time></trkpt>
			<trkpt lat="55.518926" lon="27.832379"><time>1970-01-01T00:00:01.000Z</time></trkpt>
			<trkpt lat="55.519021" lon="27.832633"><time>1970-01-01T00:00:01.000Z</time></trkpt>
			<trkpt lat="55.519020" lon="27.832774"><time>1970-01-01T00:00:01.000Z</time></trkpt>
			<trkpt lat="55.519102" lon="27.833081"><time>1970-01-01T00:00:01.000Z</time></trkpt>
			<trkpt lat="55.519292" lon="27.833596"><time>1970-01-01T00:00:01.000Z</time></trkpt>
			<trkpt lat="55.519354" lon="27.833864"><time>1970-01-01T00:00:01.000Z</time></trkpt>
			<trkpt lat="55.519380" lon="27.834263"><time>1970-01-01T00:00:01.000Z</time></trkpt>
			<trkpt lat="55.519438" lon="27.834397"><time>1970-01-01T00:00:01.000Z</time></trkpt>
			<trkpt lat="55.519447" lon="27.834559"><time>1970-01-01T00:00:01.000Z</time></trkpt>
			<trkpt lat="55.519508" lon="27.834753"><time>1970-01-01T00:00:01.000Z</time></trkpt>
			<trkpt lat="55.519619" lon="27.834906"><time>1970-01-01T00:00:01.000Z</time></trkpt>
			<trkpt lat="55.519640" lon="27.835035"><time>1970-01-01T00:00:01.000Z</time></trkpt>
			<trkpt lat="55.519886" lon="27.835370"><time>1970-01-01T00:00:01.000Z</time></trkpt>
			<trkpt lat="55.519905" lon="27.835503"><time>1970-01-01T00:00:01.000Z</time></trkpt>
			<trkpt lat="55.520015" lon="27.835709"><time>1970-01-01T00:00:01.000Z</time></trkpt>
			<trkpt lat="55.520031" lon="27.835808"><time>1970-01-01T00:00:01.000Z</time></trkpt>
			<trkpt lat="55.520155" lon="27.835921"><time>1970-01-01T00:00:01.000Z</time></trkpt>
			<trkpt lat="55.520478" lon="27.836382"><time>1970-01-01T00:00:01.000Z</time></trkpt>
			<trkpt lat="55.520766" lon="27.836941"><time>1970-01-01T00:00:01.000Z</time></trkpt>
			<trkpt lat="55.520876" lon="27.837914"><time>1970-01-01T00:00:01.000Z</time></trkpt>
			<trkpt lat="55.520936" lon="27.838050"><time>1970-01-01T00:00:01.000Z</time></trkpt>
			<trkpt lat="55.521143" lon="27.839040"><time>1970-01-01T00:00:01.000Z</time></trkpt>
			<trkpt lat="55.521259" lon="27.839172"><time>1970-01-01T00:00:01.000Z</time></trkpt>
			<trkpt lat="55.521501" lon="27.839291"><time>1970-01-01T00:00:01.000Z</time></trkpt>
			<trkpt lat="55.521642" lon="27.839282"><time>1970-01-01T00:00:01.000Z</time></trkpt>
			<trkpt lat="55.521789" lon="27.839381"><time>1970-01-01T00:00:01.000Z</time></trkpt>
			<trkpt lat="55.521897" lon="27.839503"><time>1970-01-01T00:00:01.000Z</time></trkpt>
			<trkpt lat="55.521898" lon="27.839562"><time>1970-01-01T00:00:01.000Z</time></trkpt>
			<trkpt lat="55.521984" lon="27.839682"><time>1970-01-01T00:00:01.000Z</time></trkpt>
			<trkpt lat="55.522152" lon="27.840469"><time>1970-01-01T00:00:01.000Z</time></trkpt>
			<trkpt lat="55.522197" lon="27.841684"><time>1970-01-01T00:00:01.000Z</time></trkpt>
			<trkpt lat="55.522281" lon="27.842026"><time>1970-01-01T00:00:01.000Z</time></trkpt>
			<trkpt lat="55.522343" lon="27.842705"><time>1970-01-01T00:00:01.000Z</time></trkpt>
			<trkpt lat="55.522361" lon="27.843174"><time>1970-01-01T00:00:01.000Z</time></trkpt>
			<trkpt lat="55.522241" lon="27.844126"><time>1970-01-01T00:00:01.000Z</time></trkpt>
			<trkpt lat="55.522276" lon="27.844206"><time>1970-01-01T00:00:01.000Z</time></trkpt>
			<trkpt lat="55.522225" lon="27.844334"><time>1970-01-01T00:00:01.000Z</time></trkpt>
			<trkpt lat="55.522294" lon="27.844537"><time>1970-01-01T00:00:01.000Z</time></trkpt>
			<trkpt lat="55.522289" lon="27.844912"><time>1970-01-01T00:00:01.000Z</time></trkpt>
			<trkpt lat="55.522653" lon="27.845439"><time>1970-01-01T00:00:01.000Z</time></trkpt>
			<trkpt lat="55.522725" lon="27.845458"><time>1970-01-01T00:00:01.000Z</time></trkpt>
			<trkpt lat="55.522718" lon="27.845499"><time>1970-01-01T00:00:01.000Z</time></trkpt>
			<trkpt lat="55.522834" lon="27.845547"><time>1970-01-01T00:00:01.000Z</time></trkpt>
			<trkpt lat="55.522876" lon="27.845624"><time>1970-01-01T00:00:01.000Z</time></trkpt>
			<trkpt lat="55.522999" lon="27.845637"><time>1970-01-01T00:00:01.000Z</time></trkpt>
			<trkpt lat="55.523182" lon="27.845852"><time>1970-01-01T00:00:01.000Z</time></trkpt>
			<trkpt lat="55.523225" lon="27.845816"><time>1970-01-01T00:00:01.000Z</time></trkpt>
			<trkpt lat="55.523327" lon="27.845845"><time>1970-01-01T00:00:01.000Z</time></trkpt>
			<trkpt lat="55.523497" lon="27.846366"><time>1970-01-01T00:00:01.000Z</time></trkpt>
			<trkpt lat="55.523612" lon="27.846528"><time>1970-01-01T00:00:01.000Z</time></trkpt>
			<trkpt lat="55.523695" lon="27.846946"><time>1970-01-01T00:00:01.000Z</time></trkpt>
			<trkpt lat="55.523657" lon="27.847353"><time>1970-01-01T00:00:01.000Z</time></trkpt>
			<trkpt lat="55.523667" lon="27.847765"><time>1970-01-01T00:00:01.000Z</time></trkpt>
			<trkpt lat="55.523635" lon="27.847854"><time>1970-01-01T00:00:01.000Z</time></trkpt>
			<trkpt lat="55.523659" lon="27.847962"><time>1970-01-01T00:00:01.000Z</time></trkpt>
			<trkpt lat="55.523620" lon="27.847934"><time>1970-01-01T00:00:01.000Z</time></trkpt>
			<trkpt lat="55.523683" lon="27.848013"><time>1970-01-01T00:00:01.000Z</time></trkpt>
			<trkpt lat="55.523717" lon="27.848151"><time>1970-01-01T00:00:01.000Z</time></trkpt>
			<trkpt lat="55.523773" lon="27.848205"><time>1970-01-01T00:00:01.000Z</time></trkpt>
			<trkpt lat="55.523767" lon="27.848311"><time>1970-01-01T00:00:01.000Z</time></trkpt>
			<trkpt lat="55.523801" lon="27.848336"><time>1970-01-01T00:00:01.000Z</time></trkpt>
			<trkpt lat="55.523775" lon="27.848326"><time>1970-01-01T00:00:01.000Z</time></trkpt>
			<trkpt lat="55.523786" lon="27.848399"><time>1970-01-01T00:00:01.000Z</time></trkpt>
			<trkpt lat="55.523720" lon="27.848591"><time>1970-01-01T00:00:01.000Z</time></trkpt>
			<trkpt lat="55.523724" lon="27.849051"><time>1970-01-01T00:00:01.000Z</time></trkpt>
			<trkpt lat="55.523674" lon="27.849078"><time>1970-01-01T00:00:01.000Z</time></trkpt>
			<trkpt lat="55.523798" lon="27.849635"><time>1970-01-01T00:00:01.000Z</time></trkpt>
			<trkpt lat="55.523785" lon="27.849778"><time>1970-01-01T00:00:01.000Z</time></trkpt>
			<trkpt lat="55.524112" lon="27.850765"><time>1970-01-01T00:00:01.000Z</time></trkpt>
			<trkpt lat="55.524614" lon="27.852615"><time>1970-01-01T00:00:01.000Z</time></trkpt>
			<trkpt lat="55.524859" lon="27.853359"><time>1970-01-01T00:00:01.000Z</time></trkpt>
			<trkpt lat="55.525036" lon="27.853771"><time>1970-01-01T00:00:01.000Z</time></trkpt>
			<trkpt lat="55.524985" lon="27.853956"><time>1970-01-01T00:00:01.000Z</time></trkpt>
			<trkpt lat="55.524996" lon="27.854102"><time>1970-01-01T00:00:01.000Z</time></trkpt>
			<trkpt lat="55.524943" lon="27.854253"><time>1970-01-01T00:00:01.000Z</time></trkpt>
			<trkpt lat="55.524955" lon="27.854331"><time>1970-01-01T00:00:01.000Z</time></trkpt>
			<trkpt lat="55.524918" lon="27.854411"><time>1970-01-01T00:00:01.000Z</time></trkpt>
			<trkpt lat="55.524957" lon="27.854502"><time>1970-01-01T00:00:01.000Z</time></trkpt>
			<trkpt lat="55.524892" lon="27.854415"><time>1970-01-01T00:00:01.000Z</time></trkpt>
			<trkpt lat="55.524915" lon="27.854430"><time>1970-01-01T00:00:01.000Z</time></trkpt>
			<trkpt lat="55.524965" lon="27.854357"><time>1970-01-01T00:00:01.000Z</time></trkpt>
			<trkpt lat="55.524922" lon="27.854459"><time>1970-01-01T00:00:01.000Z</time></trkpt>
			<trkpt lat="55.524942" lon="27.854552"><time>1970-01-01T00:00:01.000Z</time></trkpt>
			<trkpt lat="55.525001" lon="27.854525"><time>1970-01-01T00:00:01.000Z</time></trkpt>
			<trkpt lat="55.525000" lon="27.854456"><time>1970-01-01T00:00:01.000Z</time></trkpt>
			<trkpt lat="55.525058" lon="27.854553"><time>1970-01-01T00:00:01.000Z</time></trkpt>
			<trkpt lat="55.525453" lon="27.854787"><time>1970-01-01T00:00:01.000Z</time></trkpt>
			<trkpt lat="55.525610" lon="27.854943"><time>1970-01-01T00:00:01.000Z</time></trkpt>
			<trkpt lat="55.526135" lon="27.855519"><time>1970-01-01T00:00:01.000Z</time></trkpt>
			<trkpt lat="55.527061" lon="27.856680"><time>1970-01-01T00:00:01.000Z</time></trkpt>
			<trkpt lat="55.527265" lon="27.856755"><time>1970-01-01T00:00:01.000Z</time></trkpt>
			<trkpt lat="55.527340" lon="27.856824"><time>1970-01-01T00:00:01.000Z</time></trkpt>
			<trkpt lat="55.527363" lon="27.857045"><time>1970-01-01T00:00:01.000Z</time></trkpt>
			<trkpt lat="55.527489" lon="27.857325"><time>1970-01-01T00:00:01.000Z</time></trkpt>
			<trkpt lat="55.527598" lon="27.857470"><time>1970-01-01T00:00:01.000Z</time></trkpt>
			<trkpt lat="55.527700" lon="27.857560"><time>1970-01-01T00:00:01.000Z</time></trkpt>
			<trkpt lat="55.527809" lon="27.857566"><time>1970-01-01T00:00:01.000Z</time></trkpt>
			<trkpt lat="55.528200" lon="27.857867"><time>1970-01-01T00:00:01.000Z</time></trkpt>
			<trkpt lat="55.528461" lon="27.857986"><time>1970-01-01T00:00:01.000Z</time></trkpt>
			<trkpt lat="55.528717" lon="27.858172"><time>1970-01-01T00:00:01.000Z</time></trkpt>
			<trkpt lat="55.529162" lon="27.858755"><time>1970-01-01T00:00:01.000Z</time></trkpt>
			<trkpt lat="55.529495" lon="27.859016"><time>1970-01-01T00:00:01.000Z</time></trkpt>
			<trkpt lat="55.529800" lon="27.859494"><time>1970-01-01T00:00:01.000Z</time></trkpt>
			<trkpt lat="55.530092" lon="27.859762"><time>1970-01-01T00:00:01.000Z</time></trkpt>
			<trkpt lat="55.530241" lon="27.859831"><time>1970-01-01T00:00:01.000Z</time></trkpt>
			<trkpt lat="55.530356" lon="27.859785"><time>1970-01-01T00:00:01.000Z</time></trkpt>
			<trkpt lat="55.530493" lon="27.859816"><time>1970-01-01T00:00:01.000Z</time></trkpt>
			<trkpt lat="55.530636" lon="27.859776"><time>1970-01-01T00:00:01.000Z</time></trkpt>
			<trkpt lat="55.531010" lon="27.860120"><time>1970-01-01T00:00:01.000Z</time></trkpt>
			<trkpt lat="55.531186" lon="27.860251"><time>1970-01-01T00:00:01.000Z</time></trkpt>
			<trkpt lat="55.531463" lon="27.860379"><time>1970-01-01T00:00:01.000Z</time></trkpt>
			<trkpt lat="55.531847" lon="27.860702"><time>1970-01-01T00:00:01.000Z</time></trkpt>
			<trkpt lat="55.532098" lon="27.860838"><time>1970-01-01T00:00:01.000Z</time></trkpt>
			<trkpt lat="55.532266" lon="27.860839"><time>1970-01-01T00:00:01.000Z</time></trkpt>
			<trkpt lat="55.532482" lon="27.860914"><time>1970-01-01T00:00:01.000Z</time></trkpt>
			<trkpt lat="55.532894" lon="27.861125"><time>1970-01-01T00:00:01.000Z</time></trkpt>
			<trkpt lat="55.533163" lon="27.861111"><time>1970-01-01T00:00:01.000Z</time></trkpt>
			<trkpt lat="55.533322" lon="27.861159"><time>1970-01-01T00:00:01.000Z</time></trkpt>
			<trkpt lat="55.533434" lon="27.861267"><time>1970-01-01T00:00:01.000Z</time></trkpt>
			<trkpt lat="55.533574" lon="27.861328"><time>1970-01-01T00:00:01.000Z</time></trkpt>
			<trkpt lat="55.533881" lon="27.861361"><time>1970-01-01T00:00:01.000Z</time></trkpt>
			<trkpt lat="55.534028" lon="27.861421"><time>1970-01-01T00:00:01.000Z</time></trkpt>
			<trkpt lat="55.534564" lon="27.861423"><time>1970-01-01T00:00:01.000Z</time></trkpt>
			<trkpt lat="55.535181" lon="27.861589"><time>1970-01-01T00:00:01.000Z</time></trkpt>
			<trkpt lat="55.535261" lon="27.861504"><time>1970-01-01T00:00:01.000Z</time></trkpt>
			<trkpt lat="55.535563" lon="27.861497"><time>1970-01-01T00:00:01.000Z</time></trkpt>
			<trkpt lat="55.535678" lon="27.861358"><time>1970-01-01T00:00:01.000Z</time></trkpt>
			<trkpt lat="55.536044" lon="27.861092"><time>1970-01-01T00:00:01.000Z</time></trkpt>
			<trkpt lat="55.536210" lon="27.861019"><time>1970-01-01T00:00:01.000Z</time></trkpt>
			<trkpt lat="55.536674" lon="27.860861"><time>1970-01-01T00:00:01.000Z</time></trkpt>
			<trkpt lat="55.537117" lon="27.860816"><time>1970-01-01T00:00:01.000Z</time></trkpt>
			<trkpt lat="55.537261" lon="27.860647"><time>1970-01-01T00:00:01.000Z</time></trkpt>
			<trkpt lat="55.537365" lon="27.860588"><time>1970-01-01T00:00:01.000Z</time></trkpt>
			<trkpt lat="55.537426" lon="27.860579"><time>1970-01-01T00:00:01.000Z</time></trkpt>
			<trkpt lat="55.537508" lon="27.860646"><time>1970-01-01T00:00:01.000Z</time></trkpt>
			<trkpt lat="55.537547" lon="27.860626"><time>1970-01-01T00:00:01.000Z</time></trkpt>
			<trkpt lat="55.537620" lon="27.860735"><time>1970-01-01T00:00:01.000Z</time></trkpt>
			<trkpt lat="55.537661" lon="27.860702"><time>1970-01-01T00:00:01.000Z</time></trkpt>
			<trkpt lat="55.537644" lon="27.860625"><time>1970-01-01T00:00:01.000Z</time></trkpt>
			<trkpt lat="55.537709" lon="27.860708"><time>1970-01-01T00:00:01.000Z</time></trkpt>
			<trkpt lat="55.537809" lon="27.860726"><time>1970-01-01T00:00:01.000Z</time></trkpt>
			<trkpt lat="55.537780" lon="27.860689"><time>1970-01-01T00:00:01.000Z</time></trkpt>
			<trkpt lat="55.537992" lon="27.860613"><time>1970-01-01T00:00:01.000Z</time></trkpt>
			<trkpt lat="55.538063" lon="27.860670"><time>1970-01-01T00:00:01.000Z</time></trkpt>
			<trkpt lat="55.538279" lon="27.860743"><time>1970-01-01T00:00:01.000Z</time></trkpt>
			<trkpt lat="55.538486" lon="27.860705"><time>1970-01-01T00:00:01.000Z</time></trkpt>
			<trkpt lat="55.538870" lon="27.860704"><time>1970-01-01T00:00:01.000Z</time></trkpt>
			<trkpt lat="55.538974" lon="27.860743"><time>1970-01-01T00:00:01.000Z</time></trkpt>
			<trkpt lat="55.539216" lon="27.860893"><time>1970-01-01T00:00:01.000Z</time></trkpt>
			<trkpt lat="55.539272" lon="27.861023"><time>1970-01-01T00:00:01.000Z</time></trkpt>
			<trkpt lat="55.539437" lon="27.861220"><time>1970-01-01T00:00:01.000Z</time></trkpt>
			<trkpt lat="55.539747" lon="27.861914"><time>1970-01-01T00:00:01.000Z</time></trkpt>
			<trkpt lat="55.540227" lon="27.862767"><time>1970-01-01T00:00:01.000Z</time></trkpt>
			<trkpt lat="55.540295" lon="27.863009"><time>1970-01-01T00:00:01.000Z</time></trkpt>
			<trkpt lat="55.540496" lon="27.863255"><time>1970-01-01T00:00:01.000Z</time></trkpt>
			<trkpt lat="55.540582" lon="27.863240"><time>1970-01-01T00:00:01.000Z</time></trkpt>
			<trkpt lat="55.540678" lon="27.863350"><time>1970-01-01T00:00:01.000Z</time></trkpt>
			<trkpt lat="55.540776" lon="27.863333"><time>1970-01-01T00:00:01.000Z</time></trkpt>
			<trkpt lat="55.540870" lon="27.863389"><time>1970-01-01T00:00:01.000Z</time></trkpt>
			<trkpt lat="55.540934" lon="27.863365"><time>1970-01-01T00:00:01.000Z</time></trkpt>
			<trkpt lat="55.541053" lon="27.863421"><time>1970-01-01T00:00:01.000Z</time></trkpt>
			<trkpt lat="55.541153" lon="27.863579"><time>1970-01-01T00:00:01.000Z</time></trkpt>
			<trkpt lat="55.541612" lon="27.863971"><time>1970-01-01T00:00:01.000Z</time></trkpt>
			<trkpt lat="55.541720" lon="27.864161"><time>1970-01-01T00:00:01.000Z</time></trkpt>
			<trkpt lat="55.542355" lon="27.864745"><time>1970-01-01T00:00:01.000Z</time></trkpt>
			<trkpt lat="55.542725" lon="27.864942"><time>1970-01-01T00:00:01.000Z</time></trkpt>
			<trkpt lat="55.543008" lon="27.864955"><time>1970-01-01T00:00:01.000Z</time></trkpt>
			<trkpt lat="55.543242" lon="27.865114"><time>1970-01-01T00:00:01.000Z</time></trkpt>
			<trkpt lat="55.543408" lon="27.865373"><time>1970-01-01T00:00:01.000Z</time></trkpt>
			<trkpt lat="55.543596" lon="27.865892"><time>1970-01-01T00:00:01.000Z</time></trkpt>
			<trkpt lat="55.543881" lon="27.866412"><time>1970-01-01T00:00:01.000Z</time></trkpt>
			<trkpt lat="55.543945" lon="27.866587"><time>1970-01-01T00:00:01.000Z</time></trkpt>
			<trkpt lat="55.544326" lon="27.867160"><time>1970-01-01T00:00:01.000Z</time></trkpt>
			<trkpt lat="55.544621" lon="27.867803"><time>1970-01-01T00:00:01.000Z</time></trkpt>
			<trkpt lat="55.544750" lon="27.867908"><time>1970-01-01T00:00:01.000Z</time></trkpt>
			<trkpt lat="55.545006" lon="27.868310"><time>1970-01-01T00:00:01.000Z</time></trkpt>
			<trkpt lat="55.545276" lon="27.868965"><time>1970-01-01T00:00:01.000Z</time></trkpt>
			<trkpt lat="55.545413" lon="27.869209"><time>1970-01-01T00:00:01.000Z</time></trkpt>
			<trkpt lat="55.545460" lon="27.869447"><time>1970-01-01T00:00:01.000Z</time></trkpt>
			<trkpt lat="55.545998" lon="27.870016"><time>1970-01-01T00:00:01.000Z</time></trkpt>
			<trkpt lat="55.546180" lon="27.870269"><time>1970-01-01T00:00:01.000Z</time></trkpt>
			<trkpt lat="55.546403" lon="27.870817"><time>1970-01-01T00:00:01.000Z</time></trkpt>
			<trkpt lat="55.546752" lon="27.871468"><time>1970-01-01T00:00:01.000Z</time></trkpt>
			<trkpt lat="55.546976" lon="27.871999"><time>1970-01-01T00:00:01.000Z</time></trkpt>
			<trkpt lat="55.547350" lon="27.872532"><time>1970-01-01T00:00:01.000Z</time></trkpt>
			<trkpt lat="55.547635" lon="27.873302"><time>1970-01-01T00:00:01.000Z</time></trkpt>
			<trkpt lat="55.547710" lon="27.873732"><time>1970-01-01T00:00:01.000Z</time></trkpt>
			<trkpt lat="55.548031" lon="27.874816"><time>1970-01-01T00:00:01.000Z</time></trkpt>
			<trkpt lat="55.548332" lon="27.875431"><time>1970-01-01T00:00:01.000Z</time></trkpt>
			<trkpt lat="55.548723" lon="27.876496"><time>1970-01-01T00:00:01.000Z</time></trkpt>
			<trkpt lat="55.548816" lon="27.876918"><time>1970-01-01T00:00:01.000Z</time></trkpt>
			<trkpt lat="55.548822" lon="27.876886"><time>1970-01-01T00:00:01.000Z</time></trkpt>
			<trkpt lat="55.548789" lon="27.876885"><time>1970-01-01T00:00:01.000Z</time></trkpt>
			<trkpt lat="55.548744" lon="27.876998"><time>1970-01-01T00:00:01.000Z</time></trkpt>
			<trkpt lat="55.548750" lon="27.877209"><time>1970-01-01T00:00:01.000Z</time></trkpt>
			<trkpt lat="55.548727" lon="27.877142"><time>1970-01-01T00:00:01.000Z</time></trkpt>
			<trkpt lat="55.548783" lon="27.877214"><time>1970-01-01T00:00:01.000Z</time></trkpt>
			<trkpt lat="55.548740" lon="27.877183"><time>1970-01-01T00:00:01.000Z</time></trkpt>
			<trkpt lat="55.548735" lon="27.877149"><time>1970-01-01T00:00:01.000Z</time></trkpt>
			<trkpt lat="55.548781" lon="27.877177"><time>1970-01-01T00:00:01.000Z</time></trkpt>
			<trkpt lat="55.548763" lon="27.877196"><time>1970-01-01T00:00:01.000Z</time></trkpt>
			<trkpt lat="55.548748" lon="27.877126"><time>1970-01-01T00:00:01.000Z</time></trkpt>
			<trkpt lat="55.548715" lon="27.877177"><time>1970-01-01T00:00:01.000Z</time></trkpt>
			<trkpt lat="55.548756" lon="27.877213"><time>1970-01-01T00:00:01.000Z</time></trkpt>
			<trkpt lat="55.548801" lon="27.877097"><time>1970-01-01T00:00:01.000Z</time></trkpt>
			<trkpt lat="55.548789" lon="27.877221"><time>1970-01-01T00:00:01.000Z</time></trkpt>
			<trkpt lat="55.548811" lon="27.877214"><time>1970-01-01T00:00:01.000Z</time></trkpt>
			<trkpt lat="55.548785" lon="27.877134"><time>1970-01-01T00:00:01.000Z</time></trkpt>
			<trkpt lat="55.548772" lon="27.877208"><time>1970-01-01T00:00:01.000Z</time></trkpt>
			<trkpt lat="55.548784" lon="27.877171"><time>1970-01-01T00:00:01.000Z</time></trkpt>
			<trkpt lat="55.548746" lon="27.877139"><time>1970-01-01T00:00:01.000Z</time></trkpt>
			<trkpt lat="55.548769" lon="27.877194"><time>1970-01-01T00:00:01.000Z</time></trkpt>
			<trkpt lat="55.548743" lon="27.877177"><time>1970-01-01T00:00:01.000Z</time></trkpt>
			<trkpt lat="55.548769" lon="27.877151"><time>1970-01-01T00:00:01.000Z</time></trkpt>
			<trkpt lat="55.548777" lon="27.877178"><time>1970-01-01T00:00:01.000Z</time></trkpt>
			<trkpt lat="55.548747" lon="27.877096"><time>1970-01-01T00:00:01.000Z</time></trkpt>
			<trkpt lat="55.548693" lon="27.877120"><time>1970-01-01T00:00:01.000Z</time></trkpt>
			<trkpt lat="55.548732" lon="27.877115"><time>1970-01-01T00:00:01.000Z</time></trkpt>
			<trkpt lat="55.548709" lon="27.877151"><time>1970-01-01T00:00:01.000Z</time></trkpt>
			<trkpt lat="55.548730" lon="27.877204"><time>1970-01-01T00:00:01.000Z</time></trkpt>
			<trkpt lat="55.548759" lon="27.877123"><time>1970-01-01T00:00:01.000Z</time></trkpt>
			<trkpt lat="55.548818" lon="27.877164"><time>1970-01-01T00:00:01.000Z</time></trkpt>
			<trkpt lat="55.548783" lon="27.877095"><time>1970-01-01T00:00:01.000Z</time></trkpt>
			<trkpt lat="55.548749" lon="27.877196"><time>1970-01-01T00:00:01.000Z</time></trkpt>
			<trkpt lat="55.548758" lon="27.877131"><time>1970-01-01T00:00:01.000Z</time></trkpt>
			<trkpt lat="55.548768" lon="27.877184"><time>1970-01-01T00:00:01.000Z</time></trkpt>
			<trkpt lat="55.548781" lon="27.877160"><time>1970-01-01T00:00:01.000Z</time></trkpt>
			<trkpt lat="55.548807" lon="27.877182"><time>1970-01-01T00:00:01.000Z</time></trkpt>
			<trkpt lat="55.548808" lon="27.877075"><time>1970-01-01T00:00:01.000Z</time></trkpt>
			<trkpt lat="55.548821" lon="27.877185"><time>1970-01-01T00:00:01.000Z</time></trkpt>
			<trkpt lat="55.548764" lon="27.877124"><time>1970-01-01T00:00:01.000Z</time></trkpt>
			<trkpt lat="55.548793" lon="27.877099"><time>1970-01-01T00:00:01.000Z</time></trkpt>
			<trkpt lat="55.548795" lon="27.877162"><time>1970-01-01T00:00:01.000Z</time></trkpt>
			<trkpt lat="55.548807" lon="27.877103"><time>1970-01-01T00:00:01.000Z</time></trkpt>
			<trkpt lat="55.548732" lon="27.877104"><time>1970-01-01T00:00:01.000Z</time></trkpt>
			<trkpt lat="55.548786" lon="27.877152"><time>1970-01-01T00:00:01.000Z</time></trkpt>
			<trkpt lat="55.548758" lon="27.877134"><time>1970-01-01T00:00:01.000Z</time></trkpt>
			<trkpt lat="55.548746" lon="27.877185"><time>1970-01-01T00:00:01.000Z</time></trkpt>
			<trkpt lat="55.548777" lon="27.876861"><time>1970-01-01T00:00:01.000Z</time></trkpt>
			<trkpt lat="55.548812" lon="27.876902"><time>1970-01-01T00:00:01.000Z</time></trkpt>
			<trkpt lat="55.548788" lon="27.876904"><time>1970-01-01T00:00:01.000Z</time></trkpt>
			<trkpt lat="55.548847" lon="27.876854"><time>1970-01-01T00:00:01.000Z</time></trkpt>
			<trkpt lat="55.548853" lon="27.876752"><time>1970-01-01T00:00:01.000Z</time></trkpt>
			<trkpt lat="55.548807" lon="27.876783"><time>1970-01-01T00:00:01.000Z</time></trkpt>
			<trkpt lat="55.548915" lon="27.876694"><time>1970-01-01T00:00:01.000Z</time></trkpt>
			<trkpt lat="55.548799" lon="27.876711"><time>1970-01-01T00:00:01.000Z</time></trkpt>
			<trkpt lat="55.548831" lon="27.876486"><time>1970-01-01T00:00:01.000Z</time></trkpt>
			<trkpt lat="55.548949" lon="27.876204"><time>1970-01-01T00:00:01.000Z</time></trkpt>
			<trkpt lat="55.549015" lon="27.876140"><time>1970-01-01T00:00:01.000Z</time></trkpt>
			<trkpt lat="55.549238" lon="27.876074"><time>1970-01-01T00:00:01.000Z</time></trkpt>
			<trkpt lat="55.549637" lon="27.876089"><time>1970-01-01T00:00:01.000Z</time></trkpt>
			<trkpt lat="55.549754" lon="27.876118"><time>1970-01-01T00:00:01.000Z</time></trkpt>
			<trkpt lat="55.550073" lon="27.876344"><time>1970-01-01T00:00:01.000Z</time></trkpt>
			<trkpt lat="55.550166" lon="27.876535"><time>1970-01-01T00:00:01.000Z</time></trkpt>
			<trkpt lat="55.550233" lon="27.876572"><time>1970-01-01T00:00:01.000Z</time></trkpt>
			<trkpt lat="55.550457" lon="27.877006"><time>1970-01-01T00:00:01.000Z</time></trkpt>
			<trkpt lat="55.550565" lon="27.877086"><time>1970-01-01T00:00:01.000Z</time></trkpt>
			<trkpt lat="55.550610" lon="27.877250"><time>1970-01-01T00:00:01.000Z</time></trkpt>
			<trkpt lat="55.550918" lon="27.877503"><time>1970-01-01T00:00:01.000Z</time></trkpt>
			<trkpt lat="55.550997" lon="27.877606"><time>1970-01-01T00:00:01.000Z</time></trkpt>
			<trkpt lat="55.551105" lon="27.877894"><time>1970-01-01T00:00:01.000Z</time></trkpt>
			<trkpt lat="55.551305" lon="27.878257"><time>1970-01-01T00:00:01.000Z</time></trkpt>
			<trkpt lat="55.551505" lon="27.878430"><time>1970-01-01T00:00:01.000Z</time></trkpt>
			<trkpt lat="55.551759" lon="27.878891"><time>1970-01-01T00:00:01.000Z</time></trkpt>
			<trkpt lat="55.551857" lon="27.878963"><time>1970-01-01T00:00:01.000Z</time></trkpt>
			<trkpt lat="55.551950" lon="27.879100"><time>1970-01-01T00:00:01.000Z</time></trkpt>
			<trkpt lat="55.552002" lon="27.879115"><time>1970-01-01T00:00:01.000Z</time></trkpt>
			<trkpt lat="55.551985" lon="27.879214"><time>1970-01-01T00:00:01.000Z</time></trkpt>
			<trkpt lat="55.552116" lon="27.879383"><time>1970-01-01T00:00:01.000Z</time></trkpt>
			<trkpt lat="55.552245" lon="27.879471"><time>1970-01-01T00:00:01.000Z</time></trkpt>
			<trkpt lat="55.552276" lon="27.879646"><time>1970-01-01T00:00:01.000Z</time></trkpt>
			<trkpt lat="55.552335" lon="27.879760"><time>1970-01-01T00:00:01.000Z</time></trkpt>
			<trkpt lat="55.552368" lon="27.880008"><time>1970-01-01T00:00:01.000Z</time></trkpt>
			<trkpt lat="55.552433" lon="27.880164"><time>1970-01-01T00:00:01.000Z</time></trkpt>
			<trkpt lat="55.552743" lon="27.880542"><time>1970-01-01T00:00:01.000Z</time></trkpt>
			<trkpt lat="55.552908" lon="27.880920"><time>1970-01-01T00:00:01.000Z</time></trkpt>
			<trkpt lat="55.553269" lon="27.881244"><time>1970-01-01T00:00:01.000Z</time></trkpt>
			<trkpt lat="55.553416" lon="27.881257"><time>1970-01-01T00:00:01.000Z</time></trkpt>
			<trkpt lat="55.553494" lon="27.881345"><time>1970-01-01T00:00:01.000Z</time></trkpt>
			<trkpt lat="55.553731" lon="27.881497"><time>1970-01-01T00:00:01.000Z</time></trkpt>
			<trkpt lat="55.553963" lon="27.881893"><time>1970-01-01T00:00:01.000Z</time></trkpt>
			<trkpt lat="55.554087" lon="27.882194"><time>1970-01-01T00:00:01.000Z</time></trkpt>
			<trkpt lat="55.554200" lon="27.882616"><time>1970-01-01T00:00:01.000Z</time></trkpt>
			<trkpt lat="55.554294" lon="27.882764"><time>1970-01-01T00:00:01.000Z</time></trkpt>
			<trkpt lat="55.554313" lon="27.882971"><time>1970-01-01T00:00:01.000Z</time></trkpt>
			<trkpt lat="55.554535" lon="27.883445"><time>1970-01-01T00:00:01.000Z</time></trkpt>
			<trkpt lat="55.554752" lon="27.883655"><time>1970-01-01T00:00:01.000Z</time></trkpt>
			<trkpt lat="55.555102" lon="27.883898"><time>1970-01-01T00:00:01.000Z</time></trkpt>
			<trkpt lat="55.555216" lon="27.883913"><time>1970-01-01T00:00:01.000Z</time></trkpt>
			<trkpt lat="55.555267" lon="27.883981"><time>1970-01-01T00:00:01.000Z</time></trkpt>
			<trkpt lat="55.555407" lon="27.884536"><time>1970-01-01T00:00:01.000Z</time></trkpt>
			<trkpt lat="55.555378" lon="27.885405"><time>1970-01-01T00:00:01.000Z</time></trkpt>
			<trkpt lat="55.555452" lon="27.885695"><time>1970-01-01T00:00:01.000Z</time></trkpt>
			<trkpt lat="55.555467" lon="27.885675"><time>1970-01-01T00:00:01.000Z</time></trkpt>
			<trkpt lat="55.555435" lon="27.885687"><time>1970-01-01T00:00:01.000Z</time></trkpt>
			<trkpt lat="55.555476" lon="27.885649"><time>1970-01-01T00:00:01.000Z</time></trkpt>
			<trkpt lat="55.555477" lon="27.885719"><time>1970-01-01T00:00:01.000Z</time></trkpt>
			<trkpt lat="55.555653" lon="27.885689"><time>1970-01-01T00:00:01.000Z</time></trkpt>
			<trkpt lat="55.555740" lon="27.885747"><time>1970-01-01T00:00:01.000Z</time></trkpt>
			<trkpt lat="55.555934" lon="27.885779"><time>1970-01-01T00:00:01.000Z</time></trkpt>
			<trkpt lat="55.556082" lon="27.886028"><time>1970-01-01T00:00:01.000Z</time></trkpt>
			<trkpt lat="55.556433" lon="27.886369"><time>1970-01-01T00:00:01.000Z</time></trkpt>
			<trkpt lat="55.556563" lon="27.886442"><time>1970-01-01T00:00:01.000Z</time></trkpt>
			<trkpt lat="55.556821" lon="27.886896"><time>1970-01-01T00:00:01.000Z</time></trkpt>
			<trkpt lat="55.556936" lon="27.887044"><time>1970-01-01T00:00:01.000Z</time></trkpt>
			<trkpt lat="55.557051" lon="27.887121"><time>1970-01-01T00:00:01.000Z</time></trkpt>
			<trkpt lat="55.557428" lon="27.887741"><time>1970-01-01T00:00:01.000Z</time></trkpt>
			<trkpt lat="55.557871" lon="27.888753"><time>1970-01-01T00:00:01.000Z</time></trkpt>
			<trkpt lat="55.558257" lon="27.889311"><time>1970-01-01T00:00:01.000Z</time></trkpt>
			<trkpt lat="55.558693" lon="27.890478"><time>1970-01-01T00:00:01.000Z</time></trkpt>
			<trkpt lat="55.558876" lon="27.890768"><time>1970-01-01T00:00:01.000Z</time></trkpt>
			<trkpt lat="55.559050" lon="27.891297"><time>1970-01-01T00:00:01.000Z</time></trkpt>
			<trkpt lat="55.559269" lon="27.892376"><time>1970-01-01T00:00:01.000Z</time></trkpt>
			<trkpt lat="55.559381" lon="27.892522"><time>1970-01-01T00:00:01.000Z</time></trkpt>
			<trkpt lat="55.559768" lon="27.893464"><time>1970-01-01T00:00:01.000Z</time></trkpt>
			<trkpt lat="55.559840" lon="27.893836"><time>1970-01-01T00:00:01.000Z</time></trkpt>
			<trkpt lat="55.559981" lon="27.894255"><time>1970-01-01T00:00:01.000Z</time></trkpt>
			<trkpt lat="55.560585" lon="27.895264"><time>1970-01-01T00:00:01.000Z</time></trkpt>
			<trkpt lat="55.560793" lon="27.895869"><time>1970-01-01T00:00:01.000Z</time></trkpt>
			<trkpt lat="55.560931" lon="27.896064"><time>1970-01-01T00:00:01.000Z</time></trkpt>
			<trkpt lat="55.561108" lon="27.896607"><time>1970-01-01T00:00:01.000Z</time></trkpt>
			<trkpt lat="55.561220" lon="27.896844"><time>1970-01-01T00:00:01.000Z</time></trkpt>
			<trkpt lat="55.561315" lon="27.897177"><time>1970-01-01T00:00:01.000Z</time></trkpt>
			<trkpt lat="55.561222" lon="27.897693"><time>1970-01-01T00:00:01.000Z</time></trkpt>
			<trkpt lat="55.561226" lon="27.897858"><time>1970-01-01T00:00:01.000Z</time></trkpt>
			<trkpt lat="55.561301" lon="27.898551"><time>1970-01-01T00:00:01.000Z</time></trkpt>
			<trkpt lat="55.561410" lon="27.898935"><time>1970-01-01T00:00:01.000Z</time></trkpt>
			<trkpt lat="55.561467" lon="27.899681"><time>1970-01-01T00:00:01.000Z</time></trkpt>
			<trkpt lat="55.561503" lon="27.899564"><time>1970-01-01T00:00:01.000Z</time></trkpt>
			<trkpt lat="55.561517" lon="27.899605"><time>1970-01-01T00:00:01.000Z</time></trkpt>
			<trkpt lat="55.561633" lon="27.899505"><time>1970-01-01T00:00:01.000Z</time></trkpt>
			<trkpt lat="55.561522" lon="27.899552"><time>1970-01-01T00:00:01.000Z</time></trkpt>
			<trkpt lat="55.561468" lon="27.899656"><time>1970-01-01T00:00:01.000Z</time></trkpt>
			<trkpt lat="55.561516" lon="27.899628"><time>1970-01-01T00:00:01.000Z</time></trkpt>
			<trkpt lat="55.561499" lon="27.899660"><time>1970-01-01T00:00:01.000Z</time></trkpt>
			<trkpt lat="55.561466" lon="27.899661"><time>1970-01-01T00:00:01.000Z</time></trkpt>
			<trkpt lat="55.561484" lon="27.899558"><time>1970-01-01T00:00:01.000Z</time></trkpt>
			<trkpt lat="55.561457" lon="27.899661"><time>1970-01-01T00:00:01.000Z</time></trkpt>
			<trkpt lat="55.561475" lon="27.899681"><time>1970-01-01T00:00:01.000Z</time></trkpt>
			<trkpt lat="55.561473" lon="27.899588"><time>1970-01-01T00:00:01.000Z</time></trkpt>
			<trkpt lat="55.561464" lon="27.899666"><time>1970-01-01T00:00:01.000Z</time></trkpt>
			<trkpt lat="55.561490" lon="27.899687"><time>1970-01-01T00:00:01.000Z</time></trkpt>
			<trkpt lat="55.561469" lon="27.899643"><time>1970-01-01T00:00:01.000Z</time></trkpt>
			<trkpt lat="55.561447" lon="27.899667"><time>1970-01-01T00:00:01.000Z</time></trkpt>
			<trkpt lat="55.561436" lon="27.899582"><time>1970-01-01T00:00:01.000Z</time></trkpt>
			<trkpt lat="55.561486" lon="27.899522"><time>1970-01-01T00:00:01.000Z</time></trkpt>
			<trkpt lat="55.561662" lon="27.899437"><time>1970-01-01T00:00:01.000Z</time></trkpt>
			<trkpt lat="55.561711" lon="27.899091"><time>1970-01-01T00:00:01.000Z</time></trkpt>
			<trkpt lat="55.561794" lon="27.898965"><time>1970-01-01T00:00:01.000Z</time></trkpt>
			<trkpt lat="55.561896" lon="27.898934"><time>1970-01-01T00:00:01.000Z</time></trkpt>
			<trkpt lat="55.562096" lon="27.899054"><time>1970-01-01T00:00:01.000Z</time></trkpt>
			<trkpt lat="55.562223" lon="27.899072"><time>1970-01-01T00:00:01.000Z</time></trkpt>
			<trkpt lat="55.562533" lon="27.899427"><time>1970-01-01T00:00:01.000Z</time></trkpt>
			<trkpt lat="55.562827" lon="27.900000"><time>1970-01-01T00:00:01.000Z</time></trkpt>
			<trkpt lat="55.562921" lon="27.900116"><time>1970-01-01T00:00:01.000Z</time></trkpt>
			<trkpt lat="55.563121" lon="27.900594"><time>1970-01-01T00:00:01.000Z</time></trkpt>
			<trkpt lat="55.563186" lon="27.900643"><time>1970-01-01T00:00:01.000Z</time></trkpt>
			<trkpt lat="55.563353" lon="27.900922"><time>1970-01-01T00:00:01.000Z</time></trkpt>
			<trkpt lat="55.563565" lon="27.901388"><time>1970-01-01T00:00:01.000Z</time></trkpt>
			<trkpt lat="55.563937" lon="27.902704"><time>1970-01-01T00:00:01.000Z</time></trkpt>
			<trkpt lat="55.564060" lon="27.902979"><time>1970-01-01T00:00:01.000Z</time></trkpt>
			<trkpt lat="55.564150" lon="27.903078"><time>1970-01-01T00:00:01.000Z</time></trkpt>
			<trkpt lat="55.564190" lon="27.903228"><time>1970-01-01T00:00:01.000Z</time></trkpt>
			<trkpt lat="55.564250" lon="27.903144"><time>1970-01-01T00:00:01.000Z</time></trkpt>
			<trkpt lat="55.564308" lon="27.903169"><time>1970-01-01T00:00:01.000Z</time></trkpt>
			<trkpt lat="55.564401" lon="27.903405"><time>1970-01-01T00:00:01.000Z</time></trkpt>
			<trkpt lat="55.564476" lon="27.903852"><time>1970-01-01T00:00:01.000Z</time></trkpt>
			<trkpt lat="55.564588" lon="27.904107"><time>1970-01-01T00:00:01.000Z</time></trkpt>
			<trkpt lat="55.564651" lon="27.904403"><time>1970-01-01T00:00:01.000Z</time></trkpt>
			<trkpt lat="55.564800" lon="27.904560"><time>1970-01-01T00:00:01.000Z</time></trkpt>
			<trkpt lat="55.564966" lon="27.905220"><time>1970-01-01T00:00:01.000Z</time></trkpt>
			<trkpt lat="55.565078" lon="27.905323"><time>1970-01-01T00:00:01.000Z</time></trkpt>
			<trkpt lat="55.565135" lon="27.905330"><time>1970-01-01T00:00:01.000Z</time></trkpt>
			<trkpt lat="55.565246" lon="27.905563"><time>1970-01-01T00:00:01.000Z</time></trkpt>
			<trkpt lat="55.565406" lon="27.905654"><time>1970-01-01T00:00:01.000Z</time></trkpt>
			<trkpt lat="55.565515" lon="27.905941"><time>1970-01-01T00:00:01.000Z</time></trkpt>
			<trkpt lat="55.565869" lon="27.906259"><time>1970-01-01T00:00:01.000Z</time></trkpt>
			<trkpt lat="55.566156" lon="27.906750"><time>1970-01-01T00:00:01.000Z</time></trkpt>
			<trkpt lat="55.566523" lon="27.906936"><time>1970-01-01T00:00:01.000Z</time></trkpt>
			<trkpt lat="55.566569" lon="27.907017"><time>1970-01-01T00:00:01.000Z</time></trkpt>
			<trkpt lat="55.566865" lon="27.907264"><time>1970-01-01T00:00:01.000Z</time></trkpt>
			<trkpt lat="55.566961" lon="27.907385"><time>1970-01-01T00:00:01.000Z</time></trkpt>
			<trkpt lat="55.567257" lon="27.908169"><time>1970-01-01T00:00:01.000Z</time></trkpt>
			<trkpt lat="55.567619" lon="27.908688"><time>1970-01-01T00:00:01.000Z</time></trkpt>
			<trkpt lat="55.567799" lon="27.908860"><time>1970-01-01T00:00:01.000Z</time></trkpt>
			<trkpt lat="55.568203" lon="27.909137"><time>1970-01-01T00:00:01.000Z</time></trkpt>
			<trkpt lat="55.568288" lon="27.909263"><time>1970-01-01T00:00:01.000Z</time></trkpt>
			<trkpt lat="55.568576" lon="27.909472"><time>1970-01-01T00:00:01.000Z</time></trkpt>
			<trkpt lat="55.568679" lon="27.909478"><time>1970-01-01T00:00:01.000Z</time></trkpt>
			<trkpt lat="55.569161" lon="27.909916"><time>1970-01-01T00:00:01.000Z</time></trkpt>
			<trkpt lat="55.569320" lon="27.910118"><time>1970-01-01T00:00:01.000Z</time></trkpt>
			<trkpt lat="55.569689" lon="27.910382"><time>1970-01-01T00:00:01.000Z</time></trkpt>
			<trkpt lat="55.569796" lon="27.910404"><time>1970-01-01T00:00:01.000Z</time></trkpt>
			<trkpt lat="55.570032" lon="27.910578"><time>1970-01-01T00:00:01.000Z</time></trkpt>
			<trkpt lat="55.570226" lon="27.910643"><time>1970-01-01T00:00:01.000Z</time></trkpt>
			<trkpt lat="55.570393" lon="27.910647"><time>1970-01-01T00:00:01.000Z</time></trkpt>
			<trkpt lat="55.570571" lon="27.910604"><time>1970-01-01T00:00:01.000Z</time></trkpt>
			<trkpt lat="55.570638" lon="27.910624"><time>1970-01-01T00:00:01.000Z</time></trkpt>
			<trkpt lat="55.570771" lon="27.910582"><time>1970-01-01T00:00:01.000Z</time></trkpt>
			<trkpt lat="55.570946" lon="27.910645"><time>1970-01-01T00:00:01.000Z</time></trkpt>
			<trkpt lat="55.571057" lon="27.910636"><time>1970-01-01T00:00:01.000Z</time></trkpt>
			<trkpt lat="55.571261" lon="27.910529"><time>1970-01-01T00:00:01.000Z</time></trkpt>
			<trkpt lat="55.571491" lon="27.910571"><time>1970-01-01T00:00:01.000Z</time></trkpt>
			<trkpt lat="55.571609" lon="27.910649"><time>1970-01-01T00:00:01.000Z</time></trkpt>
			<trkpt lat="55.571944" lon="27.910706"><time>1970-01-01T00:00:01.000Z</time></trkpt>
			<trkpt lat="55.572204" lon="27.910577"><time>1970-01-01T00:00:01.000Z</time></trkpt>
			<trkpt lat="55.572369" lon="27.910303"><time>1970-01-01T00:00:01.000Z</time></trkpt>
			<trkpt lat="55.572573" lon="27.910275"><time>1970-01-01T00:00:01.000Z</time></trkpt>
			<trkpt lat="55.572757" lon="27.910192"><time>1970-01-01T00:00:01.000Z</time></trkpt>
			<trkpt lat="55.572972" lon="27.909698"><time>1970-01-01T00:00:01.000Z</time></trkpt>
			<trkpt lat="55.572903" lon="27.909425"><time>1970-01-01T00:00:01.000Z</time></trkpt>
			<trkpt lat="55.572678" lon="27.909066"><time>1970-01-01T00:00:01.000Z</time></trkpt>
			<trkpt lat="55.572385" lon="27.908448"><time>1970-01-01T00:00:01.000Z</time></trkpt>
			<trkpt lat="55.572234" lon="27.908214"><time>1970-01-01T00:00:01.000Z</time></trkpt>
			<trkpt lat="55.572035" lon="27.908035"><time>1970-01-01T00:00:01.000Z</time></trkpt>
			<trkpt lat="55.571854" lon="27.907651"><time>1970-01-01T00:00:01.000Z</time></trkpt>
			<trkpt lat="55.571699" lon="27.907461"><time>1970-01-01T00:00:01.000Z</time></trkpt>
			<trkpt lat="55.571508" lon="27.907080"><time>1970-01-01T00:00:01.000Z</time></trkpt>
			<trkpt lat="55.571192" lon="27.906408"><time>1970-01-01T00:00:01.000Z</time></trkpt>
			<trkpt lat="55.570919" lon="27.905624"><time>1970-01-01T00:00:01.000Z</time></trkpt>
			<trkpt lat="55.570612" lon="27.904958"><time>1970-01-01T00:00:01.000Z</time></trkpt>
			<trkpt lat="55.570565" lon="27.904776"><time>1970-01-01T00:00:01.000Z</time></trkpt>
			<trkpt lat="55.570378" lon="27.904378"><time>1970-01-01T00:00:01.000Z</time></trkpt>
			<trkpt lat="55.570270" lon="27.904237"><time>1970-01-01T00:00:01.000Z</time></trkpt>
			<trkpt lat="55.569858" lon="27.903250"><time>1970-01-01T00:00:01.000Z</time></trkpt>
			<trkpt lat="55.569771" lon="27.903144"><time>1970-01-01T00:00:01.000Z</time></trkpt>
			<trkpt lat="55.569662" lon="27.902790"><time>1970-01-01T00:00:01.000Z</time></trkpt>
			<trkpt lat="55.569467" lon="27.902622"><time>1970-01-01T00:00:01.000Z</time></trkpt>
			<trkpt lat="55.569242" lon="27.902129"><time>1970-01-01T00:00:01.000Z</time></trkpt>
			<trkpt lat="55.569097" lon="27.901921"><time>1970-01-01T00:00:01.000Z</time></trkpt>
			<trkpt lat="55.569024" lon="27.901679"><time>1970-01-01T00:00:01.000Z</time></trkpt>
			<trkpt lat="55.569051" lon="27.901562"><time>1970-01-01T00:00:01.000Z</time></trkpt>
			<trkpt lat="55.568918" lon="27.901390"><time>1970-01-01T00:00:01.000Z</time></trkpt>
			<trkpt lat="55.568690" lon="27.901277"><time>1970-01-01T00:00:01.000Z</time></trkpt>
			<trkpt lat="55.568363" lon="27.900977"><time>1970-01-01T00:00:01.000Z</time></trkpt>
			<trkpt lat="55.568229" lon="27.900907"><time>1970-01-01T00:00:01.000Z</time></trkpt>
			<trkpt lat="55.567769" lon="27.900446"><time>1970-01-01T00:00:01.000Z</time></trkpt>
			<trkpt lat="55.567400" lon="27.899865"><time>1970-01-01T00:00:01.000Z</time></trkpt>
			<trkpt lat="55.567138" lon="27.899545"><time>1970-01-01T00:00:01.000Z</time></trkpt>
			<trkpt lat="55.566969" lon="27.899213"><time>1970-01-01T00:00:01.000Z</time></trkpt>
			<trkpt lat="55.566755" lon="27.898945"><time>1970-01-01T00:00:01.000Z</time></trkpt>
			<trkpt lat="55.566560" lon="27.898515"><time>1970-01-01T00:00:01.000Z</time></trkpt>
			<trkpt lat="55.566259" lon="27.898235"><time>1970-01-01T00:00:01.000Z</time></trkpt>
			<trkpt lat="55.565875" lon="27.897721"><time>1970-01-01T00:00:01.000Z</time></trkpt>
			<trkpt lat="55.565712" lon="27.897428"><time>1970-01-01T00:00:01.000Z</time></trkpt>
			<trkpt lat="55.565666" lon="27.897233"><time>1970-01-01T00:00:01.000Z</time></trkpt>
			<trkpt lat="55.565493" lon="27.897040"><time>1970-01-01T00:00:01.000Z</time></trkpt>
			<trkpt lat="55.565322" lon="27.896753"><time>1970-01-01T00:00:01.000Z</time></trkpt>
			<trkpt lat="55.565014" lon="27.896356"><time>1970-01-01T00:00:01.000Z</time></trkpt>
			<trkpt lat="55.564238" lon="27.895569"><time>1970-01-01T00:00:01.000Z</time></trkpt>
			<trkpt lat="55.563938" lon="27.895132"><time>1970-01-01T00:00:01.000Z</time></trkpt>
			<trkpt lat="55.563648" lon="27.894885"><time>1970-01-01T00:00:01.000Z</time></trkpt>
			<trkpt lat="55.563562" lon="27.894641"><time>1970-01-01T00:00:01.000Z</time></trkpt>
			<trkpt lat="55.563440" lon="27.894438"><time>1970-01-01T00:00:01.000Z</time></trkpt>
			<trkpt lat="55.563177" lon="27.894155"><time>1970-01-01T00:00:01.000Z</time></trkpt>
			<trkpt lat="55.562796" lon="27.893648"><time>1970-01-01T00:00:01.000Z</time></trkpt>
			<trkpt lat="55.562540" lon="27.893153"><time>1970-01-01T00:00:01.000Z</time></trkpt>
			<trkpt lat="55.562277" lon="27.892786"><time>1970-01-01T00:00:01.000Z</time></trkpt>
			<trkpt lat="55.561903" lon="27.892459"><time>1970-01-01T00:00:01.000Z</time></trkpt>
			<trkpt lat="55.561733" lon="27.892260"><time>1970-01-01T00:00:01.000Z</time></trkpt>
			<trkpt lat="55.561493" lon="27.891866"><time>1970-01-01T00:00:01.000Z</time></trkpt>
			<trkpt lat="55.561211" lon="27.891198"><time>1970-01-01T00:00:01.000Z</time></trkpt>
			<trkpt lat="55.561143" lon="27.891132"><time>1970-01-01T00:00:01.000Z</time></trkpt>
			<trkpt lat="55.561048" lon="27.890895"><time>1970-01-01T00:00:01.000Z</time></trkpt>
			<trkpt lat="55.560958" lon="27.890790"><time>1970-01-01T00:00:01.000Z</time></trkpt>
			<trkpt lat="55.560711" lon="27.889956"><time>1970-01-01T00:00:01.000Z</time></trkpt>
			<trkpt lat="55.560501" lon="27.889611"><time>1970-01-01T00:00:01.000Z</time></trkpt>
			<trkpt lat="55.560129" lon="27.888632"><time>1970-01-01T00:00:01.000Z</time></trkpt>
			<trkpt lat="55.559811" lon="27.888056"><time>1970-01-01T00:00:01.000Z</time></trkpt>
			<trkpt lat="55.559680" lon="27.887690"><time>1970-01-01T00:00:01.000Z</time></trkpt>
			<trkpt lat="55.559434" lon="27.887520"><time>1970-01-01T00:00:01.000Z</time></trkpt>
			<trkpt lat="55.559335" lon="27.887366"><time>1970-01-01T00:00:01.000Z</time></trkpt>
			<trkpt lat="55.559118" lon="27.887183"><time>1970-01-01T00:00:01.000Z</time></trkpt>
			<trkpt lat="55.559059" lon="27.887084"><time>1970-01-01T00:00:01.000Z</time></trkpt>
			<trkpt lat="55.558948" lon="27.887011"><time>1970-01-01T00:00:01.000Z</time></trkpt>
			<trkpt lat="55.558876" lon="27.886847"><time>1970-01-01T00:00:01.000Z</time></trkpt>
			<trkpt lat="55.558697" lon="27.886647"><time>1970-01-01T00:00:01.000Z</time></trkpt>
			<trkpt lat="55.558498" lon="27.886491"><time>1970-01-01T00:00:01.000Z</time></trkpt>
			<trkpt lat="55.558395" lon="27.886365"><time>1970-01-01T00:00:01.000Z</time></trkpt>
			<trkpt lat="55.558161" lon="27.885948"><time>1970-01-01T00:00:01.000Z</time></trkpt>
			<trkpt lat="55.557918" lon="27.885697"><time>1970-01-01T00:00:01.000Z</time></trkpt>
			<trkpt lat="55.557796" lon="27.885409"><time>1970-01-01T00:00:01.000Z</time></trkpt>
			<trkpt lat="55.557553" lon="27.885162"><time>1970-01-01T00:00:01.000Z</time></trkpt>
			<trkpt lat="55.557144" lon="27.884599"><time>1970-01-01T00:00:01.000Z</time></trkpt>
			<trkpt lat="55.557093" lon="27.884434"><time>1970-01-01T00:00:01.000Z</time></trkpt>
			<trkpt lat="55.556581" lon="27.883651"><time>1970-01-01T00:00:01.000Z</time></trkpt>
			<trkpt lat="55.556406" lon="27.883487"><time>1970-01-01T00:00:01.000Z</time></trkpt>
			<trkpt lat="55.556224" lon="27.883241"><time>1970-01-01T00:00:01.000Z</time></trkpt>
			<trkpt lat="55.556023" lon="27.883069"><time>1970-01-01T00:00:01.000Z</time></trkpt>
			<trkpt lat="55.555950" lon="27.882909"><time>1970-01-01T00:00:01.000Z</time></trkpt>
			<trkpt lat="55.555870" lon="27.882828"><time>1970-01-01T00:00:01.000Z</time></trkpt>
			<trkpt lat="55.555711" lon="27.882771"><time>1970-01-01T00:00:01.000Z</time></trkpt>
			<trkpt lat="55.555186" lon="27.882005"><time>1970-01-01T00:00:01.000Z</time></trkpt>
			<trkpt lat="55.554973" lon="27.881787"><time>1970-01-01T00:00:01.000Z</time></trkpt>
			<trkpt lat="55.554536" lon="27.881193"><time>1970-01-01T00:00:01.000Z</time></trkpt>
			<trkpt lat="55.554426" lon="27.881160"><time>1970-01-01T00:00:01.000Z</time></trkpt>
			<trkpt lat="55.554335" lon="27.881053"><time>1970-01-01T00:00:01.000Z</time></trkpt>
			<trkpt lat="55.554305" lon="27.880872"><time>1970-01-01T00:00:01.000Z</time></trkpt>
			<trkpt lat="55.554151" lon="27.880698"><time>1970-01-01T00:00:01.000Z</time></trkpt>
			<trkpt lat="55.553746" lon="27.880075"><time>1970-01-01T00:00:01.000Z</time></trkpt>
			<trkpt lat="55.553356" lon="27.879627"><time>1970-01-01T00:00:01.000Z</time></trkpt>
			<trkpt lat="55.553212" lon="27.879543"><time>1970-01-01T00:00:01.000Z</time></trkpt>
			<trkpt lat="55.553117" lon="27.879302"><time>1970-01-01T00:00:01.000Z</time></trkpt>
			<trkpt lat="55.552762" lon="27.878813"><time>1970-01-01T00:00:01.000Z</time></trkpt>
			<trkpt lat="55.552689" lon="27.878576"><time>1970-01-01T00:00:01.000Z</time></trkpt>
			<trkpt lat="55.552527" lon="27.878521"><time>1970-01-01T00:00:01.000Z</time></trkpt>
			<trkpt lat="55.552147" lon="27.878047"><time>1970-01-01T00:00:01.000Z</time></trkpt>
			<trkpt lat="55.551810" lon="27.877807"><time>1970-01-01T00:00:01.000Z</time></trkpt>
			<trkpt lat="55.551660" lon="27.877649"><time>1970-01-01T00:00:01.000Z</time></trkpt>
			<trkpt lat="55.551510" lon="27.877585"><time>1970-01-01T00:00:01.000Z</time></trkpt>
			<trkpt lat="55.551350" lon="27.877540"><time>1970-01-01T00:00:01.000Z</time></trkpt>
			<trkpt lat="55.551023" lon="27.877536"><time>1970-01-01T00:00:01.000Z</time></trkpt>
			<trkpt lat="55.550920" lon="27.877505"><time>1970-01-01T00:00:01.000Z</time></trkpt>
			<trkpt lat="55.550711" lon="27.877390"><time>1970-01-01T00:00:01.000Z</time></trkpt>
			<trkpt lat="55.550562" lon="27.877208"><time>1970-01-01T00:00:01.000Z</time></trkpt>
			<trkpt lat="55.550481" lon="27.877160"><time>1970-01-01T00:00:01.000Z</time></trkpt>
			<trkpt lat="55.550316" lon="27.877118"><time>1970-01-01T00:00:01.000Z</time></trkpt>
			<trkpt lat="55.550170" lon="27.877156"><time>1970-01-01T00:00:01.000Z</time></trkpt>
			<trkpt lat="55.549950" lon="27.877067"><time>1970-01-01T00:00:01.000Z</time></trkpt>
			<trkpt lat="55.549847" lon="27.877079"><time>1970-01-01T00:00:01.000Z</time></trkpt>
			<trkpt lat="55.549685" lon="27.876724"><time>1970-01-01T00:00:01.000Z</time></trkpt>
			<trkpt lat="55.549514" lon="27.876575"><time>1970-01-01T00:00:01.000Z</time></trkpt>
			<trkpt lat="55.549269" lon="27.876598"><time>1970-01-01T00:00:01.000Z</time></trkpt>
			<trkpt lat="55.549114" lon="27.876707"><time>1970-01-01T00:00:01.000Z</time></trkpt>
			<trkpt lat="55.548816" lon="27.876785"><time>1970-01-01T00:00:01.000Z</time></trkpt>
			<trkpt lat="55.548781" lon="27.876966"><time>1970-01-01T00:00:01.000Z</time></trkpt>
			<trkpt lat="55.548794" lon="27.877141"><time>1970-01-01T00:00:01.000Z</time></trkpt>
			<trkpt lat="55.548828" lon="27.877066"><time>1970-01-01T00:00:01.000Z</time></trkpt>
			<trkpt lat="55.548834" lon="27.877091"><time>1970-01-01T00:00:01.000Z</time></trkpt>
			<trkpt lat="55.548760" lon="27.877137"><time>1970-01-01T00:00:01.000Z</time></trkpt>
		</trkseg>
	</trk>
</gpx>