<?xml version="1.0" encoding="UTF-8" standalone="no" ?>
<gpx xmlns="http://www.topografix.com/GPX/1/1" creator="http://nakarte.me" xmlns:xsi="http://www.w3.org/2001/XMLSchema-instance" xsi:schemaLocation="http://www.topografix.com/GPX/1/1 http://www.topografix.com/GPX/1/1/gpx.xsd" version="1.1">
	<metadata>
		<time>2023-07-25T11:44:53.699Z</time>
	</metadata>
	<wpt lat="52.992522" lon="29.402461">
		<name>Темный лес</name>
	</wpt>
	<wpt lat="53.060006" lon="29.389077">
		<name>Церковь</name>
	</wpt>
	<wpt lat="53.107436" lon="29.351714">
		<name>Грязь, брод, кусты</name>
	</wpt>
	<wpt lat="53.144586" lon="29.251302">
		<name>Привидение на велосипеде</name>
	</wpt>
	<wpt lat="53.139292" lon="29.221390">
		<name>Зеленый деревянный дом</name>
	</wpt>
	<trk>
		<name>2023-07-23_Березина_Бобруйск</name>
		<trkseg>
			<trkpt lat="52.987588" lon="29.397400"><time>1970-01-01T00:00:01.000Z</time></trkpt>
			<trkpt lat="52.988248" lon="29.397860"><time>1970-01-01T00:00:01.000Z</time></trkpt>
			<trkpt lat="52.988433" lon="29.398027"><time>1970-01-01T00:00:01.000Z</time></trkpt>
			<trkpt lat="52.989197" lon="29.398538"><time>1970-01-01T00:00:01.000Z</time></trkpt>
			<trkpt lat="52.990068" lon="29.398982"><time>1970-01-01T00:00:01.000Z</time></trkpt>
			<trkpt lat="52.991103" lon="29.399675"><time>1970-01-01T00:00:01.000Z</time></trkpt>
			<trkpt lat="52.991313" lon="29.399872"><time>1970-01-01T00:00:01.000Z</time></trkpt>
			<trkpt lat="52.992095" lon="29.400387"><time>1970-01-01T00:00:01.000Z</time></trkpt>
			<trkpt lat="52.992353" lon="29.400603"><time>1970-01-01T00:00:01.000Z</time></trkpt>
			<trkpt lat="52.992553" lon="29.400900"><time>1970-01-01T00:00:01.000Z</time></trkpt>
			<trkpt lat="52.992767" lon="29.401483"><time>1970-01-01T00:00:01.000Z</time></trkpt>
			<trkpt lat="52.992912" lon="29.402253"><time>1970-01-01T00:00:01.000Z</time></trkpt>
			<trkpt lat="52.993425" lon="29.404483"><time>1970-01-01T00:00:01.000Z</time></trkpt>
			<trkpt lat="52.994375" lon="29.408130"><time>1970-01-01T00:00:01.000Z</time></trkpt>
			<trkpt lat="52.994862" lon="29.410640"><time>1970-01-01T00:00:01.000Z</time></trkpt>
			<trkpt lat="52.995287" lon="29.412435"><time>1970-01-01T00:00:01.000Z</time></trkpt>
			<trkpt lat="52.995467" lon="29.413408"><time>1970-01-01T00:00:01.000Z</time></trkpt>
			<trkpt lat="52.995797" lon="29.414647"><time>1970-01-01T00:00:01.000Z</time></trkpt>
			<trkpt lat="52.996152" lon="29.415432"><time>1970-01-01T00:00:01.000Z</time></trkpt>
			<trkpt lat="52.997298" lon="29.417370"><time>1970-01-01T00:00:01.000Z</time></trkpt>
			<trkpt lat="52.998457" lon="29.419103"><time>1970-01-01T00:00:01.000Z</time></trkpt>
			<trkpt lat="52.998883" lon="29.419925"><time>1970-01-01T00:00:01.000Z</time></trkpt>
			<trkpt lat="53.000125" lon="29.421743"><time>1970-01-01T00:00:01.000Z</time></trkpt>
			<trkpt lat="53.000107" lon="29.421678"><time>1970-01-01T00:00:01.000Z</time></trkpt>
			<trkpt lat="53.000468" lon="29.422298"><time>1970-01-01T00:00:01.000Z</time></trkpt>
			<trkpt lat="53.001328" lon="29.423577"><time>1970-01-01T00:00:01.000Z</time></trkpt>
			<trkpt lat="53.001822" lon="29.424408"><time>1970-01-01T00:00:01.000Z</time></trkpt>
			<trkpt lat="53.003663" lon="29.427212"><time>1970-01-01T00:00:01.000Z</time></trkpt>
			<trkpt lat="53.004250" lon="29.428192"><time>1970-01-01T00:00:01.000Z</time></trkpt>
			<trkpt lat="53.005638" lon="29.430245"><time>1970-01-01T00:00:01.000Z</time></trkpt>
			<trkpt lat="53.006337" lon="29.431410"><time>1970-01-01T00:00:01.000Z</time></trkpt>
			<trkpt lat="53.007660" lon="29.433395"><time>1970-01-01T00:00:01.000Z</time></trkpt>
			<trkpt lat="53.009268" lon="29.435943"><time>1970-01-01T00:00:01.000Z</time></trkpt>
			<trkpt lat="53.011745" lon="29.440122"><time>1970-01-01T00:00:01.000Z</time></trkpt>
			<trkpt lat="53.012170" lon="29.440960"><time>1970-01-01T00:00:01.000Z</time></trkpt>
			<trkpt lat="53.013090" lon="29.442563"><time>1970-01-01T00:00:01.000Z</time></trkpt>
			<trkpt lat="53.013918" lon="29.443800"><time>1970-01-01T00:00:01.000Z</time></trkpt>
			<trkpt lat="53.015365" lon="29.446340"><time>1970-01-01T00:00:01.000Z</time></trkpt>
			<trkpt lat="53.016955" lon="29.449005"><time>1970-01-01T00:00:01.000Z</time></trkpt>
			<trkpt lat="53.017840" lon="29.450653"><time>1970-01-01T00:00:01.000Z</time></trkpt>
			<trkpt lat="53.018398" lon="29.451515"><time>1970-01-01T00:00:01.000Z</time></trkpt>
			<trkpt lat="53.018855" lon="29.452402"><time>1970-01-01T00:00:01.000Z</time></trkpt>
			<trkpt lat="53.019013" lon="29.452495"><time>1970-01-01T00:00:01.000Z</time></trkpt>
			<trkpt lat="53.019222" lon="29.452282"><time>1970-01-01T00:00:01.000Z</time></trkpt>
			<trkpt lat="53.019408" lon="29.452013"><time>1970-01-01T00:00:01.000Z</time></trkpt>
			<trkpt lat="53.021698" lon="29.448092"><time>1970-01-01T00:00:01.000Z</time></trkpt>
			<trkpt lat="53.021907" lon="29.447832"><time>1970-01-01T00:00:01.000Z</time></trkpt>
			<trkpt lat="53.022132" lon="29.447640"><time>1970-01-01T00:00:01.000Z</time></trkpt>
			<trkpt lat="53.022363" lon="29.447532"><time>1970-01-01T00:00:01.000Z</time></trkpt>
			<trkpt lat="53.023055" lon="29.447372"><time>1970-01-01T00:00:01.000Z</time></trkpt>
			<trkpt lat="53.023535" lon="29.447198"><time>1970-01-01T00:00:01.000Z</time></trkpt>
			<trkpt lat="53.024527" lon="29.446933"><time>1970-01-01T00:00:01.000Z</time></trkpt>
			<trkpt lat="53.025453" lon="29.446610"><time>1970-01-01T00:00:01.000Z</time></trkpt>
			<trkpt lat="53.025843" lon="29.446510"><time>1970-01-01T00:00:01.000Z</time></trkpt>
			<trkpt lat="53.026105" lon="29.446487"><time>1970-01-01T00:00:01.000Z</time></trkpt>
			<trkpt lat="53.027580" lon="29.446080"><time>1970-01-01T00:00:01.000Z</time></trkpt>
			<trkpt lat="53.027808" lon="29.445973"><time>1970-01-01T00:00:01.000Z</time></trkpt>
			<trkpt lat="53.028198" lon="29.445628"><time>1970-01-01T00:00:01.000Z</time></trkpt>
			<trkpt lat="53.029098" lon="29.444510"><time>1970-01-01T00:00:01.000Z</time></trkpt>
			<trkpt lat="53.029322" lon="29.444328"><time>1970-01-01T00:00:01.000Z</time></trkpt>
			<trkpt lat="53.029548" lon="29.444213"><time>1970-01-01T00:00:01.000Z</time></trkpt>
			<trkpt lat="53.029785" lon="29.444142"><time>1970-01-01T00:00:01.000Z</time></trkpt>
			<trkpt lat="53.031172" lon="29.443803"><time>1970-01-01T00:00:01.000Z</time></trkpt>
			<trkpt lat="53.031373" lon="29.443660"><time>1970-01-01T00:00:01.000Z</time></trkpt>
			<trkpt lat="53.031513" lon="29.443375"><time>1970-01-01T00:00:01.000Z</time></trkpt>
			<trkpt lat="53.031567" lon="29.443027"><time>1970-01-01T00:00:01.000Z</time></trkpt>
			<trkpt lat="53.030998" lon="29.437500"><time>1970-01-01T00:00:01.000Z</time></trkpt>
			<trkpt lat="53.030663" lon="29.434808"><time>1970-01-01T00:00:01.000Z</time></trkpt>
			<trkpt lat="53.030662" lon="29.434505"><time>1970-01-01T00:00:01.000Z</time></trkpt>
			<trkpt lat="53.030725" lon="29.434217"><time>1970-01-01T00:00:01.000Z</time></trkpt>
			<trkpt lat="53.030895" lon="29.434062"><time>1970-01-01T00:00:01.000Z</time></trkpt>
			<trkpt lat="53.031250" lon="29.433923"><time>1970-01-01T00:00:01.000Z</time></trkpt>
			<trkpt lat="53.032355" lon="29.433328"><time>1970-01-01T00:00:01.000Z</time></trkpt>
			<trkpt lat="53.032552" lon="29.433148"><time>1970-01-01T00:00:01.000Z</time></trkpt>
			<trkpt lat="53.032908" lon="29.432675"><time>1970-01-01T00:00:01.000Z</time></trkpt>
			<trkpt lat="53.033215" lon="29.432068"><time>1970-01-01T00:00:01.000Z</time></trkpt>
			<trkpt lat="53.033555" lon="29.431515"><time>1970-01-01T00:00:01.000Z</time></trkpt>
			<trkpt lat="53.033763" lon="29.431360"><time>1970-01-01T00:00:01.000Z</time></trkpt>
			<trkpt lat="53.034407" lon="29.431068"><time>1970-01-01T00:00:01.000Z</time></trkpt>
			<trkpt lat="53.036058" lon="29.430938"><time>1970-01-01T00:00:01.000Z</time></trkpt>
			<trkpt lat="53.036525" lon="29.430843"><time>1970-01-01T00:00:01.000Z</time></trkpt>
			<trkpt lat="53.036980" lon="29.430637"><time>1970-01-01T00:00:01.000Z</time></trkpt>
			<trkpt lat="53.037392" lon="29.430287"><time>1970-01-01T00:00:01.000Z</time></trkpt>
			<trkpt lat="53.039827" lon="29.427948"><time>1970-01-01T00:00:01.000Z</time></trkpt>
			<trkpt lat="53.040330" lon="29.427195"><time>1970-01-01T00:00:01.000Z</time></trkpt>
			<trkpt lat="53.040777" lon="29.426385"><time>1970-01-01T00:00:01.000Z</time></trkpt>
			<trkpt lat="53.041100" lon="29.425880"><time>1970-01-01T00:00:01.000Z</time></trkpt>
			<trkpt lat="53.043925" lon="29.420955"><time>1970-01-01T00:00:01.000Z</time></trkpt>
			<trkpt lat="53.044728" lon="29.419487"><time>1970-01-01T00:00:01.000Z</time></trkpt>
			<trkpt lat="53.045683" lon="29.417873"><time>1970-01-01T00:00:01.000Z</time></trkpt>
			<trkpt lat="53.047018" lon="29.415450"><time>1970-01-01T00:00:01.000Z</time></trkpt>
			<trkpt lat="53.048983" lon="29.412008"><time>1970-01-01T00:00:01.000Z</time></trkpt>
			<trkpt lat="53.049300" lon="29.411585"><time>1970-01-01T00:00:01.000Z</time></trkpt>
			<trkpt lat="53.049493" lon="29.411438"><time>1970-01-01T00:00:01.000Z</time></trkpt>
			<trkpt lat="53.049705" lon="29.411352"><time>1970-01-01T00:00:01.000Z</time></trkpt>
			<trkpt lat="53.052645" lon="29.411040"><time>1970-01-01T00:00:01.000Z</time></trkpt>
			<trkpt lat="53.052887" lon="29.410990"><time>1970-01-01T00:00:01.000Z</time></trkpt>
			<trkpt lat="53.053113" lon="29.410862"><time>1970-01-01T00:00:01.000Z</time></trkpt>
			<trkpt lat="53.053315" lon="29.410653"><time>1970-01-01T00:00:01.000Z</time></trkpt>
			<trkpt lat="53.054423" lon="29.409140"><time>1970-01-01T00:00:01.000Z</time></trkpt>
			<trkpt lat="53.056543" lon="29.406148"><time>1970-01-01T00:00:01.000Z</time></trkpt>
			<trkpt lat="53.056737" lon="29.405980"><time>1970-01-01T00:00:01.000Z</time></trkpt>
			<trkpt lat="53.056907" lon="29.406150"><time>1970-01-01T00:00:01.000Z</time></trkpt>
			<trkpt lat="53.056990" lon="29.406292"><time>1970-01-01T00:00:01.000Z</time></trkpt>
			<trkpt lat="53.057408" lon="29.407157"><time>1970-01-01T00:00:01.000Z</time></trkpt>
			<trkpt lat="53.057620" lon="29.407325"><time>1970-01-01T00:00:01.000Z</time></trkpt>
			<trkpt lat="53.057835" lon="29.407145"><time>1970-01-01T00:00:01.000Z</time></trkpt>
			<trkpt lat="53.057925" lon="29.407017"><time>1970-01-01T00:00:01.000Z</time></trkpt>
			<trkpt lat="53.057968" lon="29.406308"><time>1970-01-01T00:00:01.000Z</time></trkpt>
			<trkpt lat="53.058243" lon="29.404040"><time>1970-01-01T00:00:01.000Z</time></trkpt>
			<trkpt lat="53.059677" lon="29.393128"><time>1970-01-01T00:00:01.000Z</time></trkpt>
			<trkpt lat="53.059840" lon="29.391092"><time>1970-01-01T00:00:01.000Z</time></trkpt>
			<trkpt lat="53.060042" lon="29.389970"><time>1970-01-01T00:00:01.000Z</time></trkpt>
			<trkpt lat="53.060325" lon="29.387857"><time>1970-01-01T00:00:01.000Z</time></trkpt>
			<trkpt lat="53.061575" lon="29.377115"><time>1970-01-01T00:00:01.000Z</time></trkpt>
			<trkpt lat="53.061898" lon="29.373860"><time>1970-01-01T00:00:01.000Z</time></trkpt>
			<trkpt lat="53.062295" lon="29.372005"><time>1970-01-01T00:00:01.000Z</time></trkpt>
			<trkpt lat="53.062433" lon="29.371655"><time>1970-01-01T00:00:01.000Z</time></trkpt>
			<trkpt lat="53.062600" lon="29.371353"><time>1970-01-01T00:00:01.000Z</time></trkpt>
			<trkpt lat="53.062788" lon="29.371073"><time>1970-01-01T00:00:01.000Z</time></trkpt>
			<trkpt lat="53.063168" lon="29.370617"><time>1970-01-01T00:00:01.000Z</time></trkpt>
			<trkpt lat="53.065048" lon="29.368673"><time>1970-01-01T00:00:01.000Z</time></trkpt>
			<trkpt lat="53.065253" lon="29.368492"><time>1970-01-01T00:00:01.000Z</time></trkpt>
			<trkpt lat="53.065487" lon="29.368362"><time>1970-01-01T00:00:01.000Z</time></trkpt>
			<trkpt lat="53.068300" lon="29.367032"><time>1970-01-01T00:00:01.000Z</time></trkpt>
			<trkpt lat="53.068795" lon="29.366863"><time>1970-01-01T00:00:01.000Z</time></trkpt>
			<trkpt lat="53.073508" lon="29.364720"><time>1970-01-01T00:00:01.000Z</time></trkpt>
			<trkpt lat="53.075090" lon="29.364075"><time>1970-01-01T00:00:01.000Z</time></trkpt>
			<trkpt lat="53.077130" lon="29.363083"><time>1970-01-01T00:00:01.000Z</time></trkpt>
			<trkpt lat="53.077260" lon="29.362997"><time>1970-01-01T00:00:01.000Z</time></trkpt>
			<trkpt lat="53.077288" lon="29.362918"><time>1970-01-01T00:00:01.000Z</time></trkpt>
			<trkpt lat="53.078133" lon="29.362593"><time>1970-01-01T00:00:01.000Z</time></trkpt>
			<trkpt lat="53.079507" lon="29.361920"><time>1970-01-01T00:00:01.000Z</time></trkpt>
			<trkpt lat="53.083723" lon="29.359958"><time>1970-01-01T00:00:01.000Z</time></trkpt>
			<trkpt lat="53.084580" lon="29.359603"><time>1970-01-01T00:00:01.000Z</time></trkpt>
			<trkpt lat="53.084817" lon="29.359563"><time>1970-01-01T00:00:01.000Z</time></trkpt>
			<trkpt lat="53.085065" lon="29.359417"><time>1970-01-01T00:00:01.000Z</time></trkpt>
			<trkpt lat="53.085275" lon="29.359352"><time>1970-01-01T00:00:01.000Z</time></trkpt>
			<trkpt lat="53.085537" lon="29.359128"><time>1970-01-01T00:00:01.000Z</time></trkpt>
			<trkpt lat="53.086790" lon="29.358552"><time>1970-01-01T00:00:01.000Z</time></trkpt>
			<trkpt lat="53.087743" lon="29.358037"><time>1970-01-01T00:00:01.000Z</time></trkpt>
			<trkpt lat="53.088897" lon="29.357530"><time>1970-01-01T00:00:01.000Z</time></trkpt>
			<trkpt lat="53.089347" lon="29.357433"><time>1970-01-01T00:00:01.000Z</time></trkpt>
			<trkpt lat="53.089790" lon="29.357498"><time>1970-01-01T00:00:01.000Z</time></trkpt>
			<trkpt lat="53.092703" lon="29.358018"><time>1970-01-01T00:00:01.000Z</time></trkpt>
			<trkpt lat="53.094517" lon="29.358422"><time>1970-01-01T00:00:01.000Z</time></trkpt>
			<trkpt lat="53.094773" lon="29.358423"><time>1970-01-01T00:00:01.000Z</time></trkpt>
			<trkpt lat="53.095323" lon="29.358288"><time>1970-01-01T00:00:01.000Z</time></trkpt>
			<trkpt lat="53.096298" lon="29.357930"><time>1970-01-01T00:00:01.000Z</time></trkpt>
			<trkpt lat="53.096522" lon="29.357787"><time>1970-01-01T00:00:01.000Z</time></trkpt>
			<trkpt lat="53.096965" lon="29.357582"><time>1970-01-01T00:00:01.000Z</time></trkpt>
			<trkpt lat="53.097052" lon="29.357470"><time>1970-01-01T00:00:01.000Z</time></trkpt>
			<trkpt lat="53.097362" lon="29.357245"><time>1970-01-01T00:00:01.000Z</time></trkpt>
			<trkpt lat="53.099150" lon="29.356505"><time>1970-01-01T00:00:01.000Z</time></trkpt>
			<trkpt lat="53.099563" lon="29.356293"><time>1970-01-01T00:00:01.000Z</time></trkpt>
			<trkpt lat="53.099955" lon="29.356185"><time>1970-01-01T00:00:01.000Z</time></trkpt>
			<trkpt lat="53.101038" lon="29.355707"><time>1970-01-01T00:00:01.000Z</time></trkpt>
			<trkpt lat="53.101225" lon="29.355588"><time>1970-01-01T00:00:01.000Z</time></trkpt>
			<trkpt lat="53.101385" lon="29.355432"><time>1970-01-01T00:00:01.000Z</time></trkpt>
			<trkpt lat="53.101705" lon="29.354625"><time>1970-01-01T00:00:01.000Z</time></trkpt>
			<trkpt lat="53.102165" lon="29.354648"><time>1970-01-01T00:00:01.000Z</time></trkpt>
			<trkpt lat="53.102633" lon="29.354528"><time>1970-01-01T00:00:01.000Z</time></trkpt>
			<trkpt lat="53.103172" lon="29.354225"><time>1970-01-01T00:00:01.000Z</time></trkpt>
			<trkpt lat="53.103367" lon="29.354147"><time>1970-01-01T00:00:01.000Z</time></trkpt>
			<trkpt lat="53.103553" lon="29.354118"><time>1970-01-01T00:00:01.000Z</time></trkpt>
			<trkpt lat="53.104130" lon="29.353830"><time>1970-01-01T00:00:01.000Z</time></trkpt>
			<trkpt lat="53.104252" lon="29.353800"><time>1970-01-01T00:00:01.000Z</time></trkpt>
			<trkpt lat="53.104432" lon="29.353652"><time>1970-01-01T00:00:01.000Z</time></trkpt>
			<trkpt lat="53.104485" lon="29.353520"><time>1970-01-01T00:00:01.000Z</time></trkpt>
			<trkpt lat="53.105107" lon="29.353253"><time>1970-01-01T00:00:01.000Z</time></trkpt>
			<trkpt lat="53.105263" lon="29.353223"><time>1970-01-01T00:00:01.000Z</time></trkpt>
			<trkpt lat="53.105585" lon="29.353025"><time>1970-01-01T00:00:01.000Z</time></trkpt>
			<trkpt lat="53.105768" lon="29.353002"><time>1970-01-01T00:00:01.000Z</time></trkpt>
			<trkpt lat="53.106213" lon="29.352853"><time>1970-01-01T00:00:01.000Z</time></trkpt>
			<trkpt lat="53.106330" lon="29.352857"><time>1970-01-01T00:00:01.000Z</time></trkpt>
			<trkpt lat="53.106445" lon="29.352922"><time>1970-01-01T00:00:01.000Z</time></trkpt>
			<trkpt lat="53.106482" lon="29.352997"><time>1970-01-01T00:00:01.000Z</time></trkpt>
			<trkpt lat="53.106515" lon="29.352930"><time>1970-01-01T00:00:01.000Z</time></trkpt>
			<trkpt lat="53.106440" lon="29.352827"><time>1970-01-01T00:00:01.000Z</time></trkpt>
			<trkpt lat="53.106453" lon="29.352752"><time>1970-01-01T00:00:01.000Z</time></trkpt>
			<trkpt lat="53.106595" lon="29.352730"><time>1970-01-01T00:00:01.000Z</time></trkpt>
			<trkpt lat="53.106698" lon="29.352668"><time>1970-01-01T00:00:01.000Z</time></trkpt>
			<trkpt lat="53.106923" lon="29.352525"><time>1970-01-01T00:00:01.000Z</time></trkpt>
			<trkpt lat="53.107173" lon="29.352308"><time>1970-01-01T00:00:01.000Z</time></trkpt>
			<trkpt lat="53.107318" lon="29.352292"><time>1970-01-01T00:00:01.000Z</time></trkpt>
			<trkpt lat="53.107363" lon="29.352223"><time>1970-01-01T00:00:01.000Z</time></trkpt>
			<trkpt lat="53.107443" lon="29.352188"><time>1970-01-01T00:00:01.000Z</time></trkpt>
			<trkpt lat="53.107472" lon="29.352207"><time>1970-01-01T00:00:01.000Z</time></trkpt>
			<trkpt lat="53.107412" lon="29.352187"><time>1970-01-01T00:00:01.000Z</time></trkpt>
			<trkpt lat="53.107448" lon="29.352142"><time>1970-01-01T00:00:01.000Z</time></trkpt>
			<trkpt lat="53.107363" lon="29.352187"><time>1970-01-01T00:00:01.000Z</time></trkpt>
			<trkpt lat="53.107442" lon="29.352142"><time>1970-01-01T00:00:01.000Z</time></trkpt>
			<trkpt lat="53.107493" lon="29.352173"><time>1970-01-01T00:00:01.000Z</time></trkpt>
			<trkpt lat="53.107657" lon="29.352153"><time>1970-01-01T00:00:01.000Z</time></trkpt>
			<trkpt lat="53.107913" lon="29.352008"><time>1970-01-01T00:00:01.000Z</time></trkpt>
			<trkpt lat="53.108062" lon="29.352018"><time>1970-01-01T00:00:01.000Z</time></trkpt>
			<trkpt lat="53.108302" lon="29.351915"><time>1970-01-01T00:00:01.000Z</time></trkpt>
			<trkpt lat="53.108885" lon="29.351570"><time>1970-01-01T00:00:01.000Z</time></trkpt>
			<trkpt lat="53.109360" lon="29.351190"><time>1970-01-01T00:00:01.000Z</time></trkpt>
			<trkpt lat="53.109812" lon="29.350678"><time>1970-01-01T00:00:01.000Z</time></trkpt>
			<trkpt lat="53.110162" lon="29.350217"><time>1970-01-01T00:00:01.000Z</time></trkpt>
			<trkpt lat="53.110757" lon="29.349347"><time>1970-01-01T00:00:01.000Z</time></trkpt>
			<trkpt lat="53.110838" lon="29.349317"><time>1970-01-01T00:00:01.000Z</time></trkpt>
			<trkpt lat="53.111065" lon="29.349070"><time>1970-01-01T00:00:01.000Z</time></trkpt>
			<trkpt lat="53.111250" lon="29.348725"><time>1970-01-01T00:00:01.000Z</time></trkpt>
			<trkpt lat="53.111367" lon="29.348592"><time>1970-01-01T00:00:01.000Z</time></trkpt>
			<trkpt lat="53.111390" lon="29.348503"><time>1970-01-01T00:00:01.000Z</time></trkpt>
			<trkpt lat="53.111332" lon="29.348420"><time>1970-01-01T00:00:01.000Z</time></trkpt>
			<trkpt lat="53.111397" lon="29.348517"><time>1970-01-01T00:00:01.000Z</time></trkpt>
			<trkpt lat="53.111388" lon="29.348665"><time>1970-01-01T00:00:01.000Z</time></trkpt>
			<trkpt lat="53.111508" lon="29.348693"><time>1970-01-01T00:00:01.000Z</time></trkpt>
			<trkpt lat="53.111562" lon="29.348652"><time>1970-01-01T00:00:01.000Z</time></trkpt>
			<trkpt lat="53.111673" lon="29.348672"><time>1970-01-01T00:00:01.000Z</time></trkpt>
			<trkpt lat="53.111785" lon="29.348633"><time>1970-01-01T00:00:01.000Z</time></trkpt>
			<trkpt lat="53.111867" lon="29.348658"><time>1970-01-01T00:00:01.000Z</time></trkpt>
			<trkpt lat="53.111845" lon="29.348582"><time>1970-01-01T00:00:01.000Z</time></trkpt>
			<trkpt lat="53.112785" lon="29.347410"><time>1970-01-01T00:00:01.000Z</time></trkpt>
			<trkpt lat="53.114395" lon="29.345227"><time>1970-01-01T00:00:01.000Z</time></trkpt>
			<trkpt lat="53.114658" lon="29.344932"><time>1970-01-01T00:00:01.000Z</time></trkpt>
			<trkpt lat="53.115667" lon="29.343602"><time>1970-01-01T00:00:01.000Z</time></trkpt>
			<trkpt lat="53.117007" lon="29.341605"><time>1970-01-01T00:00:01.000Z</time></trkpt>
			<trkpt lat="53.119565" lon="29.338008"><time>1970-01-01T00:00:01.000Z</time></trkpt>
			<trkpt lat="53.121830" lon="29.334917"><time>1970-01-01T00:00:01.000Z</time></trkpt>
			<trkpt lat="53.122062" lon="29.334535"><time>1970-01-01T00:00:01.000Z</time></trkpt>
			<trkpt lat="53.124108" lon="29.331788"><time>1970-01-01T00:00:01.000Z</time></trkpt>
			<trkpt lat="53.125495" lon="29.329792"><time>1970-01-01T00:00:01.000Z</time></trkpt>
			<trkpt lat="53.126713" lon="29.328160"><time>1970-01-01T00:00:01.000Z</time></trkpt>
			<trkpt lat="53.127330" lon="29.327193"><time>1970-01-01T00:00:01.000Z</time></trkpt>
			<trkpt lat="53.128802" lon="29.325270"><time>1970-01-01T00:00:01.000Z</time></trkpt>
			<trkpt lat="53.129028" lon="29.324880"><time>1970-01-01T00:00:01.000Z</time></trkpt>
			<trkpt lat="53.130518" lon="29.322723"><time>1970-01-01T00:00:01.000Z</time></trkpt>
			<trkpt lat="53.131040" lon="29.322048"><time>1970-01-01T00:00:01.000Z</time></trkpt>
			<trkpt lat="53.132632" lon="29.319792"><time>1970-01-01T00:00:01.000Z</time></trkpt>
			<trkpt lat="53.133263" lon="29.318818"><time>1970-01-01T00:00:01.000Z</time></trkpt>
			<trkpt lat="53.134950" lon="29.315960"><time>1970-01-01T00:00:01.000Z</time></trkpt>
			<trkpt lat="53.138012" lon="29.311030"><time>1970-01-01T00:00:01.000Z</time></trkpt>
			<trkpt lat="53.138365" lon="29.310405"><time>1970-01-01T00:00:01.000Z</time></trkpt>
			<trkpt lat="53.139173" lon="29.309142"><time>1970-01-01T00:00:01.000Z</time></trkpt>
			<trkpt lat="53.139453" lon="29.308762"><time>1970-01-01T00:00:01.000Z</time></trkpt>
			<trkpt lat="53.139465" lon="29.308292"><time>1970-01-01T00:00:01.000Z</time></trkpt>
			<trkpt lat="53.139322" lon="29.306308"><time>1970-01-01T00:00:01.000Z</time></trkpt>
			<trkpt lat="53.139107" lon="29.301230"><time>1970-01-01T00:00:01.000Z</time></trkpt>
			<trkpt lat="53.138868" lon="29.296950"><time>1970-01-01T00:00:01.000Z</time></trkpt>
			<trkpt lat="53.138855" lon="29.295878"><time>1970-01-01T00:00:01.000Z</time></trkpt>
			<trkpt lat="53.140763" lon="29.276868"><time>1970-01-01T00:00:01.000Z</time></trkpt>
			<trkpt lat="53.140997" lon="29.276125"><time>1970-01-01T00:00:01.000Z</time></trkpt>
			<trkpt lat="53.141070" lon="29.275648"><time>1970-01-01T00:00:01.000Z</time></trkpt>
			<trkpt lat="53.141388" lon="29.272625"><time>1970-01-01T00:00:01.000Z</time></trkpt>
			<trkpt lat="53.141420" lon="29.272167"><time>1970-01-01T00:00:01.000Z</time></trkpt>
			<trkpt lat="53.141385" lon="29.270842"><time>1970-01-01T00:00:01.000Z</time></trkpt>
			<trkpt lat="53.142383" lon="29.261155"><time>1970-01-01T00:00:01.000Z</time></trkpt>
			<trkpt lat="53.142457" lon="29.260482"><time>1970-01-01T00:00:01.000Z</time></trkpt>
			<trkpt lat="53.142578" lon="29.259843"><time>1970-01-01T00:00:01.000Z</time></trkpt>
			<trkpt lat="53.142823" lon="29.259305"><time>1970-01-01T00:00:01.000Z</time></trkpt>
			<trkpt lat="53.143233" lon="29.258142"><time>1970-01-01T00:00:01.000Z</time></trkpt>
			<trkpt lat="53.143708" lon="29.257167"><time>1970-01-01T00:00:01.000Z</time></trkpt>
			<trkpt lat="53.144023" lon="29.256245"><time>1970-01-01T00:00:01.000Z</time></trkpt>
			<trkpt lat="53.144638" lon="29.255063"><time>1970-01-01T00:00:01.000Z</time></trkpt>
			<trkpt lat="53.145203" lon="29.254142"><time>1970-01-01T00:00:01.000Z</time></trkpt>
			<trkpt lat="53.145410" lon="29.253737"><time>1970-01-01T00:00:01.000Z</time></trkpt>
			<trkpt lat="53.145372" lon="29.253620"><time>1970-01-01T00:00:01.000Z</time></trkpt>
			<trkpt lat="53.145227" lon="29.253530"><time>1970-01-01T00:00:01.000Z</time></trkpt>
			<trkpt lat="53.145083" lon="29.253307"><time>1970-01-01T00:00:01.000Z</time></trkpt>
			<trkpt lat="53.144433" lon="29.251932"><time>1970-01-01T00:00:01.000Z</time></trkpt>
			<trkpt lat="53.144412" lon="29.251698"><time>1970-01-01T00:00:01.000Z</time></trkpt>
			<trkpt lat="53.144502" lon="29.251382"><time>1970-01-01T00:00:01.000Z</time></trkpt>
			<trkpt lat="53.144517" lon="29.251497"><time>1970-01-01T00:00:01.000Z</time></trkpt>
			<trkpt lat="53.144448" lon="29.251693"><time>1970-01-01T00:00:01.000Z</time></trkpt>
			<trkpt lat="53.144160" lon="29.251427"><time>1970-01-01T00:00:01.000Z</time></trkpt>
			<trkpt lat="53.143910" lon="29.251030"><time>1970-01-01T00:00:01.000Z</time></trkpt>
			<trkpt lat="53.143272" lon="29.250173"><time>1970-01-01T00:00:01.000Z</time></trkpt>
			<trkpt lat="53.142370" lon="29.248685"><time>1970-01-01T00:00:01.000Z</time></trkpt>
			<trkpt lat="53.142033" lon="29.247970"><time>1970-01-01T00:00:01.000Z</time></trkpt>
			<trkpt lat="53.141617" lon="29.247440"><time>1970-01-01T00:00:01.000Z</time></trkpt>
			<trkpt lat="53.141125" lon="29.246610"><time>1970-01-01T00:00:01.000Z</time></trkpt>
			<trkpt lat="53.141060" lon="29.246412"><time>1970-01-01T00:00:01.000Z</time></trkpt>
			<trkpt lat="53.140940" lon="29.246332"><time>1970-01-01T00:00:01.000Z</time></trkpt>
			<trkpt lat="53.141548" lon="29.245325"><time>1970-01-01T00:00:01.000Z</time></trkpt>
			<trkpt lat="53.141607" lon="29.245062"><time>1970-01-01T00:00:01.000Z</time></trkpt>
			<trkpt lat="53.141552" lon="29.244743"><time>1970-01-01T00:00:01.000Z</time></trkpt>
			<trkpt lat="53.141573" lon="29.244412"><time>1970-01-01T00:00:01.000Z</time></trkpt>
			<trkpt lat="53.141982" lon="29.243455"><time>1970-01-01T00:00:01.000Z</time></trkpt>
			<trkpt lat="53.142262" lon="29.242880"><time>1970-01-01T00:00:01.000Z</time></trkpt>
			<trkpt lat="53.142820" lon="29.242175"><time>1970-01-01T00:00:01.000Z</time></trkpt>
			<trkpt lat="53.142863" lon="29.241937"><time>1970-01-01T00:00:01.000Z</time></trkpt>
			<trkpt lat="53.142738" lon="29.241677"><time>1970-01-01T00:00:01.000Z</time></trkpt>
			<trkpt lat="53.142813" lon="29.241300"><time>1970-01-01T00:00:01.000Z</time></trkpt>
			<trkpt lat="53.142987" lon="29.240583"><time>1970-01-01T00:00:01.000Z</time></trkpt>
			<trkpt lat="53.143118" lon="29.240312"><time>1970-01-01T00:00:01.000Z</time></trkpt>
			<trkpt lat="53.143267" lon="29.239725"><time>1970-01-01T00:00:01.000Z</time></trkpt>
			<trkpt lat="53.143492" lon="29.239075"><time>1970-01-01T00:00:01.000Z</time></trkpt>
			<trkpt lat="53.143647" lon="29.238783"><time>1970-01-01T00:00:01.000Z</time></trkpt>
			<trkpt lat="53.143738" lon="29.238520"><time>1970-01-01T00:00:01.000Z</time></trkpt>
			<trkpt lat="53.144145" lon="29.237867"><time>1970-01-01T00:00:01.000Z</time></trkpt>
			<trkpt lat="53.144420" lon="29.237252"><time>1970-01-01T00:00:01.000Z</time></trkpt>
			<trkpt lat="53.144758" lon="29.236813"><time>1970-01-01T00:00:01.000Z</time></trkpt>
			<trkpt lat="53.145013" lon="29.236252"><time>1970-01-01T00:00:01.000Z</time></trkpt>
			<trkpt lat="53.145072" lon="29.236018"><time>1970-01-01T00:00:01.000Z</time></trkpt>
			<trkpt lat="53.144912" lon="29.235522"><time>1970-01-01T00:00:01.000Z</time></trkpt>
			<trkpt lat="53.144457" lon="29.234978"><time>1970-01-01T00:00:01.000Z</time></trkpt>
			<trkpt lat="53.143988" lon="29.234068"><time>1970-01-01T00:00:01.000Z</time></trkpt>
			<trkpt lat="53.143805" lon="29.233863"><time>1970-01-01T00:00:01.000Z</time></trkpt>
			<trkpt lat="53.143088" lon="29.233208"><time>1970-01-01T00:00:01.000Z</time></trkpt>
			<trkpt lat="53.142893" lon="29.232972"><time>1970-01-01T00:00:01.000Z</time></trkpt>
			<trkpt lat="53.142242" lon="29.232367"><time>1970-01-01T00:00:01.000Z</time></trkpt>
			<trkpt lat="53.141635" lon="29.231912"><time>1970-01-01T00:00:01.000Z</time></trkpt>
			<trkpt lat="53.140828" lon="29.231383"><time>1970-01-01T00:00:01.000Z</time></trkpt>
			<trkpt lat="53.140663" lon="29.231365"><time>1970-01-01T00:00:01.000Z</time></trkpt>
			<trkpt lat="53.140403" lon="29.231432"><time>1970-01-01T00:00:01.000Z</time></trkpt>
			<trkpt lat="53.140227" lon="29.231378"><time>1970-01-01T00:00:01.000Z</time></trkpt>
			<trkpt lat="53.139518" lon="29.231467"><time>1970-01-01T00:00:01.000Z</time></trkpt>
			<trkpt lat="53.139057" lon="29.231463"><time>1970-01-01T00:00:01.000Z</time></trkpt>
			<trkpt lat="53.138793" lon="29.231527"><time>1970-01-01T00:00:01.000Z</time></trkpt>
			<trkpt lat="53.137802" lon="29.231653"><time>1970-01-01T00:00:01.000Z</time></trkpt>
			<trkpt lat="53.137733" lon="29.231718"><time>1970-01-01T00:00:01.000Z</time></trkpt>
			<trkpt lat="53.137578" lon="29.231687"><time>1970-01-01T00:00:01.000Z</time></trkpt>
			<trkpt lat="53.137167" lon="29.231752"><time>1970-01-01T00:00:01.000Z</time></trkpt>
			<trkpt lat="53.137058" lon="29.231612"><time>1970-01-01T00:00:01.000Z</time></trkpt>
			<trkpt lat="53.136990" lon="29.231302"><time>1970-01-01T00:00:01.000Z</time></trkpt>
			<trkpt lat="53.136970" lon="29.230925"><time>1970-01-01T00:00:01.000Z</time></trkpt>
			<trkpt lat="53.136908" lon="29.230632"><time>1970-01-01T00:00:01.000Z</time></trkpt>
			<trkpt lat="53.136935" lon="29.230312"><time>1970-01-01T00:00:01.000Z</time></trkpt>
			<trkpt lat="53.136918" lon="29.229993"><time>1970-01-01T00:00:01.000Z</time></trkpt>
			<trkpt lat="53.136818" lon="29.229238"><time>1970-01-01T00:00:01.000Z</time></trkpt>
			<trkpt lat="53.136668" lon="29.228525"><time>1970-01-01T00:00:01.000Z</time></trkpt>
			<trkpt lat="53.136597" lon="29.227575"><time>1970-01-01T00:00:01.000Z</time></trkpt>
			<trkpt lat="53.136673" lon="29.227450"><time>1970-01-01T00:00:01.000Z</time></trkpt>
			<trkpt lat="53.137015" lon="29.227250"><time>1970-01-01T00:00:01.000Z</time></trkpt>
			<trkpt lat="53.137742" lon="29.227038"><time>1970-01-01T00:00:01.000Z</time></trkpt>
			<trkpt lat="53.137842" lon="29.226737"><time>1970-01-01T00:00:01.000Z</time></trkpt>
			<trkpt lat="53.137985" lon="29.226768"><time>1970-01-01T00:00:01.000Z</time></trkpt>
			<trkpt lat="53.138412" lon="29.226750"><time>1970-01-01T00:00:01.000Z</time></trkpt>
			<trkpt lat="53.138578" lon="29.226580"><time>1970-01-01T00:00:01.000Z</time></trkpt>
			<trkpt lat="53.138725" lon="29.226288"><time>1970-01-01T00:00:01.000Z</time></trkpt>
			<trkpt lat="53.139108" lon="29.225822"><time>1970-01-01T00:00:01.000Z</time></trkpt>
			<trkpt lat="53.139640" lon="29.224978"><time>1970-01-01T00:00:01.000Z</time></trkpt>
			<trkpt lat="53.139658" lon="29.224885"><time>1970-01-01T00:00:01.000Z</time></trkpt>
			<trkpt lat="53.139632" lon="29.224790"><time>1970-01-01T00:00:01.000Z</time></trkpt>
			<trkpt lat="53.139637" lon="29.223020"><time>1970-01-01T00:00:01.000Z</time></trkpt>
			<trkpt lat="53.139575" lon="29.222575"><time>1970-01-01T00:00:01.000Z</time></trkpt>
			<trkpt lat="53.139540" lon="29.221453"><time>1970-01-01T00:00:01.000Z</time></trkpt>
			<trkpt lat="53.139503" lon="29.221253"><time>1970-01-01T00:00:01.000Z</time></trkpt>
			<trkpt lat="53.139485" lon="29.220145"><time>1970-01-01T00:00:01.000Z</time></trkpt>
			<trkpt lat="53.139387" lon="29.219502"><time>1970-01-01T00:00:01.000Z</time></trkpt>
			<trkpt lat="53.139208" lon="29.216472"><time>1970-01-01T00:00:01.000Z</time></trkpt>
			<trkpt lat="53.139135" lon="29.216017"><time>1970-01-01T00:00:01.000Z</time></trkpt>
			<trkpt lat="53.138902" lon="29.209993"><time>1970-01-01T00:00:01.000Z</time></trkpt>
			<trkpt lat="53.138692" lon="29.207772"><time>1970-01-01T00:00:01.000Z</time></trkpt>
			<trkpt lat="53.138702" lon="29.206790"><time>1970-01-01T00:00:01.000Z</time></trkpt>
			<trkpt lat="53.138437" lon="29.202395"><time>1970-01-01T00:00:01.000Z</time></trkpt>
			<trkpt lat="53.138470" lon="29.202060"><time>1970-01-01T00:00:01.000Z</time></trkpt>
			<trkpt lat="53.138442" lon="29.201247"><time>1970-01-01T00:00:01.000Z</time></trkpt>
			<trkpt lat="53.138317" lon="29.200158"><time>1970-01-01T00:00:01.000Z</time></trkpt>
			<trkpt lat="53.138265" lon="29.199312"><time>1970-01-01T00:00:01.000Z</time></trkpt>
			<trkpt lat="53.138263" lon="29.197990"><time>1970-01-01T00:00:01.000Z</time></trkpt>
			<trkpt lat="53.138155" lon="29.197632"><time>1970-01-01T00:00:01.000Z</time></trkpt>
			<trkpt lat="53.138102" lon="29.197078"><time>1970-01-01T00:00:01.000Z</time></trkpt>
			<trkpt lat="53.137975" lon="29.196812"><time>1970-01-01T00:00:01.000Z</time></trkpt>
			<trkpt lat="53.137637" lon="29.196425"><time>1970-01-01T00:00:01.000Z</time></trkpt>
			<trkpt lat="53.137608" lon="29.196265"><time>1970-01-01T00:00:01.000Z</time></trkpt>
			<trkpt lat="53.137755" lon="29.195993"><time>1970-01-01T00:00:01.000Z</time></trkpt>
			<trkpt lat="53.137642" lon="29.195830"><time>1970-01-01T00:00:01.000Z</time></trkpt>
			<trkpt lat="53.137582" lon="29.196013"><time>1970-01-01T00:00:01.000Z</time></trkpt>
			<trkpt lat="53.137607" lon="29.195827"><time>1970-01-01T00:00:01.000Z</time></trkpt>
			<trkpt lat="53.137660" lon="29.195715"><time>1970-01-01T00:00:01.000Z</time></trkpt>
			<trkpt lat="53.137805" lon="29.195837"><time>1970-01-01T00:00:01.000Z</time></trkpt>
			<trkpt lat="53.138043" lon="29.195833"><time>1970-01-01T00:00:01.000Z</time></trkpt>
		</trkseg>
	</trk>
</gpx>