<?xml version="1.0" encoding="UTF-8" standalone="no" ?>
<gpx xmlns="http://www.topografix.com/GPX/1/1" creator="http://nakarte.me" xmlns:xsi="http://www.w3.org/2001/XMLSchema-instance" xsi:schemaLocation="http://www.topografix.com/GPX/1/1 http://www.topografix.com/GPX/1/1/gpx.xsd" version="1.1">
	<metadata>
		<time>2024-01-02T19:01:21.904Z</time>
	</metadata>
	<wpt lat="53.988452" lon="27.432132">
		<name>Холм</name>
	</wpt>
	<wpt lat="53.977620" lon="27.435522">
		<name>Подтопленый лес</name>
	</wpt>
	<wpt lat="53.976295" lon="27.434696">
		<name>Красивый канал</name>
	</wpt>
	<wpt lat="53.976149" lon="27.426767">
		<name>Заросшая дорога</name>
	</wpt>
	<wpt lat="53.976787" lon="27.425233">
		<name>Нормальная дорога</name>
	</wpt>
	<wpt lat="53.976591" lon="27.426049">
		<name>Сосновые посадки</name>
	</wpt>
	<wpt lat="53.988237" lon="27.428377">
		<name>Не сильно хоженый лес</name>
	</wpt>
	<wpt lat="53.980982" lon="27.431445">
		<name>Тропа</name>
	</wpt>
	<trk>
		<name>2024-01-01_МинскоеМоре_Пляж5</name>
		<trkseg>
			<trkpt lat="53.974219" lon="27.417655"><time>1970-01-01T00:00:01.000Z</time></trkpt>
			<trkpt lat="53.974179" lon="27.417603"><time>1970-01-01T00:00:01.000Z</time></trkpt>
			<trkpt lat="53.974265" lon="27.417588"><time>1970-01-01T00:00:01.000Z</time></trkpt>
			<trkpt lat="53.974176" lon="27.417577"><time>1970-01-01T00:00:01.000Z</time></trkpt>
			<trkpt lat="53.974310" lon="27.417475"><time>1970-01-01T00:00:01.000Z</time></trkpt>
			<trkpt lat="53.974593" lon="27.417040"><time>1970-01-01T00:00:01.000Z</time></trkpt>
			<trkpt lat="53.974708" lon="27.417044"><time>1970-01-01T00:00:01.000Z</time></trkpt>
			<trkpt lat="53.975046" lon="27.417252"><time>1970-01-01T00:00:01.000Z</time></trkpt>
			<trkpt lat="53.975274" lon="27.417475"><time>1970-01-01T00:00:01.000Z</time></trkpt>
			<trkpt lat="53.975635" lon="27.417747"><time>1970-01-01T00:00:01.000Z</time></trkpt>
			<trkpt lat="53.975763" lon="27.417827"><time>1970-01-01T00:00:01.000Z</time></trkpt>
			<trkpt lat="53.975921" lon="27.417870"><time>1970-01-01T00:00:01.000Z</time></trkpt>
			<trkpt lat="53.976401" lon="27.418275"><time>1970-01-01T00:00:01.000Z</time></trkpt>
			<trkpt lat="53.976505" lon="27.418202"><time>1970-01-01T00:00:01.000Z</time></trkpt>
			<trkpt lat="53.976735" lon="27.417645"><time>1970-01-01T00:00:01.000Z</time></trkpt>
			<trkpt lat="53.976750" lon="27.417702"><time>1970-01-01T00:00:01.000Z</time></trkpt>
			<trkpt lat="53.976754" lon="27.417609"><time>1970-01-01T00:00:01.000Z</time></trkpt>
			<trkpt lat="53.976868" lon="27.417777"><time>1970-01-01T00:00:01.000Z</time></trkpt>
			<trkpt lat="53.977168" lon="27.418086"><time>1970-01-01T00:00:01.000Z</time></trkpt>
			<trkpt lat="53.977528" lon="27.417888"><time>1970-01-01T00:00:01.000Z</time></trkpt>
			<trkpt lat="53.977668" lon="27.417860"><time>1970-01-01T00:00:01.000Z</time></trkpt>
			<trkpt lat="53.977808" lon="27.417913"><time>1970-01-01T00:00:01.000Z</time></trkpt>
			<trkpt lat="53.977923" lon="27.418020"><time>1970-01-01T00:00:01.000Z</time></trkpt>
			<trkpt lat="53.978010" lon="27.418183"><time>1970-01-01T00:00:01.000Z</time></trkpt>
			<trkpt lat="53.978224" lon="27.418751"><time>1970-01-01T00:00:01.000Z</time></trkpt>
			<trkpt lat="53.978307" lon="27.418868"><time>1970-01-01T00:00:01.000Z</time></trkpt>
			<trkpt lat="53.978396" lon="27.418877"><time>1970-01-01T00:00:01.000Z</time></trkpt>
			<trkpt lat="53.978526" lon="27.419042"><time>1970-01-01T00:00:01.000Z</time></trkpt>
			<trkpt lat="53.978623" lon="27.419052"><time>1970-01-01T00:00:01.000Z</time></trkpt>
			<trkpt lat="53.978607" lon="27.419079"><time>1970-01-01T00:00:01.000Z</time></trkpt>
			<trkpt lat="53.978565" lon="27.419047"><time>1970-01-01T00:00:01.000Z</time></trkpt>
			<trkpt lat="53.978580" lon="27.419097"><time>1970-01-01T00:00:01.000Z</time></trkpt>
			<trkpt lat="53.978717" lon="27.419150"><time>1970-01-01T00:00:01.000Z</time></trkpt>
			<trkpt lat="53.978949" lon="27.419328"><time>1970-01-01T00:00:01.000Z</time></trkpt>
			<trkpt lat="53.979008" lon="27.419417"><time>1970-01-01T00:00:01.000Z</time></trkpt>
			<trkpt lat="53.979037" lon="27.419522"><time>1970-01-01T00:00:01.000Z</time></trkpt>
			<trkpt lat="53.978964" lon="27.419823"><time>1970-01-01T00:00:01.000Z</time></trkpt>
			<trkpt lat="53.979064" lon="27.419981"><time>1970-01-01T00:00:01.000Z</time></trkpt>
			<trkpt lat="53.979286" lon="27.420221"><time>1970-01-01T00:00:01.000Z</time></trkpt>
			<trkpt lat="53.979513" lon="27.420386"><time>1970-01-01T00:00:01.000Z</time></trkpt>
			<trkpt lat="53.979804" lon="27.420500"><time>1970-01-01T00:00:01.000Z</time></trkpt>
			<trkpt lat="53.979889" lon="27.420435"><time>1970-01-01T00:00:01.000Z</time></trkpt>
			<trkpt lat="53.980104" lon="27.420532"><time>1970-01-01T00:00:01.000Z</time></trkpt>
			<trkpt lat="53.980445" lon="27.420563"><time>1970-01-01T00:00:01.000Z</time></trkpt>
			<trkpt lat="53.980762" lon="27.420562"><time>1970-01-01T00:00:01.000Z</time></trkpt>
			<trkpt lat="53.980953" lon="27.420506"><time>1970-01-01T00:00:01.000Z</time></trkpt>
			<trkpt lat="53.981052" lon="27.420534"><time>1970-01-01T00:00:01.000Z</time></trkpt>
			<trkpt lat="53.981310" lon="27.420857"><time>1970-01-01T00:00:01.000Z</time></trkpt>
			<trkpt lat="53.981576" lon="27.421611"><time>1970-01-01T00:00:01.000Z</time></trkpt>
			<trkpt lat="53.981947" lon="27.422296"><time>1970-01-01T00:00:01.000Z</time></trkpt>
			<trkpt lat="53.982050" lon="27.422451"><time>1970-01-01T00:00:01.000Z</time></trkpt>
			<trkpt lat="53.982159" lon="27.422544"><time>1970-01-01T00:00:01.000Z</time></trkpt>
			<trkpt lat="53.982268" lon="27.422615"><time>1970-01-01T00:00:01.000Z</time></trkpt>
			<trkpt lat="53.982461" lon="27.422657"><time>1970-01-01T00:00:01.000Z</time></trkpt>
			<trkpt lat="53.982594" lon="27.422781"><time>1970-01-01T00:00:01.000Z</time></trkpt>
			<trkpt lat="53.982743" lon="27.422837"><time>1970-01-01T00:00:01.000Z</time></trkpt>
			<trkpt lat="53.983198" lon="27.423140"><time>1970-01-01T00:00:01.000Z</time></trkpt>
			<trkpt lat="53.983386" lon="27.423127"><time>1970-01-01T00:00:01.000Z</time></trkpt>
			<trkpt lat="53.983970" lon="27.422914"><time>1970-01-01T00:00:01.000Z</time></trkpt>
			<trkpt lat="53.984084" lon="27.422796"><time>1970-01-01T00:00:01.000Z</time></trkpt>
			<trkpt lat="53.984307" lon="27.422699"><time>1970-01-01T00:00:01.000Z</time></trkpt>
			<trkpt lat="53.984334" lon="27.422624"><time>1970-01-01T00:00:01.000Z</time></trkpt>
			<trkpt lat="53.984446" lon="27.422730"><time>1970-01-01T00:00:01.000Z</time></trkpt>
			<trkpt lat="53.984599" lon="27.422965"><time>1970-01-01T00:00:01.000Z</time></trkpt>
			<trkpt lat="53.984739" lon="27.422968"><time>1970-01-01T00:00:01.000Z</time></trkpt>
			<trkpt lat="53.985082" lon="27.423141"><time>1970-01-01T00:00:01.000Z</time></trkpt>
			<trkpt lat="53.985876" lon="27.423783"><time>1970-01-01T00:00:01.000Z</time></trkpt>
			<trkpt lat="53.986192" lon="27.424775"><time>1970-01-01T00:00:01.000Z</time></trkpt>
			<trkpt lat="53.986204" lon="27.425095"><time>1970-01-01T00:00:01.000Z</time></trkpt>
			<trkpt lat="53.986285" lon="27.425062"><time>1970-01-01T00:00:01.000Z</time></trkpt>
			<trkpt lat="53.986399" lon="27.425175"><time>1970-01-01T00:00:01.000Z</time></trkpt>
			<trkpt lat="53.986749" lon="27.425783"><time>1970-01-01T00:00:01.000Z</time></trkpt>
			<trkpt lat="53.986958" lon="27.425976"><time>1970-01-01T00:00:01.000Z</time></trkpt>
			<trkpt lat="53.987247" lon="27.426455"><time>1970-01-01T00:00:01.000Z</time></trkpt>
			<trkpt lat="53.987227" lon="27.426434"><time>1970-01-01T00:00:01.000Z</time></trkpt>
			<trkpt lat="53.987729" lon="27.426814"><time>1970-01-01T00:00:01.000Z</time></trkpt>
			<trkpt lat="53.987935" lon="27.426898"><time>1970-01-01T00:00:01.000Z</time></trkpt>
			<trkpt lat="53.988190" lon="27.426954"><time>1970-01-01T00:00:01.000Z</time></trkpt>
			<trkpt lat="53.988567" lon="27.426850"><time>1970-01-01T00:00:01.000Z</time></trkpt>
			<trkpt lat="53.988672" lon="27.426921"><time>1970-01-01T00:00:01.000Z</time></trkpt>
			<trkpt lat="53.988707" lon="27.427099"><time>1970-01-01T00:00:01.000Z</time></trkpt>
			<trkpt lat="53.988652" lon="27.427324"><time>1970-01-01T00:00:01.000Z</time></trkpt>
			<trkpt lat="53.988674" lon="27.427485"><time>1970-01-01T00:00:01.000Z</time></trkpt>
			<trkpt lat="53.988619" lon="27.427475"><time>1970-01-01T00:00:01.000Z</time></trkpt>
			<trkpt lat="53.988461" lon="27.427664"><time>1970-01-01T00:00:01.000Z</time></trkpt>
			<trkpt lat="53.988366" lon="27.427967"><time>1970-01-01T00:00:01.000Z</time></trkpt>
			<trkpt lat="53.988294" lon="27.427977"><time>1970-01-01T00:00:01.000Z</time></trkpt>
			<trkpt lat="53.988274" lon="27.428044"><time>1970-01-01T00:00:01.000Z</time></trkpt>
			<trkpt lat="53.988314" lon="27.428279"><time>1970-01-01T00:00:01.000Z</time></trkpt>
			<trkpt lat="53.988263" lon="27.428767"><time>1970-01-01T00:00:01.000Z</time></trkpt>
			<trkpt lat="53.988412" lon="27.429255"><time>1970-01-01T00:00:01.000Z</time></trkpt>
			<trkpt lat="53.988490" lon="27.429265"><time>1970-01-01T00:00:01.000Z</time></trkpt>
			<trkpt lat="53.988505" lon="27.429302"><time>1970-01-01T00:00:01.000Z</time></trkpt>
			<trkpt lat="53.988533" lon="27.429809"><time>1970-01-01T00:00:01.000Z</time></trkpt>
			<trkpt lat="53.988391" lon="27.429748"><time>1970-01-01T00:00:01.000Z</time></trkpt>
			<trkpt lat="53.988303" lon="27.429844"><time>1970-01-01T00:00:01.000Z</time></trkpt>
			<trkpt lat="53.988309" lon="27.429959"><time>1970-01-01T00:00:01.000Z</time></trkpt>
			<trkpt lat="53.988346" lon="27.430015"><time>1970-01-01T00:00:01.000Z</time></trkpt>
			<trkpt lat="53.988230" lon="27.429887"><time>1970-01-01T00:00:01.000Z</time></trkpt>
			<trkpt lat="53.988153" lon="27.430158"><time>1970-01-01T00:00:01.000Z</time></trkpt>
			<trkpt lat="53.987893" lon="27.430450"><time>1970-01-01T00:00:01.000Z</time></trkpt>
			<trkpt lat="53.987813" lon="27.430792"><time>1970-01-01T00:00:01.000Z</time></trkpt>
			<trkpt lat="53.987890" lon="27.431286"><time>1970-01-01T00:00:01.000Z</time></trkpt>
			<trkpt lat="53.987977" lon="27.431577"><time>1970-01-01T00:00:01.000Z</time></trkpt>
			<trkpt lat="53.987974" lon="27.431718"><time>1970-01-01T00:00:01.000Z</time></trkpt>
			<trkpt lat="53.988168" lon="27.432070"><time>1970-01-01T00:00:01.000Z</time></trkpt>
			<trkpt lat="53.988244" lon="27.432111"><time>1970-01-01T00:00:01.000Z</time></trkpt>
			<trkpt lat="53.988427" lon="27.432036"><time>1970-01-01T00:00:01.000Z</time></trkpt>
			<trkpt lat="53.988533" lon="27.432067"><time>1970-01-01T00:00:01.000Z</time></trkpt>
			<trkpt lat="53.988583" lon="27.432189"><time>1970-01-01T00:00:01.000Z</time></trkpt>
			<trkpt lat="53.988582" lon="27.432430"><time>1970-01-01T00:00:01.000Z</time></trkpt>
			<trkpt lat="53.988538" lon="27.432438"><time>1970-01-01T00:00:01.000Z</time></trkpt>
			<trkpt lat="53.988467" lon="27.432577"><time>1970-01-01T00:00:01.000Z</time></trkpt>
			<trkpt lat="53.988437" lon="27.432774"><time>1970-01-01T00:00:01.000Z</time></trkpt>
			<trkpt lat="53.988369" lon="27.432865"><time>1970-01-01T00:00:01.000Z</time></trkpt>
			<trkpt lat="53.988246" lon="27.432876"><time>1970-01-01T00:00:01.000Z</time></trkpt>
			<trkpt lat="53.988102" lon="27.433085"><time>1970-01-01T00:00:01.000Z</time></trkpt>
			<trkpt lat="53.987961" lon="27.433073"><time>1970-01-01T00:00:01.000Z</time></trkpt>
			<trkpt lat="53.987944" lon="27.432919"><time>1970-01-01T00:00:01.000Z</time></trkpt>
			<trkpt lat="53.987805" lon="27.432594"><time>1970-01-01T00:00:01.000Z</time></trkpt>
			<trkpt lat="53.987723" lon="27.432480"><time>1970-01-01T00:00:01.000Z</time></trkpt>
			<trkpt lat="53.987704" lon="27.432316"><time>1970-01-01T00:00:01.000Z</time></trkpt>
			<trkpt lat="53.987628" lon="27.432385"><time>1970-01-01T00:00:01.000Z</time></trkpt>
			<trkpt lat="53.987486" lon="27.432438"><time>1970-01-01T00:00:01.000Z</time></trkpt>
			<trkpt lat="53.987329" lon="27.432614"><time>1970-01-01T00:00:01.000Z</time></trkpt>
			<trkpt lat="53.987162" lon="27.432664"><time>1970-01-01T00:00:01.000Z</time></trkpt>
			<trkpt lat="53.987089" lon="27.432751"><time>1970-01-01T00:00:01.000Z</time></trkpt>
			<trkpt lat="53.987008" lon="27.432727"><time>1970-01-01T00:00:01.000Z</time></trkpt>
			<trkpt lat="53.986882" lon="27.432930"><time>1970-01-01T00:00:01.000Z</time></trkpt>
			<trkpt lat="53.986809" lon="27.433211"><time>1970-01-01T00:00:01.000Z</time></trkpt>
			<trkpt lat="53.986698" lon="27.433337"><time>1970-01-01T00:00:01.000Z</time></trkpt>
			<trkpt lat="53.986374" lon="27.433449"><time>1970-01-01T00:00:01.000Z</time></trkpt>
			<trkpt lat="53.986360" lon="27.433851"><time>1970-01-01T00:00:01.000Z</time></trkpt>
			<trkpt lat="53.986406" lon="27.433691"><time>1970-01-01T00:00:01.000Z</time></trkpt>
			<trkpt lat="53.986382" lon="27.433488"><time>1970-01-01T00:00:01.000Z</time></trkpt>
			<trkpt lat="53.986123" lon="27.433248"><time>1970-01-01T00:00:01.000Z</time></trkpt>
			<trkpt lat="53.986055" lon="27.433236"><time>1970-01-01T00:00:01.000Z</time></trkpt>
			<trkpt lat="53.985980" lon="27.433044"><time>1970-01-01T00:00:01.000Z</time></trkpt>
			<trkpt lat="53.985786" lon="27.432756"><time>1970-01-01T00:00:01.000Z</time></trkpt>
			<trkpt lat="53.985705" lon="27.432116"><time>1970-01-01T00:00:01.000Z</time></trkpt>
			<trkpt lat="53.985674" lon="27.432149"><time>1970-01-01T00:00:01.000Z</time></trkpt>
			<trkpt lat="53.985738" lon="27.432006"><time>1970-01-01T00:00:01.000Z</time></trkpt>
			<trkpt lat="53.985711" lon="27.432056"><time>1970-01-01T00:00:01.000Z</time></trkpt>
			<trkpt lat="53.985641" lon="27.431359"><time>1970-01-01T00:00:01.000Z</time></trkpt>
			<trkpt lat="53.985575" lon="27.431234"><time>1970-01-01T00:00:01.000Z</time></trkpt>
			<trkpt lat="53.985102" lon="27.431410"><time>1970-01-01T00:00:01.000Z</time></trkpt>
			<trkpt lat="53.984862" lon="27.431427"><time>1970-01-01T00:00:01.000Z</time></trkpt>
			<trkpt lat="53.984191" lon="27.431685"><time>1970-01-01T00:00:01.000Z</time></trkpt>
			<trkpt lat="53.983946" lon="27.431739"><time>1970-01-01T00:00:01.000Z</time></trkpt>
			<trkpt lat="53.983877" lon="27.431703"><time>1970-01-01T00:00:01.000Z</time></trkpt>
			<trkpt lat="53.983827" lon="27.431793"><time>1970-01-01T00:00:01.000Z</time></trkpt>
			<trkpt lat="53.983358" lon="27.432139"><time>1970-01-01T00:00:01.000Z</time></trkpt>
			<trkpt lat="53.982951" lon="27.432640"><time>1970-01-01T00:00:01.000Z</time></trkpt>
			<trkpt lat="53.982911" lon="27.432784"><time>1970-01-01T00:00:01.000Z</time></trkpt>
			<trkpt lat="53.982775" lon="27.432972"><time>1970-01-01T00:00:01.000Z</time></trkpt>
			<trkpt lat="53.982707" lon="27.433014"><time>1970-01-01T00:00:01.000Z</time></trkpt>
			<trkpt lat="53.982463" lon="27.432638"><time>1970-01-01T00:00:01.000Z</time></trkpt>
			<trkpt lat="53.982093" lon="27.432256"><time>1970-01-01T00:00:01.000Z</time></trkpt>
			<trkpt lat="53.981989" lon="27.432062"><time>1970-01-01T00:00:01.000Z</time></trkpt>
			<trkpt lat="53.981488" lon="27.431437"><time>1970-01-01T00:00:01.000Z</time></trkpt>
			<trkpt lat="53.981279" lon="27.431266"><time>1970-01-01T00:00:01.000Z</time></trkpt>
			<trkpt lat="53.981184" lon="27.431251"><time>1970-01-01T00:00:01.000Z</time></trkpt>
			<trkpt lat="53.980998" lon="27.431524"><time>1970-01-01T00:00:01.000Z</time></trkpt>
			<trkpt lat="53.980660" lon="27.432306"><time>1970-01-01T00:00:01.000Z</time></trkpt>
			<trkpt lat="53.980355" lon="27.432812"><time>1970-01-01T00:00:01.000Z</time></trkpt>
			<trkpt lat="53.980320" lon="27.432815"><time>1970-01-01T00:00:01.000Z</time></trkpt>
			<trkpt lat="53.980325" lon="27.432836"><time>1970-01-01T00:00:01.000Z</time></trkpt>
			<trkpt lat="53.980357" lon="27.432805"><time>1970-01-01T00:00:01.000Z</time></trkpt>
			<trkpt lat="53.980339" lon="27.432821"><time>1970-01-01T00:00:01.000Z</time></trkpt>
			<trkpt lat="53.980358" lon="27.432808"><time>1970-01-01T00:00:01.000Z</time></trkpt>
			<trkpt lat="53.980412" lon="27.432875"><time>1970-01-01T00:00:01.000Z</time></trkpt>
			<trkpt lat="53.980337" lon="27.432910"><time>1970-01-01T00:00:01.000Z</time></trkpt>
			<trkpt lat="53.980364" lon="27.432795"><time>1970-01-01T00:00:01.000Z</time></trkpt>
			<trkpt lat="53.980433" lon="27.433113"><time>1970-01-01T00:00:01.000Z</time></trkpt>
			<trkpt lat="53.980351" lon="27.432829"><time>1970-01-01T00:00:01.000Z</time></trkpt>
			<trkpt lat="53.980363" lon="27.432875"><time>1970-01-01T00:00:01.000Z</time></trkpt>
			<trkpt lat="53.980334" lon="27.432839"><time>1970-01-01T00:00:01.000Z</time></trkpt>
			<trkpt lat="53.980254" lon="27.432951"><time>1970-01-01T00:00:01.000Z</time></trkpt>
			<trkpt lat="53.979790" lon="27.433966"><time>1970-01-01T00:00:01.000Z</time></trkpt>
			<trkpt lat="53.979628" lon="27.434102"><time>1970-01-01T00:00:01.000Z</time></trkpt>
			<trkpt lat="53.979560" lon="27.434435"><time>1970-01-01T00:00:01.000Z</time></trkpt>
			<trkpt lat="53.979426" lon="27.434638"><time>1970-01-01T00:00:01.000Z</time></trkpt>
			<trkpt lat="53.979400" lon="27.434748"><time>1970-01-01T00:00:01.000Z</time></trkpt>
			<trkpt lat="53.979417" lon="27.434952"><time>1970-01-01T00:00:01.000Z</time></trkpt>
			<trkpt lat="53.979337" lon="27.435275"><time>1970-01-01T00:00:01.000Z</time></trkpt>
			<trkpt lat="53.979078" lon="27.435585"><time>1970-01-01T00:00:01.000Z</time></trkpt>
			<trkpt lat="53.978911" lon="27.435908"><time>1970-01-01T00:00:01.000Z</time></trkpt>
			<trkpt lat="53.978690" lon="27.436224"><time>1970-01-01T00:00:01.000Z</time></trkpt>
			<trkpt lat="53.978488" lon="27.436192"><time>1970-01-01T00:00:01.000Z</time></trkpt>
			<trkpt lat="53.978287" lon="27.435720"><time>1970-01-01T00:00:01.000Z</time></trkpt>
			<trkpt lat="53.978112" lon="27.435527"><time>1970-01-01T00:00:01.000Z</time></trkpt>
			<trkpt lat="53.977996" lon="27.435330"><time>1970-01-01T00:00:01.000Z</time></trkpt>
			<trkpt lat="53.977753" lon="27.435216"><time>1970-01-01T00:00:01.000Z</time></trkpt>
			<trkpt lat="53.977320" lon="27.435185"><time>1970-01-01T00:00:01.000Z</time></trkpt>
			<trkpt lat="53.977075" lon="27.435110"><time>1970-01-01T00:00:01.000Z</time></trkpt>
			<trkpt lat="53.976898" lon="27.434955"><time>1970-01-01T00:00:01.000Z</time></trkpt>
			<trkpt lat="53.976344" lon="27.434686"><time>1970-01-01T00:00:01.000Z</time></trkpt>
			<trkpt lat="53.976247" lon="27.434462"><time>1970-01-01T00:00:01.000Z</time></trkpt>
			<trkpt lat="53.976272" lon="27.434536"><time>1970-01-01T00:00:01.000Z</time></trkpt>
			<trkpt lat="53.976231" lon="27.434439"><time>1970-01-01T00:00:01.000Z</time></trkpt>
			<trkpt lat="53.976149" lon="27.434404"><time>1970-01-01T00:00:01.000Z</time></trkpt>
			<trkpt lat="53.976101" lon="27.434256"><time>1970-01-01T00:00:01.000Z</time></trkpt>
			<trkpt lat="53.975905" lon="27.434204"><time>1970-01-01T00:00:01.000Z</time></trkpt>
			<trkpt lat="53.975844" lon="27.434130"><time>1970-01-01T00:00:01.000Z</time></trkpt>
			<trkpt lat="53.975793" lon="27.433634"><time>1970-01-01T00:00:01.000Z</time></trkpt>
			<trkpt lat="53.975681" lon="27.433568"><time>1970-01-01T00:00:01.000Z</time></trkpt>
			<trkpt lat="53.975740" lon="27.433494"><time>1970-01-01T00:00:01.000Z</time></trkpt>
			<trkpt lat="53.975767" lon="27.433324"><time>1970-01-01T00:00:01.000Z</time></trkpt>
			<trkpt lat="53.975676" lon="27.433081"><time>1970-01-01T00:00:01.000Z</time></trkpt>
			<trkpt lat="53.975748" lon="27.433012"><time>1970-01-01T00:00:01.000Z</time></trkpt>
			<trkpt lat="53.975832" lon="27.432805"><time>1970-01-01T00:00:01.000Z</time></trkpt>
			<trkpt lat="53.975795" lon="27.432251"><time>1970-01-01T00:00:01.000Z</time></trkpt>
			<trkpt lat="53.975843" lon="27.432172"><time>1970-01-01T00:00:01.000Z</time></trkpt>
			<trkpt lat="53.975847" lon="27.432022"><time>1970-01-01T00:00:01.000Z</time></trkpt>
			<trkpt lat="53.975930" lon="27.431704"><time>1970-01-01T00:00:01.000Z</time></trkpt>
			<trkpt lat="53.975817" lon="27.431329"><time>1970-01-01T00:00:01.000Z</time></trkpt>
			<trkpt lat="53.975809" lon="27.431201"><time>1970-01-01T00:00:01.000Z</time></trkpt>
			<trkpt lat="53.975690" lon="27.431158"><time>1970-01-01T00:00:01.000Z</time></trkpt>
			<trkpt lat="53.975675" lon="27.430720"><time>1970-01-01T00:00:01.000Z</time></trkpt>
			<trkpt lat="53.975587" lon="27.430634"><time>1970-01-01T00:00:01.000Z</time></trkpt>
			<trkpt lat="53.975665" lon="27.430445"><time>1970-01-01T00:00:01.000Z</time></trkpt>
			<trkpt lat="53.975678" lon="27.430486"><time>1970-01-01T00:00:01.000Z</time></trkpt>
			<trkpt lat="53.975843" lon="27.429843"><time>1970-01-01T00:00:01.000Z</time></trkpt>
			<trkpt lat="53.975927" lon="27.429769"><time>1970-01-01T00:00:01.000Z</time></trkpt>
			<trkpt lat="53.976047" lon="27.429443"><time>1970-01-01T00:00:01.000Z</time></trkpt>
			<trkpt lat="53.976018" lon="27.429240"><time>1970-01-01T00:00:01.000Z</time></trkpt>
			<trkpt lat="53.975932" lon="27.428992"><time>1970-01-01T00:00:01.000Z</time></trkpt>
			<trkpt lat="53.975961" lon="27.428551"><time>1970-01-01T00:00:01.000Z</time></trkpt>
			<trkpt lat="53.976044" lon="27.428037"><time>1970-01-01T00:00:01.000Z</time></trkpt>
			<trkpt lat="53.976199" lon="27.427607"><time>1970-01-01T00:00:01.000Z</time></trkpt>
			<trkpt lat="53.976247" lon="27.427237"><time>1970-01-01T00:00:01.000Z</time></trkpt>
			<trkpt lat="53.976322" lon="27.426951"><time>1970-01-01T00:00:01.000Z</time></trkpt>
			<trkpt lat="53.976417" lon="27.426800"><time>1970-01-01T00:00:01.000Z</time></trkpt>
			<trkpt lat="53.976571" lon="27.426359"><time>1970-01-01T00:00:01.000Z</time></trkpt>
			<trkpt lat="53.976727" lon="27.426054"><time>1970-01-01T00:00:01.000Z</time></trkpt>
			<trkpt lat="53.976821" lon="27.425967"><time>1970-01-01T00:00:01.000Z</time></trkpt>
			<trkpt lat="53.976967" lon="27.425711"><time>1970-01-01T00:00:01.000Z</time></trkpt>
			<trkpt lat="53.977027" lon="27.425556"><time>1970-01-01T00:00:01.000Z</time></trkpt>
			<trkpt lat="53.976935" lon="27.425281"><time>1970-01-01T00:00:01.000Z</time></trkpt>
			<trkpt lat="53.976773" lon="27.424981"><time>1970-01-01T00:00:01.000Z</time></trkpt>
			<trkpt lat="53.976505" lon="27.424634"><time>1970-01-01T00:00:01.000Z</time></trkpt>
			<trkpt lat="53.976307" lon="27.424459"><time>1970-01-01T00:00:01.000Z</time></trkpt>
			<trkpt lat="53.976020" lon="27.424122"><time>1970-01-01T00:00:01.000Z</time></trkpt>
			<trkpt lat="53.975598" lon="27.423768"><time>1970-01-01T00:00:01.000Z</time></trkpt>
			<trkpt lat="53.975398" lon="27.423678"><time>1970-01-01T00:00:01.000Z</time></trkpt>
			<trkpt lat="53.975277" lon="27.423731"><time>1970-01-01T00:00:01.000Z</time></trkpt>
			<trkpt lat="53.975140" lon="27.423674"><time>1970-01-01T00:00:01.000Z</time></trkpt>
			<trkpt lat="53.974890" lon="27.423504"><time>1970-01-01T00:00:01.000Z</time></trkpt>
			<trkpt lat="53.974660" lon="27.423401"><time>1970-01-01T00:00:01.000Z</time></trkpt>
			<trkpt lat="53.974408" lon="27.423180"><time>1970-01-01T00:00:01.000Z</time></trkpt>
			<trkpt lat="53.974435" lon="27.423205"><time>1970-01-01T00:00:01.000Z</time></trkpt>
			<trkpt lat="53.974516" lon="27.423146"><time>1970-01-01T00:00:01.000Z</time></trkpt>
			<trkpt lat="53.974614" lon="27.422849"><time>1970-01-01T00:00:01.000Z</time></trkpt>
			<trkpt lat="53.974989" lon="27.422051"><time>1970-01-01T00:00:01.000Z</time></trkpt>
			<trkpt lat="53.975288" lon="27.421262"><time>1970-01-01T00:00:01.000Z</time></trkpt>
			<trkpt lat="53.975391" lon="27.420874"><time>1970-01-01T00:00:01.000Z</time></trkpt>
			<trkpt lat="53.975911" lon="27.419601"><time>1970-01-01T00:00:01.000Z</time></trkpt>
			<trkpt lat="53.975364" lon="27.418882"><time>1970-01-01T00:00:01.000Z</time></trkpt>
			<trkpt lat="53.975148" lon="27.418394"><time>1970-01-01T00:00:01.000Z</time></trkpt>
			<trkpt lat="53.974996" lon="27.418267"><time>1970-01-01T00:00:01.000Z</time></trkpt>
			<trkpt lat="53.974738" lon="27.418210"><time>1970-01-01T00:00:01.000Z</time></trkpt>
			<trkpt lat="53.974461" lon="27.418046"><time>1970-01-01T00:00:01.000Z</time></trkpt>
			<trkpt lat="53.974307" lon="27.417870"><time>1970-01-01T00:00:01.000Z</time></trkpt>
			<trkpt lat="53.974291" lon="27.417762"><time>1970-01-01T00:00:01.000Z</time></trkpt>
			<trkpt lat="53.974161" lon="27.417579"><time>1970-01-01T00:00:01.000Z</time></trkpt>
		</trkseg>
	</trk>
</gpx>